<?xml version="1.0" encoding="UTF-8"?>
<osm version="0.6" generator="Overpass API 0.7.56.9 76e5016d">
<note>The data included in this document is from www.openstreetmap.org. The data is made available under ODbL.</note>
<meta osm_base="2021-08-26T00:57:58Z" areas="2021-08-26T00:14:13Z"/>

<action type="delete">
<old>
  <node id="6905269374" lat="37.0373186" lon="-7.9571104" version="11" timestamp="2021-08-25T21:06:38Z" changeset="110252329" uid="347293" user="Alexmol">
    <tag k="access" v="yes"/>
    <tag k="addr:city" v="Faro"/>
    <tag k="addr:country" v="PT"/>
    <tag k="addr:street" v="Via Colectora da EN125-10"/>
    <tag k="amenity" v="charging_station"/>
    <tag k="authentication:membership_card" v="yes"/>
    <tag k="authentication:none" v="no"/>
    <tag k="capacity" v="1"/>
    <tag k="email" v="electric@prioenergy.com"/>
    <tag k="fee" v="yes"/>
    <tag k="motorcar" v="yes"/>
    <tag k="name" v="FAR-00024"/>
    <tag k="network" v="Mobi.E"/>
    <tag k="opening_hours" v="24/7"/>
    <tag k="operator" v="Prio.E"/>
    <tag k="parking:fee" v="no"/>
    <tag k="phone" v="+351 800 450 111"/>
    <tag k="ref" v="FAR-00024"/>
    <tag k="socket:chademo" v="1"/>
    <tag k="socket:chademo:current" v="120"/>
    <tag k="socket:chademo:output" v="50kW"/>
    <tag k="socket:chademo:voltage" v="500"/>
    <tag k="socket:type2_combo" v="1"/>
    <tag k="socket:type2_combo:current" v="125"/>
    <tag k="socket:type2_combo:output" v="50kW"/>
    <tag k="socket:type2_combo:voltage" v="500"/>
    <tag k="website" v="https://www.mobie.pt/"/>
  </node>
</old>
<new>
  <node id="6905269374" visible="true" version="10" timestamp="2021-08-08T10:03:55Z" changeset="109338603" uid="347293" user="Alexmol"/>
</new>
</action>
<action type="delete">
<old>
  <node id="8014476757" lat="38.7882711" lon="-9.1461396" version="7" timestamp="2021-08-25T21:06:38Z" changeset="110252329" uid="347293" user="Alexmol">
    <tag k="access" v="yes"/>
    <tag k="addr:city" v="Lisboa"/>
    <tag k="addr:country" v="PT"/>
    <tag k="amenity" v="charging_station"/>
    <tag k="authentication:membership_card" v="yes"/>
    <tag k="authentication:none" v="no"/>
    <tag k="capacity" v="1"/>
    <tag k="email" v="electric@prioenergy.com"/>
    <tag k="fee" v="yes"/>
    <tag k="motorcar" v="yes"/>
    <tag k="name" v="LSB-01529"/>
    <tag k="network" v="Mobi.E"/>
    <tag k="opening_hours" v="24/7"/>
    <tag k="operator" v="Prio.E"/>
    <tag k="parking:fee" v="no"/>
    <tag k="phone" v="+351 800 450 111"/>
    <tag k="ref" v="LSB-01529"/>
    <tag k="socket:chademo" v="1"/>
    <tag k="socket:chademo:current" v="120"/>
    <tag k="socket:chademo:output" v="50kW"/>
    <tag k="socket:chademo:voltage" v="500"/>
    <tag k="socket:type2_combo" v="1"/>
    <tag k="socket:type2_combo:current" v="125"/>
    <tag k="socket:type2_combo:output" v="50kW"/>
    <tag k="socket:type2_combo:voltage" v="500"/>
    <tag k="website" v="https://www.mobie.pt/"/>
  </node>
</old>
<new>
  <node id="8014476757" visible="true" version="6" timestamp="2021-08-19T19:55:38Z" changeset="109952155" uid="347293" user="Alexmol"/>
</new>
</action>
<action type="delete">
<old>
  <node id="8222924827" lat="38.7018159" lon="-9.2939088" version="8" timestamp="2021-08-25T21:06:38Z" changeset="110252329" uid="347293" user="Alexmol">
    <tag k="access" v="yes"/>
    <tag k="addr:city" v="Oeiras"/>
    <tag k="addr:country" v="PT"/>
    <tag k="addr:street" v="Rua JosÃ© Pedro da Silva"/>
    <tag k="amenity" v="charging_station"/>
    <tag k="authentication:membership_card" v="yes"/>
    <tag k="authentication:none" v="no"/>
    <tag k="capacity" v="1"/>
    <tag k="fee" v="yes"/>
    <tag k="motorcar" v="yes"/>
    <tag k="name" v="OER-00085"/>
    <tag k="network" v="Mobi.E"/>
    <tag k="opening_hours" v="24/7"/>
    <tag k="operator" v="Galp Power"/>
    <tag k="parking:fee" v="no"/>
    <tag k="ref" v="OER-00085"/>
    <tag k="socket:chademo" v="1"/>
    <tag k="socket:chademo:current" v="120"/>
    <tag k="socket:chademo:output" v="50kW"/>
    <tag k="socket:chademo:voltage" v="500"/>
    <tag k="socket:type2_combo" v="1"/>
    <tag k="socket:type2_combo:current" v="350"/>
    <tag k="socket:type2_combo:output" v="160kW"/>
    <tag k="socket:type2_combo:voltage" v="920"/>
    <tag k="website" v="https://www.mobie.pt/"/>
  </node>
</old>
<new>
  <node id="8222924827" visible="true" version="7" timestamp="2021-08-17T21:44:23Z" changeset="109835562" uid="347293" user="Alexmol"/>
</new>
</action>
<action type="delete">
<old>
  <node id="8930776930" lat="38.7550310" lon="-9.1894420" version="5" timestamp="2021-08-25T21:06:38Z" changeset="110252329" uid="347293" user="Alexmol">
    <tag k="access" v="yes"/>
    <tag k="addr:country" v="PT"/>
    <tag k="amenity" v="charging_station"/>
    <tag k="authentication:membership_card" v="yes"/>
    <tag k="authentication:none" v="no"/>
    <tag k="capacity" v="24"/>
    <tag k="fee" v="yes"/>
    <tag k="level" v="-3"/>
    <tag k="location" v="underground"/>
    <tag k="motorcar" v="yes"/>
    <tag k="name" v="LSB-00379/380 - Colombo Shopping Piso -3"/>
    <tag k="network" v="Mobi.E"/>
    <tag k="opening_hours" v="Mo-Su 09:00-22:00"/>
    <tag k="operator" v="CapWatt"/>
    <tag k="parking:fee" v="yes"/>
    <tag k="ref" v="LSB-00379;LSB-00380"/>
    <tag k="socket:type2" v="24"/>
    <tag k="socket:type2:current" v="32"/>
    <tag k="socket:type2:output" v="22kW"/>
    <tag k="socket:type2:voltage" v="400"/>
    <tag k="website" v="https://www.mobie.pt/"/>
  </node>
</old>
<new>
  <node id="8930776930" visible="true" version="4" timestamp="2021-08-21T14:22:19Z" changeset="110030467" uid="347293" user="Alexmol"/>
</new>
</action>
<action type="delete">
<old>
  <node id="9033085850" lat="38.1677708" lon="-8.4914291" version="2" timestamp="2021-08-25T21:32:39Z" changeset="110253012" uid="347293" user="Alexmol">
    <tag k="access" v="yes"/>
    <tag k="addr:country" v="PT"/>
    <tag k="amenity" v="charging_station"/>
    <tag k="authentication:membership_card" v="yes"/>
    <tag k="authentication:none" v="no"/>
    <tag k="capacity" v="1"/>
    <tag k="email" v="mobilidade-eletrica@edp.pt"/>
    <tag k="fee" v="yes"/>
    <tag k="name" v="GDL-00007"/>
    <tag k="network" v="Mobi.E"/>
    <tag k="opening_hours" v="24/7"/>
    <tag k="operator" v="EDP Comercial"/>
    <tag k="parking:fee" v="no"/>
    <tag k="phone" v="+351 800 222 222"/>
    <tag k="ref" v="GDL-00007"/>
    <tag k="socket:chademo" v="1"/>
    <tag k="socket:chademo:current" v="120"/>
    <tag k="socket:chademo:output" v="50kW"/>
    <tag k="socket:chademo:voltage" v="500"/>
    <tag k="socket:type2_combo" v="1"/>
    <tag k="socket:type2_combo:current" v="350"/>
    <tag k="socket:type2_combo:output" v="160kW"/>
    <tag k="socket:type2_combo:voltage" v="920"/>
    <tag k="website" v="https://www.mobie.pt/"/>
  </node>
</old>
<new>
  <node id="9033085850" visible="true" version="1" timestamp="2021-08-24T20:03:27Z" changeset="110191787" uid="347293" user="Alexmol"/>
</new>
</action>
<action type="delete">
<old>
  <node id="9033085851" lat="38.1669041" lon="-8.4919393" version="2" timestamp="2021-08-25T21:32:39Z" changeset="110253012" uid="347293" user="Alexmol">
    <tag k="access" v="yes"/>
    <tag k="addr:country" v="PT"/>
    <tag k="amenity" v="charging_station"/>
    <tag k="authentication:membership_card" v="yes"/>
    <tag k="authentication:none" v="no"/>
    <tag k="capacity" v="1"/>
    <tag k="email" v="mobilidade-eletrica@edp.pt"/>
    <tag k="fee" v="yes"/>
    <tag k="name" v="GDL-00006"/>
    <tag k="network" v="Mobi.E"/>
    <tag k="opening_hours" v="24/7"/>
    <tag k="operator" v="EDP Comercial"/>
    <tag k="parking:fee" v="no"/>
    <tag k="phone" v="+351 800 222 222"/>
    <tag k="ref" v="GDL-00006"/>
    <tag k="socket:chademo" v="1"/>
    <tag k="socket:chademo:current" v="120"/>
    <tag k="socket:chademo:output" v="50kW"/>
    <tag k="socket:chademo:voltage" v="500"/>
    <tag k="socket:type2_combo" v="1"/>
    <tag k="socket:type2_combo:current" v="350"/>
    <tag k="socket:type2_combo:output" v="160kW"/>
    <tag k="socket:type2_combo:voltage" v="920"/>
    <tag k="website" v="https://www.mobie.pt/"/>
  </node>
</old>
<new>
  <node id="9033085851" visible="true" version="1" timestamp="2021-08-24T20:03:27Z" changeset="110191787" uid="347293" user="Alexmol"/>
</new>
</action>

</osm>
