<?xml version="1.0" encoding="UTF-8"?>
<osm version="0.6" generator="Overpass API 0.7.56.9 76e5016d">
<note>The data included in this document is from www.openstreetmap.org. The data is made available under ODbL.</note>
<meta osm_base="2021-07-17T00:59:57Z" areas="2021-07-17T00:41:32Z"/>

<action type="delete">
<old>
  <node id="3697279495" lat="38.6944796" lon="-9.4229035" version="10" timestamp="2021-07-16T13:33:22Z" changeset="108121483" uid="347293" user="Alexmol">
    <tag k="access" v="yes"/>
    <tag k="addr:country" v="PT"/>
    <tag k="amenity" v="charging_station"/>
    <tag k="authentication:membership_card" v="yes"/>
    <tag k="authentication:none" v="no"/>
    <tag k="capacity" v="2"/>
    <tag k="email" v="apoio.cliente@kmlowcost.com"/>
    <tag k="fee" v="yes"/>
    <tag k="motorcar" v="yes"/>
    <tag k="name" v="CSC-00002"/>
    <tag k="network" v="Mobi.E"/>
    <tag k="opening_hours" v="24/7"/>
    <tag k="operator" v="KLC"/>
    <tag k="parking:fee" v="no"/>
    <tag k="phone" v="+351 800 296 929"/>
    <tag k="ref" v="CSC-90002"/>
    <tag k="socket:type2" v="2"/>
    <tag k="socket:type2:current" v="32"/>
    <tag k="socket:type2:output" v="7.4kW"/>
    <tag k="socket:type2:voltage" v="230"/>
    <tag k="website" v="https://www.mobie.pt/"/>
  </node>
</old>
<new>
  <node id="3697279495" visible="true" version="9" timestamp="2021-06-05T13:11:11Z" changeset="105881900" uid="347293" user="Alexmol"/>
</new>
</action>
<action type="delete">
<old>
  <node id="7070428801" lat="37.0763132" lon="-8.0951241" version="6" timestamp="2021-07-16T15:39:01Z" changeset="108126682" uid="347293" user="Alexmol">
    <tag k="access" v="yes"/>
    <tag k="addr:city" v="Quarteira"/>
    <tag k="addr:country" v="PT"/>
    <tag k="addr:postcode" v="8125-406"/>
    <tag k="addr:street" v="Av. de Ceuta"/>
    <tag k="amenity" v="charging_station"/>
    <tag k="authentication:membership_card" v="yes"/>
    <tag k="authentication:none" v="no"/>
    <tag k="capacity" v="2"/>
    <tag k="fee" v="yes"/>
    <tag k="motorcar" v="yes"/>
    <tag k="name" v="LLE-00028 - BP"/>
    <tag k="network" v="Mobi.E"/>
    <tag k="opening_hours" v="24/7"/>
    <tag k="operator" v="EDP Comercial"/>
    <tag k="parking:fee" v="no"/>
    <tag k="ref" v="LLE-00028"/>
    <tag k="socket:chademo" v="1"/>
    <tag k="socket:chademo:current" v="120"/>
    <tag k="socket:chademo:output" v="50kW"/>
    <tag k="socket:chademo:voltage" v="500"/>
    <tag k="socket:type2_cable" v="1"/>
    <tag k="socket:type2_cable:current" v="63"/>
    <tag k="socket:type2_cable:output" v="43kW"/>
    <tag k="socket:type2_cable:voltage" v="400"/>
    <tag k="socket:type2_combo" v="1"/>
    <tag k="socket:type2_combo:current" v="125"/>
    <tag k="socket:type2_combo:output" v="50kW"/>
    <tag k="socket:type2_combo:voltage" v="500"/>
    <tag k="website" v="https://www.mobie.pt/"/>
  </node>
</old>
<new>
  <node id="7070428801" visible="true" version="5" timestamp="2021-03-09T20:45:15Z" changeset="100732739" uid="347293" user="Alexmol"/>
</new>
</action>
<action type="delete">
<old>
  <node id="7593177680" lat="37.7234737" lon="-8.7852212" version="8" timestamp="2021-07-16T15:39:01Z" changeset="108126682" uid="347293" user="Alexmol">
    <tag k="access" v="yes"/>
    <tag k="addr:city" v="Vila Nova de Milfontes"/>
    <tag k="addr:country" v="PT"/>
    <tag k="addr:street" v="Avenida Marginal"/>
    <tag k="amenity" v="charging_station"/>
    <tag k="authentication:membership_card" v="yes"/>
    <tag k="authentication:none" v="no"/>
    <tag k="capacity" v="2"/>
    <tag k="email" v="mobilidade.electricacrc@galp.com"/>
    <tag k="fee" v="yes"/>
    <tag k="motorcar" v="yes"/>
    <tag k="name" v="ODM-00004"/>
    <tag k="network" v="Mobi.E"/>
    <tag k="opening_hours" v="24/7"/>
    <tag k="operator" v="Galp Power"/>
    <tag k="parking:fee" v="no"/>
    <tag k="phone" v="+351 800 249 249"/>
    <tag k="ref" v="ODM-00004"/>
    <tag k="socket:type2" v="2"/>
    <tag k="socket:type2:current" v="16"/>
    <tag k="socket:type2:output" v="3.7kW"/>
    <tag k="socket:type2:voltage" v="230"/>
    <tag k="website" v="https://www.mobie.pt/"/>
  </node>
</old>
<new>
  <node id="7593177680" visible="true" version="7" timestamp="2021-03-09T20:45:32Z" changeset="100732753" uid="347293" user="Alexmol"/>
</new>
</action>
<action type="delete">
<old>
  <node id="8113054724" lat="41.2676013" lon="-8.0789222" version="7" timestamp="2021-07-16T13:33:22Z" changeset="108121483" uid="347293" user="Alexmol">
    <tag k="access" v="yes"/>
    <tag k="addr:country" v="PT"/>
    <tag k="amenity" v="charging_station"/>
    <tag k="authentication:membership_card" v="yes"/>
    <tag k="authentication:none" v="no"/>
    <tag k="capacity" v="2"/>
    <tag k="email" v="apoio.cliente@kmlowcost.com"/>
    <tag k="fee" v="yes"/>
    <tag k="motorcar" v="yes"/>
    <tag k="name" v="AMT-00001"/>
    <tag k="network" v="Mobi.E"/>
    <tag k="opening_hours" v="24/7"/>
    <tag k="operator" v="KLC"/>
    <tag k="parking:fee" v="no"/>
    <tag k="phone" v="+351 800 296 929"/>
    <tag k="ref" v="AMT-00001"/>
    <tag k="socket:type2" v="2"/>
    <tag k="socket:type2:current" v="32"/>
    <tag k="socket:type2:output" v="22kW"/>
    <tag k="socket:type2:voltage" v="400"/>
    <tag k="website" v="https://www.mobie.pt/"/>
  </node>
</old>
<new>
  <node id="8113054724" visible="true" version="6" timestamp="2021-03-17T22:58:31Z" changeset="101216918" uid="347293" user="Alexmol"/>
</new>
</action>
<action type="delete">
<old>
  <node id="8289278913" lat="38.7023813" lon="-7.4056153" version="3" timestamp="2021-07-16T15:39:01Z" changeset="108126682" uid="347293" user="Alexmol">
    <tag k="access" v="yes"/>
    <tag k="addr:country" v="PT"/>
    <tag k="amenity" v="charging_station"/>
    <tag k="authentication:membership_card" v="yes"/>
    <tag k="authentication:none" v="no"/>
    <tag k="capacity" v="2"/>
    <tag k="fee" v="yes"/>
    <tag k="motorcar" v="yes"/>
    <tag k="name" v="ADL-00001"/>
    <tag k="network" v="Mobi.E"/>
    <tag k="opening_hours" v="24/7"/>
    <tag k="operator" v="EDP Comercial"/>
    <tag k="parking:fee" v="no"/>
    <tag k="ref" v="ADL-00001"/>
    <tag k="socket:type2" v="2"/>
    <tag k="socket:type2:current" v="32"/>
    <tag k="socket:type2:output" v="22kW"/>
    <tag k="socket:type2:voltage" v="400"/>
    <tag k="website" v="https://www.mobie.pt/"/>
  </node>
</old>
<new>
  <node id="8289278913" visible="true" version="2" timestamp="2021-03-09T20:45:58Z" changeset="100732767" uid="347293" user="Alexmol"/>
</new>
</action>
<action type="delete">
<old>
  <node id="8406002021" lat="38.6913687" lon="-9.4228792" version="3" timestamp="2021-07-16T22:04:25Z" changeset="108142043" uid="347293" user="Alexmol">
    <tag k="access" v="customers"/>
    <tag k="addr:country" v="PT"/>
    <tag k="amenity" v="charging_station"/>
    <tag k="authentication:membership_card" v="yes"/>
    <tag k="authentication:none" v="no"/>
    <tag k="capacity" v="2"/>
    <tag k="fee" v="yes"/>
    <tag k="motorcar" v="yes"/>
    <tag k="name" v="CSC-00043/44 - Vila Galé"/>
    <tag k="network" v="Mobi.E"/>
    <tag k="opening_hours" v="24/7"/>
    <tag k="operator" v="EDP Comercial"/>
    <tag k="parking:fee" v="no"/>
    <tag k="ref" v="CSC-00043;CSC-00044"/>
    <tag k="socket:type2" v="2"/>
    <tag k="socket:type2:current" v="32"/>
    <tag k="socket:type2:output" v="7.4kW"/>
    <tag k="socket:type2:voltage" v="230"/>
    <tag k="website" v="https://www.mobie.pt/"/>
  </node>
</old>
<new>
  <node id="8406002021" visible="true" version="2" timestamp="2021-03-09T20:46:00Z" changeset="100732767" uid="347293" user="Alexmol"/>
</new>
</action>
<action type="modify">
<old>
  <node id="8410120114" version="3" timestamp="2021-07-16T23:00:39Z" changeset="108143075" uid="347293" user="Alexmol"/>
</old>
<new>
  <node id="8410120114" lat="39.2031331" lon="-8.7397387" version="2" timestamp="2021-03-09T20:46:00Z" changeset="100732767" uid="347293" user="Alexmol">
    <tag k="amenity" v="charging_station"/>
    <tag k="website" v="https://www.mobie.pt/"/>
    <tag k="access" v="private"/>
    <tag k="addr:country" v="PT"/>
    <tag k="authentication:membership_card" v="yes"/>
    <tag k="authentication:none" v="no"/>
    <tag k="capacity" v="2"/>
    <tag k="fee" v="yes"/>
    <tag k="motorcar" v="yes"/>
    <tag k="name" v="INIAV-00009"/>
    <tag k="network" v="Mobi.E"/>
    <tag k="opening_hours" v="24/7"/>
    <tag k="operator" v="KLC"/>
    <tag k="parking:fee" v="no"/>
    <tag k="ref" v="INIAV-00009"/>
    <tag k="socket:type2" v="2"/>
    <tag k="socket:type2:current" v="32"/>
    <tag k="socket:type2:output" v="22kW"/>
    <tag k="socket:type2:voltage" v="400"/>
  </node>
</new>
</action>
<action type="delete">
<old>
  <node id="8427186506" lat="38.5372565" lon="-28.6263210" version="4" timestamp="2021-07-16T13:33:22Z" changeset="108121483" uid="347293" user="Alexmol">
    <tag k="access" v="yes"/>
    <tag k="addr:country" v="PT"/>
    <tag k="amenity" v="charging_station"/>
    <tag k="authentication:membership_card" v="yes"/>
    <tag k="authentication:none" v="no"/>
    <tag k="capacity" v="2"/>
    <tag k="fee" v="yes"/>
    <tag k="motorcar" v="yes"/>
    <tag k="name" v="HRT-00003"/>
    <tag k="network" v="Mobi.E"/>
    <tag k="opening_hours" v="24/7"/>
    <tag k="operator" v="SEGMA"/>
    <tag k="parking:fee" v="no"/>
    <tag k="ref" v="HRT-00003"/>
    <tag k="socket:type2" v="2"/>
    <tag k="socket:type2:current" v="32"/>
    <tag k="socket:type2:output" v="22kW"/>
    <tag k="socket:type2:voltage" v="400"/>
    <tag k="website" v="https://www.mobie.pt/"/>
  </node>
</old>
<new>
  <node id="8427186506" visible="true" version="3" timestamp="2021-05-27T18:48:11Z" changeset="105444757" uid="347293" user="Alexmol"/>
</new>
</action>
<action type="delete">
<old>
  <node id="8440774859" lat="40.6851500" lon="-8.5211800" version="4" timestamp="2021-07-16T15:39:01Z" changeset="108126682" uid="347293" user="Alexmol">
    <tag k="access" v="yes"/>
    <tag k="addr:city" v="Albergaria-a-Velha"/>
    <tag k="addr:country" v="PT"/>
    <tag k="addr:street" v="EN 16"/>
    <tag k="amenity" v="charging_station"/>
    <tag k="authentication:membership_card" v="yes"/>
    <tag k="authentication:none" v="no"/>
    <tag k="capacity" v="2"/>
    <tag k="fee" v="yes"/>
    <tag k="motorcar" v="yes"/>
    <tag k="name" v="ALB-00004"/>
    <tag k="network" v="Mobi.E"/>
    <tag k="opening_hours" v="24/7"/>
    <tag k="operator" v="Powerdot"/>
    <tag k="parking:fee" v="no"/>
    <tag k="ref" v="ALB-00004"/>
    <tag k="socket:chademo" v="1"/>
    <tag k="socket:chademo:current" v="120"/>
    <tag k="socket:chademo:output" v="50kW"/>
    <tag k="socket:chademo:voltage" v="500"/>
    <tag k="socket:type2_cable" v="1"/>
    <tag k="socket:type2_cable:current" v="63"/>
    <tag k="socket:type2_cable:output" v="43kW"/>
    <tag k="socket:type2_cable:voltage" v="400"/>
    <tag k="socket:type2_combo" v="1"/>
    <tag k="socket:type2_combo:current" v="125"/>
    <tag k="socket:type2_combo:output" v="50kW"/>
    <tag k="socket:type2_combo:voltage" v="500"/>
    <tag k="website" v="https://www.mobie.pt/"/>
  </node>
</old>
<new>
  <node id="8440774859" visible="true" version="3" timestamp="2021-04-25T19:10:29Z" changeset="103588453" uid="347293" user="Alexmol"/>
</new>
</action>
<action type="delete">
<old>
  <node id="8441004459" lat="37.7148428" lon="-25.4690606" version="3" timestamp="2021-07-16T16:03:09Z" changeset="108127753" uid="347293" user="Alexmol">
    <tag k="access" v="customers"/>
    <tag k="addr:country" v="PT"/>
    <tag k="amenity" v="charging_station"/>
    <tag k="authentication:membership_card" v="yes"/>
    <tag k="authentication:none" v="no"/>
    <tag k="capacity" v="2"/>
    <tag k="fee" v="yes"/>
    <tag k="motorcar" v="yes"/>
    <tag k="name" v="VFC-00003/4 - Pestana Bahia Praia"/>
    <tag k="network" v="Mobi.E"/>
    <tag k="opening_hours" v="24/7"/>
    <tag k="operator" v="EDP Comercial"/>
    <tag k="parking:fee" v="no"/>
    <tag k="ref" v="VFC-00003;VFC-00004"/>
    <tag k="socket:type2" v="2"/>
    <tag k="socket:type2:current" v="32"/>
    <tag k="socket:type2:output" v="7.4kW"/>
    <tag k="socket:type2:voltage" v="230"/>
    <tag k="website" v="https://www.mobie.pt/"/>
  </node>
</old>
<new>
  <node id="8441004459" visible="true" version="2" timestamp="2021-03-09T20:44:50Z" changeset="100732725" uid="347293" user="Alexmol"/>
</new>
</action>
<action type="delete">
<old>
  <node id="8460926799" lat="38.7342281" lon="-9.2243353" version="3" timestamp="2021-07-16T23:00:39Z" changeset="108143075" uid="347293" user="Alexmol">
    <tag k="access" v="private"/>
    <tag k="addr:country" v="PT"/>
    <tag k="amenity" v="charging_station"/>
    <tag k="authentication:membership_card" v="yes"/>
    <tag k="authentication:none" v="no"/>
    <tag k="capacity" v="6"/>
    <tag k="fee" v="yes"/>
    <tag k="motorcar" v="yes"/>
    <tag k="name" v="AMD-00008/9/10 - Alfrapark"/>
    <tag k="network" v="Mobi.E"/>
    <tag k="opening_hours" v="24/7"/>
    <tag k="operator" v="Mobiletric"/>
    <tag k="parking:fee" v="no"/>
    <tag k="ref" v="AMD-00008;AMD-00009;AMD-00010"/>
    <tag k="socket:type2" v="6"/>
    <tag k="socket:type2:current" v="32"/>
    <tag k="socket:type2:output" v="7.4kW"/>
    <tag k="socket:type2:voltage" v="230"/>
    <tag k="website" v="https://www.mobie.pt/"/>
  </node>
</old>
<new>
  <node id="8460926799" visible="true" version="2" timestamp="2021-03-09T20:46:01Z" changeset="100732767" uid="347293" user="Alexmol"/>
</new>
</action>
<action type="delete">
<old>
  <node id="8479809332" lat="39.2031220" lon="-8.7397370" version="3" timestamp="2021-07-16T23:00:39Z" changeset="108143075" uid="347293" user="Alexmol">
    <tag k="access" v="private"/>
    <tag k="addr:country" v="PT"/>
    <tag k="amenity" v="charging_station"/>
    <tag k="authentication:membership_card" v="yes"/>
    <tag k="authentication:none" v="no"/>
    <tag k="capacity" v="2"/>
    <tag k="fee" v="yes"/>
    <tag k="motorcar" v="yes"/>
    <tag k="name" v="STR-00013"/>
    <tag k="network" v="Mobi.E"/>
    <tag k="opening_hours" v="24/7"/>
    <tag k="operator" v="KLC"/>
    <tag k="parking:fee" v="no"/>
    <tag k="ref" v="STR-00013"/>
    <tag k="socket:type2" v="2"/>
    <tag k="socket:type2:current" v="32"/>
    <tag k="socket:type2:output" v="22kW"/>
    <tag k="socket:type2:voltage" v="400"/>
    <tag k="website" v="https://www.mobie.pt/"/>
  </node>
</old>
<new>
  <node id="8479809332" visible="true" version="2" timestamp="2021-03-09T20:46:01Z" changeset="100732767" uid="347293" user="Alexmol"/>
</new>
</action>
<action type="delete">
<old>
  <node id="8681176706" lat="41.1839200" lon="-8.4812530" version="3" timestamp="2021-07-16T13:33:22Z" changeset="108121483" uid="347293" user="Alexmol">
    <tag k="access" v="yes"/>
    <tag k="addr:city" v="Valongo"/>
    <tag k="addr:country" v="PT"/>
    <tag k="amenity" v="charging_station"/>
    <tag k="authentication:membership_card" v="yes"/>
    <tag k="authentication:none" v="no"/>
    <tag k="capacity" v="2"/>
    <tag k="fee" v="yes"/>
    <tag k="motorcar" v="yes"/>
    <tag k="name" v="VLG-00009 - Intermarché"/>
    <tag k="network" v="Mobi.E"/>
    <tag k="opening_hours" v="24/7"/>
    <tag k="operator" v="Powerdot"/>
    <tag k="parking:fee" v="no"/>
    <tag k="ref" v="VLG-00009"/>
    <tag k="socket:chademo" v="1"/>
    <tag k="socket:chademo:current" v="120"/>
    <tag k="socket:chademo:output" v="50kW"/>
    <tag k="socket:chademo:voltage" v="500"/>
    <tag k="socket:type2_cable" v="1"/>
    <tag k="socket:type2_cable:current" v="63"/>
    <tag k="socket:type2_cable:output" v="43kW"/>
    <tag k="socket:type2_cable:voltage" v="400"/>
    <tag k="socket:type2_combo" v="1"/>
    <tag k="socket:type2_combo:current" v="125"/>
    <tag k="socket:type2_combo:output" v="50kW"/>
    <tag k="socket:type2_combo:voltage" v="500"/>
    <tag k="website" v="https://www.mobie.pt/"/>
  </node>
</old>
<new>
  <node id="8681176706" visible="true" version="2" timestamp="2021-07-03T22:19:45Z" changeset="107370857" uid="347293" user="Alexmol"/>
</new>
</action>
<action type="delete">
<old>
  <node id="8688212145" lat="38.1825550" lon="-8.5673449" version="4" timestamp="2021-07-16T16:27:52Z" changeset="108128750" uid="347293" user="Alexmol">
    <tag k="access" v="yes"/>
    <tag k="addr:country" v="PT"/>
    <tag k="amenity" v="charging_station"/>
    <tag k="authentication:membership_card" v="yes"/>
    <tag k="authentication:none" v="no"/>
    <tag k="capacity" v="2"/>
    <tag k="fee" v="yes"/>
    <tag k="motorcar" v="yes"/>
    <tag k="name" v="GDL-00003"/>
    <tag k="network" v="Mobi.E"/>
    <tag k="opening_hours" v="24/7"/>
    <tag k="operator" v="Powerdot"/>
    <tag k="parking:fee" v="no"/>
    <tag k="ref" v="GDL-90003"/>
    <tag k="socket:type2" v="2"/>
    <tag k="socket:type2:current" v="32"/>
    <tag k="socket:type2:output" v="22kW"/>
    <tag k="socket:type2:voltage" v="400"/>
    <tag k="website" v="https://www.mobie.pt/"/>
  </node>
</old>
<new>
  <node id="8688212145" visible="true" version="3" timestamp="2021-07-03T22:19:45Z" changeset="107370857" uid="347293" user="Alexmol"/>
</new>
</action>

</osm>
