<?xml version="1.0" encoding="UTF-8"?>
<osm version="0.6" generator="Overpass API 0.7.56.9 76e5016d">
<note>The data included in this document is from www.openstreetmap.org. The data is made available under ODbL.</note>
<meta osm_base="2021-09-16T01:06:43Z" areas="2021-09-16T00:56:21Z"/>

<action type="delete">
<old>
  <node id="9043954461" lat="41.1733544" lon="-8.6544683" version="3" timestamp="2021-09-15T19:19:51Z" changeset="111259448" uid="347293" user="Alexmol">
    <tag k="access" v="yes"/>
    <tag k="addr:country" v="PT"/>
    <tag k="amenity" v="charging_station"/>
    <tag k="authentication:membership_card" v="yes"/>
    <tag k="authentication:none" v="no"/>
    <tag k="capacity" v="2"/>
    <tag k="fee" v="yes"/>
    <tag k="motorcar" v="yes"/>
    <tag k="name" v="PRT-00097 - Repsol"/>
    <tag k="network" v="Mobi.E"/>
    <tag k="opening_hours" v="24/7"/>
    <tag k="operator" v="Repsol"/>
    <tag k="parking:fee" v="no"/>
    <tag k="ref" v="PRT-00097"/>
    <tag k="socket:chademo" v="1"/>
    <tag k="socket:chademo:current" v="120"/>
    <tag k="socket:chademo:output" v="50kW"/>
    <tag k="socket:chademo:voltage" v="500"/>
    <tag k="socket:type2_cable" v="1"/>
    <tag k="socket:type2_cable:current" v="63"/>
    <tag k="socket:type2_cable:output" v="43kW"/>
    <tag k="socket:type2_cable:voltage" v="400"/>
    <tag k="socket:type2_combo" v="1"/>
    <tag k="socket:type2_combo:current" v="125"/>
    <tag k="socket:type2_combo:output" v="50kW"/>
    <tag k="socket:type2_combo:voltage" v="500"/>
    <tag k="website" v="https://www.mobie.pt/"/>
  </node>
</old>
<new>
  <node id="9043954461" visible="true" version="2" timestamp="2021-08-29T17:15:09Z" changeset="110421267" uid="347293" user="Alexmol"/>
</new>
</action>
<action type="delete">
<old>
  <node id="9074902464" lat="38.7257450" lon="-9.1544510" version="2" timestamp="2021-09-15T19:19:51Z" changeset="111259448" uid="347293" user="Alexmol">
    <tag k="access" v="yes"/>
    <tag k="addr:country" v="PT"/>
    <tag k="amenity" v="charging_station"/>
    <tag k="authentication:membership_card" v="yes"/>
    <tag k="authentication:none" v="no"/>
    <tag k="capacity" v="2"/>
    <tag k="fee" v="yes"/>
    <tag k="motorcar" v="yes"/>
    <tag k="name" v="LSB-00384/385 - Hotel Ritz"/>
    <tag k="network" v="Mobi.E"/>
    <tag k="opening_hours" v="24/7"/>
    <tag k="operator" v="Galp Power"/>
    <tag k="parking:fee" v="yes"/>
    <tag k="ref" v="LSB-00384;LSB-00385"/>
    <tag k="socket:type2" v="2"/>
    <tag k="socket:type2:current" v="32"/>
    <tag k="socket:type2:output" v="22kW"/>
    <tag k="socket:type2:voltage" v="400"/>
    <tag k="website" v="https://www.mobie.pt/"/>
  </node>
</old>
<new>
  <node id="9074902464" visible="true" version="1" timestamp="2021-09-08T22:36:45Z" changeset="110940720" uid="347293" user="Alexmol"/>
</new>
</action>
<action type="delete">
<old>
  <node id="9074902465" lat="38.7257665" lon="-9.1544125" version="2" timestamp="2021-09-15T19:19:51Z" changeset="111259448" uid="347293" user="Alexmol">
    <tag k="access" v="yes"/>
    <tag k="addr:country" v="PT"/>
    <tag k="amenity" v="charging_station"/>
    <tag k="authentication:membership_card" v="yes"/>
    <tag k="authentication:none" v="no"/>
    <tag k="capacity" v="8"/>
    <tag k="fee" v="yes"/>
    <tag k="motorcar" v="yes"/>
    <tag k="name" v="LSB-00381/382/383/386 - Hotel Ritz"/>
    <tag k="network" v="Mobi.E"/>
    <tag k="opening_hours" v="24/7"/>
    <tag k="operator" v="Galp Power"/>
    <tag k="parking:fee" v="yes"/>
    <tag k="ref" v="LSB-00381;LSB-00382;LSB-00383;LSB-00386"/>
    <tag k="socket:type2" v="8"/>
    <tag k="socket:type2:current" v="16"/>
    <tag k="socket:type2:output" v="11kW"/>
    <tag k="socket:type2:voltage" v="400"/>
    <tag k="website" v="https://www.mobie.pt/"/>
  </node>
</old>
<new>
  <node id="9074902465" visible="true" version="1" timestamp="2021-09-08T22:36:45Z" changeset="110940720" uid="347293" user="Alexmol"/>
</new>
</action>
<action type="delete">
<old>
  <node id="9095146043" lat="39.0539860" lon="-8.9010500" version="1" timestamp="2021-09-15T19:19:51Z" changeset="111259448" uid="347293" user="Alexmol">
    <tag k="access" v="private"/>
    <tag k="addr:country" v="PT"/>
    <tag k="amenity" v="charging_station"/>
    <tag k="capacity" v="8"/>
    <tag k="name" v="Entreposto Sonae"/>
    <tag k="network" v="none"/>
    <tag k="operator" v="Entreposto Sonae"/>
    <tag k="socket:schuko" v="8"/>
    <tag k="socket:schuko:current" v="16"/>
    <tag k="socket:schuko:output" v="3.6kW"/>
    <tag k="socket:schuko:voltage" v="230"/>
  </node>
</old>
<new>
  <node id="9095146043" visible="false" version="0" timestamp="0000-00-00T00:00:00Z" changeset="0" uid="0" user=""/>
</new>
</action>
<action type="delete">
<old>
  <node id="9095146045" lat="40.5723060" lon="-7.8922220" version="1" timestamp="2021-09-15T19:19:51Z" changeset="111259448" uid="347293" user="Alexmol">
    <tag k="access" v="customers"/>
    <tag k="addr:country" v="PT"/>
    <tag k="amenity" v="charging_station"/>
    <tag k="capacity" v="2"/>
    <tag k="name" v="Restaurante Paço dos Cunhas"/>
    <tag k="network" v="none"/>
    <tag k="operator" v="Restaurante Paço dos Cunhas"/>
    <tag k="socket:type2" v="2"/>
    <tag k="socket:type2:current" v="32"/>
    <tag k="socket:type2:output" v="7.2kW"/>
    <tag k="socket:type2:voltage" v="230"/>
  </node>
</old>
<new>
  <node id="9095146045" visible="false" version="0" timestamp="0000-00-00T00:00:00Z" changeset="0" uid="0" user=""/>
</new>
</action>
<action type="delete">
<old>
  <node id="9095146046" lat="40.5581268" lon="-8.7449229" version="1" timestamp="2021-09-15T19:19:51Z" changeset="111259448" uid="347293" user="Alexmol">
    <tag k="access" v="customers"/>
    <tag k="addr:country" v="PT"/>
    <tag k="amenity" v="charging_station"/>
    <tag k="capacity" v="2"/>
    <tag k="fee" v="yes"/>
    <tag k="name" v="Orbitur Vagueira"/>
    <tag k="network" v="none"/>
    <tag k="operator" v="Orbitur"/>
    <tag k="socket:type2" v="2"/>
    <tag k="socket:type2:current" v="32"/>
    <tag k="socket:type2:output" v="7.4kW"/>
    <tag k="socket:type2:voltage" v="230"/>
  </node>
</old>
<new>
  <node id="9095146046" visible="false" version="0" timestamp="0000-00-00T00:00:00Z" changeset="0" uid="0" user=""/>
</new>
</action>
<action type="delete">
<old>
  <node id="9095146047" lat="41.2240000" lon="-8.6837220" version="1" timestamp="2021-09-15T19:19:51Z" changeset="111259448" uid="347293" user="Alexmol">
    <tag k="access" v="customers"/>
    <tag k="addr:country" v="PT"/>
    <tag k="amenity" v="charging_station"/>
    <tag k="capacity" v="2"/>
    <tag k="name" v="Hotel Porto Expo Aeroporto"/>
    <tag k="network" v="none"/>
    <tag k="operator" v="Hotel Porto Expo Aeroporto"/>
    <tag k="socket:type2" v="2"/>
    <tag k="socket:type2:current" v="16"/>
    <tag k="socket:type2:output" v="11kW"/>
    <tag k="socket:type2:voltage" v="400"/>
  </node>
</old>
<new>
  <node id="9095146047" visible="false" version="0" timestamp="0000-00-00T00:00:00Z" changeset="0" uid="0" user=""/>
</new>
</action>

</osm>
