<?xml version="1.0" encoding="UTF-8"?>
<osm version="0.6" generator="Overpass API 0.7.57 93a4d346">
<note>The data included in this document is from www.openstreetmap.org. The data is made available under ODbL.</note>
<meta osm_base="2022-04-20T02:01:25Z" areas="2022-04-20T01:21:12Z"/>

<action type="delete">
<old>
  <node id="7231661007" lat="38.7679850" lon="-9.1092179" version="10" timestamp="2022-04-19T10:16:40Z" changeset="119899092" uid="347293" user="Alexmol">
    <tag k="access" v="yes"/>
    <tag k="addr:country" v="PT"/>
    <tag k="amenity" v="charging_station"/>
    <tag k="authentication:membership_card" v="yes"/>
    <tag k="authentication:none" v="no"/>
    <tag k="capacity" v="2"/>
    <tag k="email" v="mobilidade.electricacrc@galp.com"/>
    <tag k="fee" v="yes"/>
    <tag k="motorcar" v="yes"/>
    <tag k="name" v="LSB-00144"/>
    <tag k="network" v="Mobi.E"/>
    <tag k="opening_hours" v="24/7"/>
    <tag k="operator" v="Galp Power"/>
    <tag k="parking:fee" v="no"/>
    <tag k="phone" v="+351 800 249 249"/>
    <tag k="ref" v="LSB-90144;LSB-80144"/>
    <tag k="socket:type2" v="2"/>
    <tag k="socket:type2:current" v="16"/>
    <tag k="socket:type2:output" v="3.7kW"/>
    <tag k="socket:type2:voltage" v="230"/>
    <tag k="website" v="https://www.mobie.pt"/>
  </node>
</old>
<new>
  <node id="7231661007" visible="true" version="9" timestamp="2022-04-15T13:09:23Z" changeset="119750934" uid="347293" user="Alexmol"/>
</new>
</action>
<action type="delete">
<old>
  <node id="8001331029" lat="38.6098946" lon="-9.0986632" version="9" timestamp="2022-04-19T10:16:40Z" changeset="119899092" uid="347293" user="Alexmol">
    <tag k="access" v="yes"/>
    <tag k="addr:city" v="Fogueteiro"/>
    <tag k="addr:country" v="PT"/>
    <tag k="amenity" v="charging_station"/>
    <tag k="authentication:membership_card" v="yes"/>
    <tag k="authentication:none" v="no"/>
    <tag k="capacity" v="2"/>
    <tag k="email" v="mobilidade-eletrica@edp.pt"/>
    <tag k="fee" v="yes"/>
    <tag k="motorcar" v="yes"/>
    <tag k="name" v="SXL-00002 - BP"/>
    <tag k="network" v="Mobi.E"/>
    <tag k="opening_hours" v="24/7"/>
    <tag k="operator" v="EDP Comercial"/>
    <tag k="parking:fee" v="no"/>
    <tag k="phone" v="+351 800 222 222"/>
    <tag k="ref" v="SXL-00002"/>
    <tag k="socket:chademo" v="1"/>
    <tag k="socket:chademo:current" v="120"/>
    <tag k="socket:chademo:output" v="50kW"/>
    <tag k="socket:chademo:voltage" v="500"/>
    <tag k="socket:type2_cable" v="1"/>
    <tag k="socket:type2_cable:current" v="63"/>
    <tag k="socket:type2_cable:output" v="43kW"/>
    <tag k="socket:type2_cable:voltage" v="400"/>
    <tag k="socket:type2_combo" v="1"/>
    <tag k="socket:type2_combo:current" v="125"/>
    <tag k="socket:type2_combo:output" v="50kW"/>
    <tag k="socket:type2_combo:voltage" v="500"/>
    <tag k="website" v="https://www.mobie.pt"/>
  </node>
</old>
<new>
  <node id="8001331029" visible="true" version="8" timestamp="2021-12-13T22:43:41Z" changeset="114900457" uid="347293" user="Alexmol"/>
</new>
</action>
<action type="delete">
<old>
  <node id="8223097866" lat="38.6954239" lon="-9.3024964" version="7" timestamp="2022-04-19T10:16:40Z" changeset="119899092" uid="347293" user="Alexmol">
    <tag k="access" v="yes"/>
    <tag k="addr:city" v="Oeiras"/>
    <tag k="addr:country" v="PT"/>
    <tag k="addr:street" v="Praceta de Manica"/>
    <tag k="amenity" v="charging_station"/>
    <tag k="authentication:membership_card" v="yes"/>
    <tag k="authentication:none" v="no"/>
    <tag k="capacity" v="2"/>
    <tag k="email" v="mobilidade.electricacrc@galp.com"/>
    <tag k="fee" v="yes"/>
    <tag k="motorcar" v="yes"/>
    <tag k="name" v="OER-00071"/>
    <tag k="network" v="Mobi.E"/>
    <tag k="opening_hours" v="24/7"/>
    <tag k="operator" v="Galp Power"/>
    <tag k="parking:fee" v="no"/>
    <tag k="phone" v="+351 800 249 249"/>
    <tag k="ref" v="OER-00071"/>
    <tag k="socket:chademo" v="1"/>
    <tag k="socket:chademo:current" v="120"/>
    <tag k="socket:chademo:output" v="50kW"/>
    <tag k="socket:chademo:voltage" v="500"/>
    <tag k="socket:type2_cable" v="1"/>
    <tag k="socket:type2_cable:current" v="63"/>
    <tag k="socket:type2_cable:output" v="43kW"/>
    <tag k="socket:type2_cable:voltage" v="400"/>
    <tag k="socket:type2_combo" v="1"/>
    <tag k="socket:type2_combo:current" v="125"/>
    <tag k="socket:type2_combo:output" v="50kW"/>
    <tag k="socket:type2_combo:voltage" v="500"/>
    <tag k="website" v="https://www.mobie.pt"/>
  </node>
</old>
<new>
  <node id="8223097866" visible="true" version="6" timestamp="2021-10-03T10:03:08Z" changeset="112027074" uid="347293" user="Alexmol"/>
</new>
</action>
<action type="delete">
<old>
  <node id="8289337270" lat="38.6573709" lon="-9.0667838" version="7" timestamp="2022-04-19T19:17:22Z" changeset="119922047" uid="347293" user="Alexmol">
    <tag k="access" v="yes"/>
    <tag k="addr:country" v="PT"/>
    <tag k="amenity" v="charging_station"/>
    <tag k="authentication:membership_card" v="yes"/>
    <tag k="authentication:none" v="no"/>
    <tag k="capacity" v="2"/>
    <tag k="fee" v="yes"/>
    <tag k="motorcar" v="yes"/>
    <tag k="name" v="Tribunal do Barreiro"/>
    <tag k="network" v="Mobi.E"/>
    <tag k="opening_hours" v="24/7"/>
    <tag k="operator" v="unknown"/>
    <tag k="parking:fee" v="no"/>
    <tag k="ref" v="BRR-XXXXX"/>
    <tag k="socket:type2" v="2"/>
    <tag k="socket:type2:current" v="32"/>
    <tag k="socket:type2:output" v="22kW"/>
    <tag k="socket:type2:voltage" v="400"/>
    <tag k="website" v="https://www.mobie.pt"/>
  </node>
</old>
<new>
  <node id="8289337270" visible="true" version="6" timestamp="2022-01-29T16:47:35Z" changeset="116752071" uid="347293" user="Alexmol"/>
</new>
</action>
<action type="delete">
<old>
  <node id="9661671209" lat="38.7387983" lon="-9.1676446" version="2" timestamp="2022-04-19T10:16:40Z" changeset="119899092" uid="347293" user="Alexmol">
    <tag k="access" v="yes"/>
    <tag k="addr:country" v="PT"/>
    <tag k="amenity" v="charging_station"/>
    <tag k="authentication:membership_card" v="yes"/>
    <tag k="authentication:none" v="no"/>
    <tag k="capacity" v="2"/>
    <tag k="fee" v="yes"/>
    <tag k="location" v="underground"/>
    <tag k="motorcar" v="yes"/>
    <tag k="name" v="LSB-00458/459 - Parking Twin Towers"/>
    <tag k="network" v="Mobi.E"/>
    <tag k="opening_hours" v="24/7"/>
    <tag k="operator" v="Powerdot"/>
    <tag k="parking:fee" v="yes"/>
    <tag k="ref" v="LSB-00458;LSB-00459"/>
    <tag k="socket:type2" v="2"/>
    <tag k="socket:type2:current" v="32"/>
    <tag k="socket:type2:output" v="22kW"/>
    <tag k="socket:type2:voltage" v="400"/>
    <tag k="website" v="https://www.mobie.pt/"/>
  </node>
</old>
<new>
  <node id="9661671209" visible="true" version="1" timestamp="2022-04-12T20:36:39Z" changeset="119638576" uid="347293" user="Alexmol"/>
</new>
</action>
<action type="delete">
<old>
  <node id="9661671210" lat="41.1365915" lon="-8.5369232" version="3" timestamp="2022-04-19T10:16:40Z" changeset="119899092" uid="347293" user="Alexmol">
    <tag k="access" v="yes"/>
    <tag k="addr:country" v="PT"/>
    <tag k="amenity" v="charging_station"/>
    <tag k="authentication:membership_card" v="yes"/>
    <tag k="authentication:none" v="no"/>
    <tag k="capacity" v="3"/>
    <tag k="fee" v="yes"/>
    <tag k="name" v="GDM-00018 - McDonald's"/>
    <tag k="network" v="Mobi.E"/>
    <tag k="opening_hours" v="24/7"/>
    <tag k="operator" v="EDP Comercial"/>
    <tag k="parking:fee" v="no"/>
    <tag k="ref" v="GDM-00018"/>
    <tag k="socket:chademo" v="1"/>
    <tag k="socket:chademo:current" v="125"/>
    <tag k="socket:chademo:output" v="30kW"/>
    <tag k="socket:chademo:voltage" v="500"/>
    <tag k="socket:type2" v="1"/>
    <tag k="socket:type2:current" v="32"/>
    <tag k="socket:type2:output" v="22kW"/>
    <tag k="socket:type2:voltage" v="400"/>
    <tag k="socket:type2_combo" v="1"/>
    <tag k="socket:type2_combo:current" v="200"/>
    <tag k="socket:type2_combo:output" v="60kW"/>
    <tag k="socket:type2_combo:voltage" v="920"/>
    <tag k="website" v="https://www.mobie.pt/"/>
  </node>
</old>
<new>
  <node id="9661671210" visible="true" version="2" timestamp="2022-04-13T19:12:34Z" changeset="119682401" uid="347293" user="Alexmol"/>
</new>
</action>
<action type="delete">
<old>
  <node id="9661671212" lat="41.0151563" lon="-8.6393034" version="2" timestamp="2022-04-19T10:16:40Z" changeset="119899092" uid="347293" user="Alexmol">
    <tag k="access" v="yes"/>
    <tag k="addr:country" v="PT"/>
    <tag k="amenity" v="charging_station"/>
    <tag k="authentication:membership_card" v="yes"/>
    <tag k="authentication:none" v="no"/>
    <tag k="capacity" v="3"/>
    <tag k="fee" v="yes"/>
    <tag k="name" v="ESP-00006 - McDonald's"/>
    <tag k="network" v="Mobi.E"/>
    <tag k="opening_hours" v="24/7"/>
    <tag k="operator" v="EDP Comercial"/>
    <tag k="parking:fee" v="no"/>
    <tag k="ref" v="ESP-00006"/>
    <tag k="socket:chademo" v="1"/>
    <tag k="socket:chademo:current" v="125"/>
    <tag k="socket:chademo:output" v="30kW"/>
    <tag k="socket:chademo:voltage" v="500"/>
    <tag k="socket:type2" v="1"/>
    <tag k="socket:type2:current" v="32"/>
    <tag k="socket:type2:output" v="22kW"/>
    <tag k="socket:type2:voltage" v="400"/>
    <tag k="socket:type2_combo" v="1"/>
    <tag k="socket:type2_combo:current" v="200"/>
    <tag k="socket:type2_combo:output" v="60kW"/>
    <tag k="socket:type2_combo:voltage" v="920"/>
    <tag k="website" v="https://www.mobie.pt/"/>
  </node>
</old>
<new>
  <node id="9661671212" visible="true" version="1" timestamp="2022-04-12T20:36:39Z" changeset="119638576" uid="347293" user="Alexmol"/>
</new>
</action>

</osm>
