<?xml version="1.0" encoding="UTF-8"?>
<osm version="0.6" generator="Overpass API 0.7.57 93a4d346">
<note>The data included in this document is from www.openstreetmap.org. The data is made available under ODbL.</note>
<meta osm_base="2022-05-11T02:00:25Z" areas="2022-05-11T01:48:46Z"/>

<action type="delete">
<old>
  <node id="3708190937" lat="38.7039296" lon="-9.1939712" version="10" timestamp="2022-05-10T21:56:57Z" changeset="120812332" uid="347293" user="Alexmol">
    <tag k="access" v="yes"/>
    <tag k="addr:city" v="Lisboa"/>
    <tag k="addr:country" v="PT"/>
    <tag k="addr:housenumber" v="3"/>
    <tag k="addr:postcode" v="1300-481"/>
    <tag k="addr:street" v="Largo da Boa Hora Ã  Ajuda"/>
    <tag k="amenity" v="charging_station"/>
    <tag k="authentication:membership_card" v="yes"/>
    <tag k="authentication:none" v="no"/>
    <tag k="capacity" v="2"/>
    <tag k="email" v="mobilidade-eletrica@edp.pt"/>
    <tag k="fee" v="yes"/>
    <tag k="motorcar" v="yes"/>
    <tag k="name" v="LSB-00017"/>
    <tag k="network" v="Mobi.E"/>
    <tag k="opening_hours" v="24/7"/>
    <tag k="operator" v="EDP Comercial"/>
    <tag k="parking:fee" v="no"/>
    <tag k="phone" v="+351 800 222 222"/>
    <tag k="ref" v="LSB-90017"/>
    <tag k="socket:type2" v="2"/>
    <tag k="socket:type2:current" v="16"/>
    <tag k="socket:type2:output" v="3.7kW"/>
    <tag k="socket:type2:voltage" v="230"/>
    <tag k="website" v="https://www.mobie.pt"/>
  </node>
</old>
<new>
  <node id="3708190937" visible="true" version="9" timestamp="2022-04-24T09:49:25Z" changeset="120117375" uid="347293" user="Alexmol"/>
</new>
</action>
<action type="modify">
<old>
  <node id="8301211338" version="3" timestamp="2022-05-10T11:50:48Z" changeset="120789884" uid="15822146" user="Veraanery"/>
</old>
<new>
  <node id="8301211338" lat="38.7240810" lon="-9.1502803" version="2" timestamp="2021-01-31T11:13:34Z" changeset="98443572" uid="347293" user="Alexmol">
    <tag k="amenity" v="charging_station"/>
    <tag k="socket:type2_cable:output" v="22kW"/>
    <tag k="access" v="customers"/>
    <tag k="addr:country" v="PT"/>
    <tag k="capacity" v="2"/>
    <tag k="name" v="Hotel Florida"/>
    <tag k="network" v="none"/>
    <tag k="operator" v="Hotel Florida"/>
    <tag k="socket:tesla_destination" v="1"/>
    <tag k="socket:tesla_destination:output" v="22kW"/>
    <tag k="socket:type2_cable" v="1"/>
  </node>
</new>
</action>
<action type="create">
  <node id="8406046106" lat="38.7231441" lon="-9.1509602" version="5" timestamp="2021-10-03T10:03:08Z" changeset="112027074" uid="347293" user="Alexmol">
    <tag k="access" v="customers"/>
    <tag k="addr:country" v="PT"/>
    <tag k="amenity" v="charging_station"/>
    <tag k="authentication:membership_card" v="yes"/>
    <tag k="authentication:none" v="no"/>
    <tag k="capacity" v="2"/>
    <tag k="email" v="mobilidade-eletrica@edp.pt"/>
    <tag k="fee" v="yes"/>
    <tag k="motorcar" v="yes"/>
    <tag k="name" v="LSB-00159/160 - Hotel Pestana Vintage Lisboa"/>
    <tag k="network" v="Mobi.E"/>
    <tag k="opening_hours" v="24/7"/>
    <tag k="operator" v="EDP Comercial"/>
    <tag k="parking:fee" v="no"/>
    <tag k="phone" v="+351 800 222 222"/>
    <tag k="ref" v="LSB-00159;LSB-00160"/>
    <tag k="socket:type2" v="2"/>
    <tag k="socket:type2:current" v="32"/>
    <tag k="socket:type2:output" v="7.4kW"/>
    <tag k="socket:type2:voltage" v="230"/>
    <tag k="website" v="https://www.mobie.pt"/>
  </node>
</action>
<action type="delete">
<old>
  <node id="9720420624" lat="37.1901076" lon="-7.4356305" version="2" timestamp="2022-05-10T21:56:57Z" changeset="120812332" uid="347293" user="Alexmol">
    <tag k="access" v="yes"/>
    <tag k="addr:country" v="PT"/>
    <tag k="amenity" v="charging_station"/>
    <tag k="authentication:membership_card" v="yes"/>
    <tag k="authentication:none" v="no"/>
    <tag k="capacity" v="2"/>
    <tag k="fee" v="yes"/>
    <tag k="motorcar" v="yes"/>
    <tag k="name" v="VRS-00004 - McDonald's"/>
    <tag k="network" v="Mobi.E"/>
    <tag k="opening_hours" v="24/7"/>
    <tag k="operator" v="EDP Comercial"/>
    <tag k="parking:fee" v="no"/>
    <tag k="ref" v="VRS-00004"/>
    <tag k="socket:chademo" v="1"/>
    <tag k="socket:chademo:current" v="125"/>
    <tag k="socket:chademo:output" v="30kW"/>
    <tag k="socket:chademo:voltage" v="500"/>
    <tag k="socket:type2" v="1"/>
    <tag k="socket:type2:current" v="32"/>
    <tag k="socket:type2:output" v="22kW"/>
    <tag k="socket:type2:voltage" v="400"/>
    <tag k="socket:type2_combo" v="1"/>
    <tag k="socket:type2_combo:current" v="200"/>
    <tag k="socket:type2_combo:output" v="60kW"/>
    <tag k="socket:type2_combo:voltage" v="950"/>
    <tag k="website" v="https://www.mobie.pt"/>
  </node>
</old>
<new>
  <node id="9720420624" visible="true" version="1" timestamp="2022-05-06T12:11:40Z" changeset="120628701" uid="347293" user="Alexmol"/>
</new>
</action>
<action type="delete">
<old>
  <node id="9731247066" lat="38.7716821" lon="-9.0973402" version="1" timestamp="2022-05-10T23:12:00Z" changeset="120813531" uid="347293" user="Alexmol">
    <tag k="access" v="customers"/>
    <tag k="addr:country" v="PT"/>
    <tag k="amenity" v="charging_station"/>
    <tag k="authentication:membership_card" v="yes"/>
    <tag k="authentication:none" v="no"/>
    <tag k="capacity" v="4"/>
    <tag k="fee" v="yes"/>
    <tag k="motorcar" v="yes"/>
    <tag k="name" v="EXPO-00001/2/3/4"/>
    <tag k="network" v="Mobi.E"/>
    <tag k="opening_hours" v="24/7"/>
    <tag k="operator" v="Mobiletric"/>
    <tag k="parking:fee" v="yes"/>
    <tag k="ref" v="EXPO-00001;EXPO-00002;EXPO-00003;EXPO-00004"/>
    <tag k="socket:type2" v="4"/>
    <tag k="socket:type2:current" v="32"/>
    <tag k="socket:type2:output" v="22kW"/>
    <tag k="socket:type2:voltage" v="400"/>
    <tag k="website" v="https://www.mobie.pt/"/>
  </node>
</old>
<new>
  <node id="9731247066" visible="false" version="0" timestamp="0000-00-00T00:00:00Z" changeset="0" uid="0" user=""/>
</new>
</action>
<action type="delete">
<old>
  <node id="9731247067" lat="40.2974822" lon="-8.7695868" version="1" timestamp="2022-05-10T23:12:00Z" changeset="120813531" uid="347293" user="Alexmol">
    <tag k="access" v="private"/>
    <tag k="addr:country" v="PT"/>
    <tag k="amenity" v="charging_station"/>
    <tag k="authentication:membership_card" v="yes"/>
    <tag k="authentication:none" v="no"/>
    <tag k="capacity" v="4"/>
    <tag k="fee" v="yes"/>
    <tag k="motorcar" v="yes"/>
    <tag k="name" v="Quinta da Fonte Quente"/>
    <tag k="network" v="Mobi.E"/>
    <tag k="opening_hours" v="24/7"/>
    <tag k="operator" v="EVCE"/>
    <tag k="parking:fee" v="no"/>
    <tag k="ref" v="CMRRC-00001;CMRRC-00002"/>
    <tag k="socket:type2" v="4"/>
    <tag k="socket:type2:current" v="32"/>
    <tag k="socket:type2:output" v="22kW"/>
    <tag k="socket:type2:voltage" v="400"/>
    <tag k="website" v="https://www.mobie.pt/"/>
  </node>
</old>
<new>
  <node id="9731247067" visible="false" version="0" timestamp="0000-00-00T00:00:00Z" changeset="0" uid="0" user=""/>
</new>
</action>
<action type="delete">
<old>
  <node id="9731247068" lat="32.6517390" lon="-16.9014460" version="1" timestamp="2022-05-10T23:12:00Z" changeset="120813531" uid="347293" user="Alexmol">
    <tag k="access" v="private"/>
    <tag k="addr:country" v="PT"/>
    <tag k="amenity" v="charging_station"/>
    <tag k="authentication:membership_card" v="yes"/>
    <tag k="authentication:none" v="no"/>
    <tag k="capacity" v="2"/>
    <tag k="fee" v="yes"/>
    <tag k="motorcar" v="yes"/>
    <tag k="name" v="PAGESP-00001"/>
    <tag k="network" v="Mobi.E"/>
    <tag k="opening_hours" v="24/7"/>
    <tag k="operator" v="Factor Energia"/>
    <tag k="parking:fee" v="no"/>
    <tag k="ref" v="PAGESP-00001"/>
    <tag k="socket:type2" v="2"/>
    <tag k="socket:type2:current" v="32"/>
    <tag k="socket:type2:output" v="22kW"/>
    <tag k="socket:type2:voltage" v="400"/>
    <tag k="website" v="https://www.mobie.pt/"/>
  </node>
</old>
<new>
  <node id="9731247068" visible="false" version="0" timestamp="0000-00-00T00:00:00Z" changeset="0" uid="0" user=""/>
</new>
</action>
<action type="delete">
<old>
  <node id="9731247069" lat="32.6511572" lon="-16.8595629" version="1" timestamp="2022-05-10T23:12:00Z" changeset="120813531" uid="347293" user="Alexmol">
    <tag k="access" v="private"/>
    <tag k="addr:country" v="PT"/>
    <tag k="amenity" v="charging_station"/>
    <tag k="authentication:membership_card" v="yes"/>
    <tag k="authentication:none" v="no"/>
    <tag k="capacity" v="2"/>
    <tag k="fee" v="yes"/>
    <tag k="motorcar" v="yes"/>
    <tag k="name" v="PAGESP-00002"/>
    <tag k="network" v="Mobi.E"/>
    <tag k="opening_hours" v="24/7"/>
    <tag k="operator" v="Factor Energia"/>
    <tag k="parking:fee" v="no"/>
    <tag k="ref" v="PAGESP-00002"/>
    <tag k="socket:type2" v="2"/>
    <tag k="socket:type2:current" v="32"/>
    <tag k="socket:type2:output" v="22kW"/>
    <tag k="socket:type2:voltage" v="400"/>
    <tag k="website" v="https://www.mobie.pt/"/>
  </node>
</old>
<new>
  <node id="9731247069" visible="false" version="0" timestamp="0000-00-00T00:00:00Z" changeset="0" uid="0" user=""/>
</new>
</action>
<action type="delete">
<old>
  <node id="9731247070" lat="32.6488403" lon="-16.9097172" version="1" timestamp="2022-05-10T23:12:00Z" changeset="120813531" uid="347293" user="Alexmol">
    <tag k="access" v="private"/>
    <tag k="addr:country" v="PT"/>
    <tag k="amenity" v="charging_station"/>
    <tag k="authentication:membership_card" v="yes"/>
    <tag k="authentication:none" v="no"/>
    <tag k="capacity" v="2"/>
    <tag k="fee" v="yes"/>
    <tag k="motorcar" v="yes"/>
    <tag k="name" v="PAGESP-00003"/>
    <tag k="network" v="Mobi.E"/>
    <tag k="opening_hours" v="24/7"/>
    <tag k="operator" v="Factor Energia"/>
    <tag k="parking:fee" v="no"/>
    <tag k="ref" v="PAGESP-00003"/>
    <tag k="socket:type2" v="2"/>
    <tag k="socket:type2:current" v="32"/>
    <tag k="socket:type2:output" v="22kW"/>
    <tag k="socket:type2:voltage" v="400"/>
    <tag k="website" v="https://www.mobie.pt/"/>
  </node>
</old>
<new>
  <node id="9731247070" visible="false" version="0" timestamp="0000-00-00T00:00:00Z" changeset="0" uid="0" user=""/>
</new>
</action>

</osm>
