<?xml version="1.0" encoding="UTF-8"?>
<osm version="0.6" generator="Overpass API 0.7.57 93a4d346">
<note>The data included in this document is from www.openstreetmap.org. The data is made available under ODbL.</note>
<meta osm_base="2022-03-29T01:44:39Z" areas="2022-03-29T01:30:21Z"/>

<action type="delete">
<old>
  <node id="3708190940" lat="38.6968041" lon="-9.1932953" version="8" timestamp="2022-03-28T23:43:59Z" changeset="119044175" uid="347293" user="Alexmol">
    <tag k="access" v="yes"/>
    <tag k="addr:city" v="Lisboa"/>
    <tag k="addr:country" v="PT"/>
    <tag k="addr:postcode" v="1300"/>
    <tag k="addr:street" v="Avenida da Índia"/>
    <tag k="amenity" v="charging_station"/>
    <tag k="authentication:membership_card" v="yes"/>
    <tag k="authentication:none" v="no"/>
    <tag k="capacity" v="6"/>
    <tag k="email" v="ajuda@powerdot.pt"/>
    <tag k="fee" v="yes"/>
    <tag k="motorcar" v="yes"/>
    <tag k="name" v="LSB-00530"/>
    <tag k="network" v="Mobi.E"/>
    <tag k="opening_hours" v="24/7"/>
    <tag k="operator" v="Powerdot"/>
    <tag k="parking:fee" v="no"/>
    <tag k="phone" v="+351 800 180 292"/>
    <tag k="ref" v="LSB-90530"/>
    <tag k="socket:type2" v="6"/>
    <tag k="socket:type2:current" v="16"/>
    <tag k="socket:type2:output" v="3.7kW"/>
    <tag k="socket:type2:voltage" v="230"/>
    <tag k="website" v="https://www.mobie.pt"/>
  </node>
</old>
<new>
  <node id="3708190940" visible="true" version="7" timestamp="2022-03-26T12:25:11Z" changeset="118945130" uid="347293" user="Alexmol"/>
</new>
</action>
<action type="delete">
<old>
  <node id="8113006405" lat="41.2168475" lon="-8.6233060" version="7" timestamp="2022-03-28T23:43:59Z" changeset="119044175" uid="347293" user="Alexmol">
    <tag k="access" v="yes"/>
    <tag k="addr:country" v="PT"/>
    <tag k="amenity" v="charging_station"/>
    <tag k="authentication:membership_card" v="yes"/>
    <tag k="authentication:none" v="no"/>
    <tag k="capacity" v="2"/>
    <tag k="email" v="ajuda@powerdot.pt"/>
    <tag k="fee" v="yes"/>
    <tag k="motorcar" v="yes"/>
    <tag k="name" v="MTS-00022 - Lionesa"/>
    <tag k="network" v="Mobi.E"/>
    <tag k="opening_hours" v="24/7"/>
    <tag k="operator" v="Powerdot"/>
    <tag k="parking:fee" v="no"/>
    <tag k="phone" v="+351 800 180 292"/>
    <tag k="ref" v="MTS-00022"/>
    <tag k="socket:type2" v="2"/>
    <tag k="socket:type2:current" v="32"/>
    <tag k="socket:type2:output" v="22kW"/>
    <tag k="socket:type2:voltage" v="400"/>
    <tag k="website" v="https://www.mobie.pt"/>
  </node>
</old>
<new>
  <node id="8113006405" visible="true" version="6" timestamp="2022-03-26T12:25:11Z" changeset="118945130" uid="347293" user="Alexmol"/>
</new>
</action>
<action type="delete">
<old>
  <node id="8833233513" lat="39.0734407" lon="-8.8634487" version="7" timestamp="2022-03-28T23:43:59Z" changeset="119044175" uid="347293" user="Alexmol">
    <tag k="access" v="yes"/>
    <tag k="addr:city" v="Azambuja"/>
    <tag k="addr:country" v="PT"/>
    <tag k="addr:street" v="Rua da EPAC"/>
    <tag k="amenity" v="charging_station"/>
    <tag k="authentication:membership_card" v="yes"/>
    <tag k="authentication:none" v="no"/>
    <tag k="capacity" v="2"/>
    <tag k="email" v="ajuda@powerdot.pt"/>
    <tag k="fee" v="yes"/>
    <tag k="motorcar" v="yes"/>
    <tag k="name" v="AZB-00005 - Intermarché"/>
    <tag k="network" v="Mobi.E"/>
    <tag k="opening_hours" v="24/7"/>
    <tag k="operator" v="Powerdot"/>
    <tag k="parking:fee" v="no"/>
    <tag k="phone" v="+351 800 180 292"/>
    <tag k="ref" v="AZB-00005"/>
    <tag k="socket:chademo" v="1"/>
    <tag k="socket:chademo:current" v="120"/>
    <tag k="socket:chademo:output" v="50kW"/>
    <tag k="socket:chademo:voltage" v="500"/>
    <tag k="socket:type2_cable" v="1"/>
    <tag k="socket:type2_cable:current" v="32"/>
    <tag k="socket:type2_cable:output" v="22kW"/>
    <tag k="socket:type2_cable:voltage" v="400"/>
    <tag k="socket:type2_combo" v="1"/>
    <tag k="socket:type2_combo:current" v="125"/>
    <tag k="socket:type2_combo:output" v="50kW"/>
    <tag k="socket:type2_combo:voltage" v="500"/>
    <tag k="website" v="https://www.mobie.pt"/>
  </node>
</old>
<new>
  <node id="8833233513" visible="true" version="6" timestamp="2022-03-23T19:05:06Z" changeset="118834802" uid="347293" user="Alexmol"/>
</new>
</action>
<action type="delete">
<old>
  <node id="8968514559" lat="38.6079623" lon="-8.9431370" version="8" timestamp="2022-03-28T23:43:59Z" changeset="119044175" uid="347293" user="Alexmol">
    <tag k="access" v="yes"/>
    <tag k="addr:country" v="PT"/>
    <tag k="amenity" v="charging_station"/>
    <tag k="authentication:membership_card" v="yes"/>
    <tag k="authentication:none" v="no"/>
    <tag k="capacity" v="2"/>
    <tag k="email" v="geral@eplug.pt"/>
    <tag k="fee" v="yes"/>
    <tag k="motorcar" v="yes"/>
    <tag k="name" v="PLM-00010 - Velho Cangalho"/>
    <tag k="network" v="Mobi.E"/>
    <tag k="opening_hours" v="24/7"/>
    <tag k="operator" v="E-Plug"/>
    <tag k="parking:fee" v="no"/>
    <tag k="phone" v="+351 211 648 577"/>
    <tag k="ref" v="PLM-00010"/>
    <tag k="socket:type2" v="2"/>
    <tag k="socket:type2:current" v="32"/>
    <tag k="socket:type2:output" v="22kW"/>
    <tag k="socket:type2:voltage" v="400"/>
    <tag k="website" v="https://www.mobie.pt"/>
  </node>
</old>
<new>
  <node id="8968514559" visible="true" version="7" timestamp="2022-03-26T12:25:11Z" changeset="118945130" uid="347293" user="Alexmol"/>
</new>
</action>
<action type="delete">
<old>
  <node id="9588613160" lat="41.3948188" lon="-8.7672148" version="2" timestamp="2022-03-28T23:43:59Z" changeset="119044175" uid="347293" user="Alexmol">
    <tag k="access" v="yes"/>
    <tag k="addr:country" v="PT"/>
    <tag k="amenity" v="charging_station"/>
    <tag k="authentication:membership_card" v="yes"/>
    <tag k="authentication:none" v="no"/>
    <tag k="capacity" v="3"/>
    <tag k="fee" v="yes"/>
    <tag k="name" v="PVZ-00016 - McDonald's"/>
    <tag k="network" v="Mobi.E"/>
    <tag k="opening_hours" v="24/7"/>
    <tag k="operator" v="EDP Comercial"/>
    <tag k="parking:fee" v="no"/>
    <tag k="ref" v="PVZ-00016"/>
    <tag k="socket:chademo" v="1"/>
    <tag k="socket:chademo:current" v="125"/>
    <tag k="socket:chademo:output" v="60kW"/>
    <tag k="socket:chademo:voltage" v="500"/>
    <tag k="socket:type2" v="1"/>
    <tag k="socket:type2:current" v="32"/>
    <tag k="socket:type2:output" v="22kW"/>
    <tag k="socket:type2:voltage" v="400"/>
    <tag k="socket:type2_combo" v="1"/>
    <tag k="socket:type2_combo:current" v="200"/>
    <tag k="socket:type2_combo:output" v="60kW"/>
    <tag k="socket:type2_combo:voltage" v="920"/>
    <tag k="website" v="https://www.mobie.pt/"/>
  </node>
</old>
<new>
  <node id="9588613160" visible="true" version="1" timestamp="2022-03-18T20:50:23Z" changeset="118647379" uid="347293" user="Alexmol"/>
</new>
</action>
<action type="delete">
<old>
  <node id="9598091355" lat="41.3588862" lon="-8.2043094" version="2" timestamp="2022-03-28T23:43:59Z" changeset="119044175" uid="347293" user="Alexmol">
    <tag k="access" v="yes"/>
    <tag k="addr:country" v="PT"/>
    <tag k="amenity" v="charging_station"/>
    <tag k="authentication:membership_card" v="yes"/>
    <tag k="authentication:none" v="no"/>
    <tag k="capacity" v="2"/>
    <tag k="fee" v="yes"/>
    <tag k="motorcar" v="yes"/>
    <tag k="name" v="FLG-00006 - McDonald's"/>
    <tag k="network" v="Mobi.E"/>
    <tag k="opening_hours" v="24/7"/>
    <tag k="operator" v="EDP Comercial"/>
    <tag k="parking:fee" v="no"/>
    <tag k="ref" v="FLG-00006"/>
    <tag k="socket:chademo" v="1"/>
    <tag k="socket:chademo:current" v="125"/>
    <tag k="socket:chademo:output" v="60kW"/>
    <tag k="socket:chademo:voltage" v="500"/>
    <tag k="socket:type2" v="1"/>
    <tag k="socket:type2:current" v="32"/>
    <tag k="socket:type2:output" v="22kW"/>
    <tag k="socket:type2:voltage" v="400"/>
    <tag k="socket:type2_combo" v="1"/>
    <tag k="socket:type2_combo:current" v="125"/>
    <tag k="socket:type2_combo:output" v="60kW"/>
    <tag k="socket:type2_combo:voltage" v="950"/>
    <tag k="website" v="https://www.mobie.pt"/>
  </node>
</old>
<new>
  <node id="9598091355" visible="true" version="1" timestamp="2022-03-22T19:32:31Z" changeset="118791800" uid="347293" user="Alexmol"/>
</new>
</action>
<action type="delete">
<old>
  <node id="9598091356" lat="39.4163430" lon="-9.1488290" version="2" timestamp="2022-03-28T23:43:59Z" changeset="119044175" uid="347293" user="Alexmol">
    <tag k="access" v="yes"/>
    <tag k="addr:country" v="PT"/>
    <tag k="amenity" v="charging_station"/>
    <tag k="authentication:membership_card" v="yes"/>
    <tag k="authentication:none" v="no"/>
    <tag k="capacity" v="2"/>
    <tag k="fee" v="yes"/>
    <tag k="motorcar" v="yes"/>
    <tag k="name" v="CLD-00014 - Repsol"/>
    <tag k="network" v="Mobi.E"/>
    <tag k="opening_hours" v="24/7"/>
    <tag k="operator" v="Repsol"/>
    <tag k="parking:fee" v="no"/>
    <tag k="ref" v="CLD-00014"/>
    <tag k="socket:chademo" v="1"/>
    <tag k="socket:chademo:current" v="80"/>
    <tag k="socket:chademo:output" v="30kW"/>
    <tag k="socket:chademo:voltage" v="500"/>
    <tag k="socket:type2_cable" v="1"/>
    <tag k="socket:type2_cable:current" v="32"/>
    <tag k="socket:type2_cable:output" v="22kW"/>
    <tag k="socket:type2_cable:voltage" v="400"/>
    <tag k="socket:type2_combo" v="1"/>
    <tag k="socket:type2_combo:current" v="80"/>
    <tag k="socket:type2_combo:output" v="30kW"/>
    <tag k="socket:type2_combo:voltage" v="500"/>
    <tag k="website" v="https://www.mobie.pt"/>
  </node>
</old>
<new>
  <node id="9598091356" visible="true" version="1" timestamp="2022-03-22T19:32:31Z" changeset="118791800" uid="347293" user="Alexmol"/>
</new>
</action>
<action type="delete">
<old>
  <node id="9598091360" lat="37.1137291" lon="-8.6812851" version="2" timestamp="2022-03-28T23:43:59Z" changeset="119044175" uid="347293" user="Alexmol">
    <tag k="access" v="yes"/>
    <tag k="addr:country" v="PT"/>
    <tag k="amenity" v="charging_station"/>
    <tag k="authentication:membership_card" v="yes"/>
    <tag k="authentication:none" v="no"/>
    <tag k="capacity" v="2"/>
    <tag k="fee" v="yes"/>
    <tag k="motorcar" v="yes"/>
    <tag k="name" v="LGS-00012 - McDonald's"/>
    <tag k="network" v="Mobi.E"/>
    <tag k="opening_hours" v="24/7"/>
    <tag k="operator" v="EDP Comercial"/>
    <tag k="parking:fee" v="no"/>
    <tag k="ref" v="LGS-00012"/>
    <tag k="socket:chademo" v="1"/>
    <tag k="socket:chademo:current" v="125"/>
    <tag k="socket:chademo:output" v="60kW"/>
    <tag k="socket:chademo:voltage" v="500"/>
    <tag k="socket:type2" v="1"/>
    <tag k="socket:type2:current" v="32"/>
    <tag k="socket:type2:output" v="22kW"/>
    <tag k="socket:type2:voltage" v="400"/>
    <tag k="socket:type2_combo" v="1"/>
    <tag k="socket:type2_combo:current" v="125"/>
    <tag k="socket:type2_combo:output" v="60kW"/>
    <tag k="socket:type2_combo:voltage" v="950"/>
    <tag k="website" v="https://www.mobie.pt"/>
  </node>
</old>
<new>
  <node id="9598091360" visible="true" version="1" timestamp="2022-03-22T19:32:31Z" changeset="118791800" uid="347293" user="Alexmol"/>
</new>
</action>
<action type="delete">
<old>
  <node id="9600958560" lat="40.3944420" lon="-8.4509492" version="2" timestamp="2022-03-28T23:43:59Z" changeset="119044175" uid="347293" user="Alexmol">
    <tag k="access" v="yes"/>
    <tag k="addr:country" v="PT"/>
    <tag k="amenity" v="charging_station"/>
    <tag k="authentication:membership_card" v="yes"/>
    <tag k="authentication:none" v="no"/>
    <tag k="capacity" v="4"/>
    <tag k="fee" v="yes"/>
    <tag k="motorcar" v="yes"/>
    <tag k="name" v="MLD-00004/5"/>
    <tag k="network" v="Mobi.E"/>
    <tag k="opening_hours" v="24/7"/>
    <tag k="operator" v="Powerdot"/>
    <tag k="parking:fee" v="no"/>
    <tag k="ref" v="MLD-00004;MLD-00005"/>
    <tag k="socket:chademo" v="1"/>
    <tag k="socket:chademo:current" v="120"/>
    <tag k="socket:chademo:output" v="50kW"/>
    <tag k="socket:chademo:voltage" v="500"/>
    <tag k="socket:type2" v="2"/>
    <tag k="socket:type2:current" v="32"/>
    <tag k="socket:type2:output" v="22kW"/>
    <tag k="socket:type2:voltage" v="400"/>
    <tag k="socket:type2_combo" v="1"/>
    <tag k="socket:type2_combo:current" v="125"/>
    <tag k="socket:type2_combo:output" v="50kW"/>
    <tag k="socket:type2_combo:voltage" v="500"/>
    <tag k="website" v="https://www.mobie.pt/"/>
  </node>
</old>
<new>
  <node id="9600958560" visible="true" version="1" timestamp="2022-03-23T19:05:06Z" changeset="118834802" uid="347293" user="Alexmol"/>
</new>
</action>

</osm>
