<?xml version="1.0" encoding="UTF-8"?>
<osm version="0.6" generator="Overpass API 0.7.57 93a4d346">
<note>The data included in this document is from www.openstreetmap.org. The data is made available under ODbL.</note>
<meta osm_base="2022-03-26T01:35:41Z" areas="2022-03-26T00:48:55Z"/>

<action type="delete">
<old>
  <node id="8149363331" lat="38.7444676" lon="-9.1831234" version="7" timestamp="2022-03-25T18:38:27Z" changeset="118923324" uid="347293" user="Alexmol">
    <tag k="access" v="yes"/>
    <tag k="addr:country" v="PT"/>
    <tag k="amenity" v="charging_station"/>
    <tag k="authentication:membership_card" v="yes"/>
    <tag k="authentication:none" v="no"/>
    <tag k="capacity" v="2"/>
    <tag k="email" v="apoio.cliente@kmlowcost.com"/>
    <tag k="fee" v="yes"/>
    <tag k="motorcar" v="yes"/>
    <tag k="name" v="LSB-00027"/>
    <tag k="network" v="Mobi.E"/>
    <tag k="opening_hours" v="24/7"/>
    <tag k="operator" v="KLC"/>
    <tag k="parking:fee" v="no"/>
    <tag k="phone" v="+351 800 296 929"/>
    <tag k="ref" v="LSB-90027"/>
    <tag k="socket:type2" v="2"/>
    <tag k="socket:type2:current" v="16"/>
    <tag k="socket:type2:output" v="3.7kW"/>
    <tag k="socket:type2:voltage" v="230"/>
    <tag k="website" v="https://www.mobie.pt"/>
  </node>
</old>
<new>
  <node id="8149363331" visible="true" version="6" timestamp="2021-11-25T21:37:18Z" changeset="114239078" uid="347293" user="Alexmol"/>
</new>
</action>
<action type="delete">
<old>
  <node id="9018342467" lat="41.1739477" lon="-7.0499568" version="4" timestamp="2022-03-25T12:36:12Z" changeset="118908334" uid="347293" user="Alexmol">
    <tag k="access" v="yes"/>
    <tag k="addr:country" v="PT"/>
    <tag k="amenity" v="charging_station"/>
    <tag k="authentication:membership_card" v="yes"/>
    <tag k="authentication:none" v="no"/>
    <tag k="capacity" v="2"/>
    <tag k="email" v="ajuda@powerdot.pt"/>
    <tag k="fee" v="yes"/>
    <tag k="motorcar" v="yes"/>
    <tag k="name" v="TMC-00001"/>
    <tag k="network" v="Mobi.E"/>
    <tag k="opening_hours" v="24/7"/>
    <tag k="operator" v="Powerdot"/>
    <tag k="parking:fee" v="no"/>
    <tag k="phone" v="+351 800 180 292"/>
    <tag k="ref" v="TMC-90001"/>
    <tag k="socket:type2" v="2"/>
    <tag k="socket:type2:current" v="32"/>
    <tag k="socket:type2:output" v="22kW"/>
    <tag k="socket:type2:voltage" v="400"/>
    <tag k="website" v="https://www.mobie.pt"/>
  </node>
</old>
<new>
  <node id="9018342467" visible="true" version="3" timestamp="2022-03-19T21:33:56Z" changeset="118679836" uid="347293" user="Alexmol"/>
</new>
</action>
<action type="delete">
<old>
  <node id="9043918680" lat="41.1009642" lon="-8.5988261" version="5" timestamp="2022-03-25T18:38:27Z" changeset="118923324" uid="347293" user="Alexmol">
    <tag k="access" v="yes"/>
    <tag k="addr:country" v="PT"/>
    <tag k="amenity" v="charging_station"/>
    <tag k="authentication:membership_card" v="yes"/>
    <tag k="authentication:none" v="no"/>
    <tag k="capacity" v="1"/>
    <tag k="fee" v="yes"/>
    <tag k="motorcar" v="yes"/>
    <tag k="name" v="VNG-00067 - Repsol"/>
    <tag k="network" v="Mobi.E"/>
    <tag k="opening_hours" v="24/7"/>
    <tag k="operator" v="EDP Comercial"/>
    <tag k="parking:fee" v="no"/>
    <tag k="ref" v="VNG-00067"/>
    <tag k="socket:chademo" v="1"/>
    <tag k="socket:chademo:current" v="120"/>
    <tag k="socket:chademo:output" v="50kW"/>
    <tag k="socket:chademo:voltage" v="500"/>
    <tag k="socket:type2_combo" v="1"/>
    <tag k="socket:type2_combo:current" v="350"/>
    <tag k="socket:type2_combo:output" v="160kW"/>
    <tag k="socket:type2_combo:voltage" v="920"/>
    <tag k="website" v="https://www.mobie.pt"/>
  </node>
</old>
<new>
  <node id="9043918680" visible="true" version="4" timestamp="2022-01-28T15:45:36Z" changeset="116712738" uid="347293" user="Alexmol"/>
</new>
</action>
<action type="delete">
<old>
  <node id="9426410193" lat="41.5505760" lon="-8.4062400" version="4" timestamp="2022-03-25T12:36:12Z" changeset="118908334" uid="347293" user="Alexmol">
    <tag k="access" v="yes"/>
    <tag k="addr:country" v="PT"/>
    <tag k="amenity" v="charging_station"/>
    <tag k="authentication:membership_card" v="yes"/>
    <tag k="authentication:none" v="no"/>
    <tag k="capacity" v="2"/>
    <tag k="fee" v="yes"/>
    <tag k="motorcar" v="yes"/>
    <tag k="name" v="BRG-00045 - Repsol"/>
    <tag k="network" v="Mobi.E"/>
    <tag k="opening_hours" v="24/7"/>
    <tag k="operator" v="Repsol"/>
    <tag k="parking:fee" v="no"/>
    <tag k="ref" v="BRG-00045"/>
    <tag k="socket:chademo" v="1"/>
    <tag k="socket:chademo:current" v="120"/>
    <tag k="socket:chademo:output" v="50kW"/>
    <tag k="socket:chademo:voltage" v="500"/>
    <tag k="socket:type2_cable" v="1"/>
    <tag k="socket:type2_cable:current" v="63"/>
    <tag k="socket:type2_cable:output" v="43kW"/>
    <tag k="socket:type2_cable:voltage" v="400"/>
    <tag k="socket:type2_combo" v="1"/>
    <tag k="socket:type2_combo:current" v="125"/>
    <tag k="socket:type2_combo:output" v="50kW"/>
    <tag k="socket:type2_combo:voltage" v="500"/>
    <tag k="website" v="https://www.mobie.pt/"/>
  </node>
</old>
<new>
  <node id="9426410193" visible="true" version="3" timestamp="2022-03-22T19:32:31Z" changeset="118791800" uid="347293" user="Alexmol"/>
</new>
</action>
<action type="delete">
<old>
  <node id="9567015128" lat="41.5653160" lon="-8.4060863" version="2" timestamp="2022-03-25T18:38:27Z" changeset="118923324" uid="347293" user="Alexmol">
    <tag k="access" v="yes"/>
    <tag k="addr:country" v="PT"/>
    <tag k="amenity" v="charging_station"/>
    <tag k="authentication:membership_card" v="yes"/>
    <tag k="authentication:none" v="no"/>
    <tag k="capacity" v="2"/>
    <tag k="fee" v="yes"/>
    <tag k="motorcar" v="yes"/>
    <tag k="name" v="BRG-00057 - Braga Retail Center"/>
    <tag k="network" v="Mobi.E"/>
    <tag k="opening_hours" v="Mo-Su 09:00-22:00"/>
    <tag k="operator" v="Neureifen"/>
    <tag k="parking:fee" v="no"/>
    <tag k="ref" v="BRG-00057"/>
    <tag k="socket:type2" v="2"/>
    <tag k="socket:type2:current" v="32"/>
    <tag k="socket:type2:output" v="22kW"/>
    <tag k="socket:type2:voltage" v="400"/>
    <tag k="website" v="https://www.mobie.pt"/>
  </node>
</old>
<new>
  <node id="9567015128" visible="true" version="1" timestamp="2022-03-09T21:53:13Z" changeset="118295795" uid="347293" user="Alexmol"/>
</new>
</action>
<action type="delete">
<old>
  <node id="9588613159" lat="38.7077376" lon="-9.1816783" version="2" timestamp="2022-03-25T12:36:12Z" changeset="118908334" uid="347293" user="Alexmol">
    <tag k="access" v="customers"/>
    <tag k="addr:country" v="PT"/>
    <tag k="amenity" v="charging_station"/>
    <tag k="authentication:membership_card" v="yes"/>
    <tag k="authentication:none" v="no"/>
    <tag k="capacity" v="2"/>
    <tag k="fee" v="yes"/>
    <tag k="motorcar" v="yes"/>
    <tag k="name" v="LSB-000454 - ISA"/>
    <tag k="network" v="Mobi.E"/>
    <tag k="opening_hours" v="24/7"/>
    <tag k="operator" v="EDP Comercial"/>
    <tag k="parking:fee" v="no"/>
    <tag k="ref" v="LSB-00454"/>
    <tag k="socket:type2" v="2"/>
    <tag k="socket:type2:current" v="32"/>
    <tag k="socket:type2:output" v="22kW"/>
    <tag k="socket:type2:voltage" v="400"/>
    <tag k="website" v="https://www.mobie.pt/"/>
  </node>
</old>
<new>
  <node id="9588613159" visible="true" version="1" timestamp="2022-03-18T20:50:23Z" changeset="118647379" uid="347293" user="Alexmol"/>
</new>
</action>
<action type="delete">
<old>
  <node id="9594476388" lat="40.7167589" lon="-7.8315439" version="2" timestamp="2022-03-25T12:36:12Z" changeset="118908334" uid="347293" user="Alexmol">
    <tag k="access" v="yes"/>
    <tag k="addr:country" v="PT"/>
    <tag k="amenity" v="charging_station"/>
    <tag k="authentication:membership_card" v="yes"/>
    <tag k="authentication:none" v="no"/>
    <tag k="capacity" v="2"/>
    <tag k="fee" v="yes"/>
    <tag k="motorcar" v="yes"/>
    <tag k="name" v="VIS-00017 - Repsol"/>
    <tag k="network" v="Mobi.E"/>
    <tag k="opening_hours" v="24/7"/>
    <tag k="operator" v="Repsol"/>
    <tag k="parking:fee" v="no"/>
    <tag k="ref" v="VIS-00017"/>
    <tag k="socket:chademo" v="1"/>
    <tag k="socket:chademo:current" v="80"/>
    <tag k="socket:chademo:output" v="30kW"/>
    <tag k="socket:chademo:voltage" v="500"/>
    <tag k="socket:type2_cable" v="1"/>
    <tag k="socket:type2_cable:current" v="32"/>
    <tag k="socket:type2_cable:output" v="22kW"/>
    <tag k="socket:type2_cable:voltage" v="400"/>
    <tag k="socket:type2_combo" v="1"/>
    <tag k="socket:type2_combo:current" v="80"/>
    <tag k="socket:type2_combo:output" v="30kW"/>
    <tag k="socket:type2_combo:voltage" v="500"/>
    <tag k="website" v="https://www.mobie.pt/"/>
  </node>
</old>
<new>
  <node id="9594476388" visible="true" version="1" timestamp="2022-03-21T13:59:24Z" changeset="118737824" uid="347293" user="Alexmol"/>
</new>
</action>
<action type="delete">
<old>
  <node id="9604000863" lat="38.7395552" lon="-9.1454920" version="2" timestamp="2022-03-25T12:36:12Z" changeset="118908334" uid="347293" user="Alexmol">
    <tag k="access" v="yes"/>
    <tag k="addr:country" v="PT"/>
    <tag k="amenity" v="charging_station"/>
    <tag k="authentication:membership_card" v="yes"/>
    <tag k="authentication:none" v="no"/>
    <tag k="capacity" v="2"/>
    <tag k="fee" v="yes"/>
    <tag k="motorcar" v="yes"/>
    <tag k="name" v="LSB-00450/451 - Hotel Jupiter"/>
    <tag k="network" v="Mobi.E"/>
    <tag k="opening_hours" v="24/7"/>
    <tag k="operator" v="EDP Comercial"/>
    <tag k="parking:fee" v="yes"/>
    <tag k="ref" v="LSB-00450;LSB-00451"/>
    <tag k="socket:type2" v="2"/>
    <tag k="socket:type2:current" v="32"/>
    <tag k="socket:type2:output" v="7.4kW"/>
    <tag k="socket:type2:voltage" v="230"/>
    <tag k="website" v="https://www.mobie.pt/"/>
  </node>
</old>
<new>
  <node id="9604000863" visible="true" version="1" timestamp="2022-03-24T19:25:37Z" changeset="118879389" uid="347293" user="Alexmol"/>
</new>
</action>

</osm>
