<?xml version="1.0" encoding="UTF-8"?>
<osm version="0.6" generator="Overpass API 0.7.57 93a4d346">
<note>The data included in this document is from www.openstreetmap.org. The data is made available under ODbL.</note>
<meta osm_base="2022-01-12T01:12:03Z" areas="2022-01-11T23:58:00Z"/>

<action type="delete">
<old>
  <node id="966120797" lat="38.7489400" lon="-9.1380500" version="14" timestamp="2022-01-11T21:24:34Z" changeset="116041703" uid="347293" user="Alexmol">
    <tag k="access" v="yes"/>
    <tag k="addr:city" v="Lisboa"/>
    <tag k="addr:country" v="PT"/>
    <tag k="addr:postcode" v="1700"/>
    <tag k="addr:street" v="Avenida dos Estados Unidos da América"/>
    <tag k="amenity" v="charging_station"/>
    <tag k="authentication:membership_card" v="yes"/>
    <tag k="authentication:none" v="no"/>
    <tag k="capacity" v="2"/>
    <tag k="email" v="mobilidade.electricacrc@galp.com"/>
    <tag k="fee" v="yes"/>
    <tag k="motorcar" v="yes"/>
    <tag k="name" v="LSB-00064"/>
    <tag k="network" v="Mobi.E"/>
    <tag k="opening_hours" v="24/7"/>
    <tag k="operator" v="Galp Power"/>
    <tag k="parking:fee" v="no"/>
    <tag k="phone" v="+351 800 249 249"/>
    <tag k="ref" v="LSB-90064"/>
    <tag k="socket:type2" v="2"/>
    <tag k="socket:type2:current" v="32"/>
    <tag k="socket:type2:output" v="22kW"/>
    <tag k="socket:type2:voltage" v="400"/>
    <tag k="website" v="https://www.mobie.pt"/>
  </node>
</old>
<new>
  <node id="966120797" visible="true" version="13" timestamp="2022-01-08T18:18:45Z" changeset="115919687" uid="347293" user="Alexmol"/>
</new>
</action>
<action type="delete">
<old>
  <node id="8119362926" lat="38.6813853" lon="-9.1595054" version="6" timestamp="2022-01-11T21:24:34Z" changeset="116041703" uid="347293" user="Alexmol">
    <tag k="access" v="yes"/>
    <tag k="addr:country" v="PT"/>
    <tag k="amenity" v="charging_station"/>
    <tag k="authentication:membership_card" v="yes"/>
    <tag k="authentication:none" v="no"/>
    <tag k="capacity" v="2"/>
    <tag k="email" v="ajuda@powerdot.pt"/>
    <tag k="fee" v="yes"/>
    <tag k="motorcar" v="yes"/>
    <tag k="name" v="ALM-00004 - Estacionamento Capitão Leitão"/>
    <tag k="network" v="Mobi.E"/>
    <tag k="opening_hours" v="24/7"/>
    <tag k="operator" v="Powerdot"/>
    <tag k="parking:fee" v="yes"/>
    <tag k="phone" v="+351 800 180 292"/>
    <tag k="ref" v="ALM-90004"/>
    <tag k="socket:type2" v="2"/>
    <tag k="socket:type2:current" v="16"/>
    <tag k="socket:type2:output" v="3.7kW"/>
    <tag k="socket:type2:voltage" v="230"/>
    <tag k="website" v="https://www.mobie.pt"/>
  </node>
</old>
<new>
  <node id="8119362926" visible="true" version="5" timestamp="2021-12-09T12:16:06Z" changeset="114741782" uid="347293" user="Alexmol"/>
</new>
</action>
<action type="delete">
<old>
  <node id="8222780285" lat="38.7316172" lon="-9.2781894" version="8" timestamp="2022-01-11T21:24:34Z" changeset="116041703" uid="347293" user="Alexmol">
    <tag k="access" v="yes"/>
    <tag k="addr:city" v="Barcarena"/>
    <tag k="addr:country" v="PT"/>
    <tag k="addr:street" v="Largo 5 de Outubro"/>
    <tag k="amenity" v="charging_station"/>
    <tag k="authentication:membership_card" v="yes"/>
    <tag k="authentication:none" v="no"/>
    <tag k="capacity" v="2"/>
    <tag k="email" v="suporte@mobiletric.com"/>
    <tag k="fee" v="yes"/>
    <tag k="motorcar" v="yes"/>
    <tag k="name" v="OER-00078 - Junta de Freguesia de Barcarena"/>
    <tag k="network" v="Mobi.E"/>
    <tag k="opening_hours" v="24/7"/>
    <tag k="operator" v="Mobiletric"/>
    <tag k="parking:fee" v="no"/>
    <tag k="phone" v="+351 800 210 204"/>
    <tag k="ref" v="OER-00078"/>
    <tag k="socket:chademo" v="1"/>
    <tag k="socket:chademo:current" v="120"/>
    <tag k="socket:chademo:output" v="50kW"/>
    <tag k="socket:chademo:voltage" v="500"/>
    <tag k="socket:type2_cable" v="1"/>
    <tag k="socket:type2_cable:current" v="63"/>
    <tag k="socket:type2_cable:output" v="43kW"/>
    <tag k="socket:type2_cable:voltage" v="400"/>
    <tag k="socket:type2_combo" v="1"/>
    <tag k="socket:type2_combo:current" v="125"/>
    <tag k="socket:type2_combo:output" v="50kW"/>
    <tag k="socket:type2_combo:voltage" v="500"/>
    <tag k="website" v="https://www.mobie.pt"/>
  </node>
</old>
<new>
  <node id="8222780285" visible="true" version="7" timestamp="2021-10-03T10:03:08Z" changeset="112027074" uid="347293" user="Alexmol"/>
</new>
</action>
<action type="delete">
<old>
  <node id="8232554200" lat="38.6263728" lon="-9.1109718" version="6" timestamp="2022-01-11T19:12:35Z" changeset="116037226" uid="347293" user="Alexmol">
    <tag k="access" v="yes"/>
    <tag k="addr:city" v="Amora"/>
    <tag k="addr:country" v="PT"/>
    <tag k="amenity" v="charging_station"/>
    <tag k="authentication:membership_card" v="yes"/>
    <tag k="authentication:none" v="no"/>
    <tag k="capacity" v="2"/>
    <tag k="email" v="ajuda@powerdot.pt"/>
    <tag k="fee" v="yes"/>
    <tag k="motorcar" v="yes"/>
    <tag k="name" v="SXL-00019 - E.Leclerc"/>
    <tag k="network" v="Mobi.E"/>
    <tag k="opening_hours" v="24/7"/>
    <tag k="operator" v="Powerdot"/>
    <tag k="parking:fee" v="no"/>
    <tag k="phone" v="+351 800 180 292"/>
    <tag k="ref" v="SXL-00019"/>
    <tag k="socket:type2_combo" v="2"/>
    <tag k="socket:type2_combo:current" v="125"/>
    <tag k="socket:type2_combo:output" v="60kW"/>
    <tag k="socket:type2_combo:voltage" v="950"/>
    <tag k="website" v="https://www.mobie.pt"/>
  </node>
</old>
<new>
  <node id="8232554200" visible="true" version="5" timestamp="2022-01-05T13:19:51Z" changeset="115797606" uid="347293" user="Alexmol"/>
</new>
</action>
<action type="delete">
<old>
  <node id="8421433078" lat="38.6263299" lon="-9.1109423" version="6" timestamp="2022-01-11T19:12:35Z" changeset="116037226" uid="347293" user="Alexmol">
    <tag k="access" v="yes"/>
    <tag k="addr:country" v="PT"/>
    <tag k="amenity" v="charging_station"/>
    <tag k="authentication:membership_card" v="yes"/>
    <tag k="authentication:none" v="no"/>
    <tag k="capacity" v="2"/>
    <tag k="email" v="ajuda@powerdot.pt"/>
    <tag k="fee" v="yes"/>
    <tag k="motorcar" v="yes"/>
    <tag k="name" v="SXL-00009 - E.Leclerc"/>
    <tag k="network" v="Mobi.E"/>
    <tag k="opening_hours" v="24/7"/>
    <tag k="operator" v="Powerdot"/>
    <tag k="parking:fee" v="no"/>
    <tag k="phone" v="+351 800 180 292"/>
    <tag k="ref" v="SXL-00009"/>
    <tag k="socket:type2" v="2"/>
    <tag k="socket:type2:current" v="32"/>
    <tag k="socket:type2:output" v="22kW"/>
    <tag k="socket:type2:voltage" v="400"/>
    <tag k="website" v="https://www.mobie.pt"/>
  </node>
</old>
<new>
  <node id="8421433078" visible="true" version="5" timestamp="2022-01-05T13:19:51Z" changeset="115797606" uid="347293" user="Alexmol"/>
</new>
</action>
<action type="delete">
<old>
  <node id="9173300830" lat="39.2076874" lon="-8.0562492" version="2" timestamp="2022-01-11T21:24:34Z" changeset="116041703" uid="347293" user="Alexmol">
    <tag k="access" v="yes"/>
    <tag k="addr:country" v="PT"/>
    <tag k="amenity" v="charging_station"/>
    <tag k="authentication:membership_card" v="yes"/>
    <tag k="authentication:none" v="no"/>
    <tag k="capacity" v="2"/>
    <tag k="fee" v="yes"/>
    <tag k="motorcar" v="yes"/>
    <tag k="name" v="PSR-00003 - Aerodromo"/>
    <tag k="network" v="Mobi.E"/>
    <tag k="opening_hours" v="24/7"/>
    <tag k="operator" v="J.J.Tomé"/>
    <tag k="parking:fee" v="no"/>
    <tag k="ref" v="PSR-00003"/>
    <tag k="socket:type2" v="2"/>
    <tag k="socket:type2:current" v="32"/>
    <tag k="socket:type2:output" v="22kW"/>
    <tag k="socket:type2:voltage" v="400"/>
    <tag k="website" v="https://www.mobie.pt/"/>
  </node>
</old>
<new>
  <node id="9173300830" visible="true" version="1" timestamp="2021-10-14T21:02:03Z" changeset="112520746" uid="347293" user="Alexmol"/>
</new>
</action>

</osm>
