<?xml version="1.0" encoding="UTF-8"?>
<osm version="0.6" generator="Overpass API 0.7.61.5 4133829e">
<note>The data included in this document is from www.openstreetmap.org. The data is made available under ODbL.</note>
<meta osm_base="2023-10-10T01:11:27Z" areas="2023-10-09T22:05:26Z"/>

<action type="delete">
<old>
  <node id="10218080758" lat="38.5814504" lon="-9.0428430" version="6" timestamp="2023-10-09T18:46:27Z" changeset="142362411" uid="347293" user="Alexmol">
    <tag k="access" v="yes"/>
    <tag k="addr:country" v="PT"/>
    <tag k="amenity" v="charging_station"/>
    <tag k="authentication:membership_card" v="yes"/>
    <tag k="authentication:none" v="no"/>
    <tag k="capacity" v="2"/>
    <tag k="email" v="mobilidade-eletrica@edp.pt"/>
    <tag k="fee" v="yes"/>
    <tag k="maxstay" v="unlimited"/>
    <tag k="motorcar" v="yes"/>
    <tag k="name" v="BRR-00026"/>
    <tag k="network" v="Mobi.E"/>
    <tag k="opening_hours" v="24/7"/>
    <tag k="operator" v="EDP Comercial"/>
    <tag k="parking:fee" v="no"/>
    <tag k="payment:app" v="yes"/>
    <tag k="payment:cards" v="no"/>
    <tag k="payment:cash" v="no"/>
    <tag k="payment:membership_card" v="yes"/>
    <tag k="phone" v="+351 800 222 222"/>
    <tag k="ref" v="BRR-00026"/>
    <tag k="socket:type2" v="2"/>
    <tag k="socket:type2:current" v="32"/>
    <tag k="socket:type2:output" v="22kW"/>
    <tag k="socket:type2:voltage" v="400"/>
    <tag k="website" v="https://www.mobie.pt/"/>
  </node>
</old>
<new>
  <node id="10218080758" visible="true" version="5" timestamp="2023-09-16T17:02:32Z" changeset="141351819" uid="347293" user="Alexmol"/>
</new>
</action>
<action type="delete">
<old>
  <node id="10853407453" lat="38.7498261" lon="-9.2045883" version="5" timestamp="2023-10-09T18:46:27Z" changeset="142362411" uid="347293" user="Alexmol">
    <tag k="access" v="yes"/>
    <tag k="amenity" v="charging_station"/>
    <tag k="authentication:membership_card" v="yes"/>
    <tag k="authentication:none" v="no"/>
    <tag k="capacity" v="2"/>
    <tag k="fee" v="yes"/>
    <tag k="maxstay" v="unlimited"/>
    <tag k="motorcar" v="yes"/>
    <tag k="name" v="LSB-00588 - Pingo Doce"/>
    <tag k="network" v="Mobi.E"/>
    <tag k="opening_hours" v="09:00-21:00"/>
    <tag k="operator" v="Atlante"/>
    <tag k="parking:fee" v="no"/>
    <tag k="payment:app" v="yes"/>
    <tag k="payment:cards" v="no"/>
    <tag k="payment:cash" v="no"/>
    <tag k="payment:membership_card" v="yes"/>
    <tag k="phone" v="+351 800 296 929"/>
    <tag k="ref" v="LSB-00588"/>
    <tag k="socket:chademo" v="1"/>
    <tag k="socket:chademo:current" v="125"/>
    <tag k="socket:chademo:output" v="50kW"/>
    <tag k="socket:chademo:voltage" v="500"/>
    <tag k="socket:type2_cable" v="1"/>
    <tag k="socket:type2_cable:current" v="32"/>
    <tag k="socket:type2_cable:output" v="22kW"/>
    <tag k="socket:type2_cable:voltage" v="400"/>
    <tag k="socket:type2_combo" v="1"/>
    <tag k="socket:type2_combo:current" v="150"/>
    <tag k="socket:type2_combo:output" v="60kW"/>
    <tag k="socket:type2_combo:voltage" v="920"/>
    <tag k="website" v="https://www.mobie.pt/"/>
  </node>
</old>
<new>
  <node id="10853407453" visible="true" version="4" timestamp="2023-09-02T10:11:23Z" changeset="140711939" uid="347293" user="Alexmol"/>
</new>
</action>
<action type="delete">
<old>
  <node id="11033318060" lat="41.5121600" lon="-8.4520388" version="4" timestamp="2023-10-09T18:46:27Z" changeset="142362411" uid="347293" user="Alexmol">
    <tag k="access" v="yes"/>
    <tag k="addr:country" v="PT"/>
    <tag k="amenity" v="charging_station"/>
    <tag k="authentication:membership_card" v="yes"/>
    <tag k="authentication:none" v="no"/>
    <tag k="capacity" v="2"/>
    <tag k="email" v="mobilidade.electricacrc@galp.com"/>
    <tag k="fee" v="yes"/>
    <tag k="maxstay" v="unlimited"/>
    <tag k="motorcar" v="yes"/>
    <tag k="name" v="BRG-00080 - Galp"/>
    <tag k="network" v="Mobi.E"/>
    <tag k="opening_hours" v="24/7"/>
    <tag k="operator" v="Galp Geste"/>
    <tag k="parking:fee" v="no"/>
    <tag k="payment:app" v="yes"/>
    <tag k="payment:cards" v="no"/>
    <tag k="payment:cash" v="no"/>
    <tag k="payment:membership_card" v="yes"/>
    <tag k="phone" v="+351 800 249 249"/>
    <tag k="ref" v="BRG-00080"/>
    <tag k="socket:chademo" v="1"/>
    <tag k="socket:chademo:current" v="120"/>
    <tag k="socket:chademo:output" v="60kW"/>
    <tag k="socket:chademo:voltage" v="500"/>
    <tag k="socket:type2_combo" v="1"/>
    <tag k="socket:type2_combo:current" v="200"/>
    <tag k="socket:type2_combo:output" v="120kW"/>
    <tag k="socket:type2_combo:voltage" v="950"/>
    <tag k="website" v="https://www.mobie.pt/"/>
  </node>
</old>
<new>
  <node id="11033318060" visible="true" version="3" timestamp="2023-10-02T20:02:36Z" changeset="142055366" uid="347293" user="Alexmol"/>
</new>
</action>
<action type="delete">
<old>
  <node id="11109235694" lat="40.6457619" lon="-8.6273993" version="4" timestamp="2023-10-09T18:46:27Z" changeset="142362411" uid="347293" user="Alexmol">
    <tag k="access" v="yes"/>
    <tag k="amenity" v="charging_station"/>
    <tag k="authentication:membership_card" v="yes"/>
    <tag k="authentication:none" v="no"/>
    <tag k="capacity" v="2"/>
    <tag k="email" v="manutencaors@repsol.com"/>
    <tag k="fee" v="yes"/>
    <tag k="maxstay" v="unlimited"/>
    <tag k="motorcar" v="yes"/>
    <tag k="name" v="AVR-00046 - Repsol"/>
    <tag k="network" v="Mobi.E"/>
    <tag k="opening_hours" v="24/7"/>
    <tag k="operator" v="Repsol"/>
    <tag k="parking:fee" v="no"/>
    <tag k="payment:app" v="yes"/>
    <tag k="payment:cards" v="no"/>
    <tag k="payment:cash" v="no"/>
    <tag k="payment:membership_card" v="yes"/>
    <tag k="phone" v="+351 800 226 624"/>
    <tag k="ref" v="AVR-00046"/>
    <tag k="socket:chademo" v="1"/>
    <tag k="socket:chademo:current" v="125"/>
    <tag k="socket:chademo:output" v="50kW"/>
    <tag k="socket:chademo:voltage" v="500"/>
    <tag k="socket:type2_cable" v="1"/>
    <tag k="socket:type2_cable:current" v="32"/>
    <tag k="socket:type2_cable:output" v="22kW"/>
    <tag k="socket:type2_cable:voltage" v="400"/>
    <tag k="socket:type2_combo" v="1"/>
    <tag k="socket:type2_combo:current" v="150"/>
    <tag k="socket:type2_combo:output" v="60kW"/>
    <tag k="socket:type2_combo:voltage" v="920"/>
    <tag k="website" v="https://www.mobie.pt/"/>
  </node>
</old>
<new>
  <node id="11109235694" visible="true" version="3" timestamp="2023-09-22T19:38:38Z" changeset="141619370" uid="347293" user="Alexmol"/>
</new>
</action>
<action type="delete">
<old>
  <node id="11228733847" lat="41.1438590" lon="-8.5414680" version="2" timestamp="2023-10-09T18:46:27Z" changeset="142362411" uid="347293" user="Alexmol">
    <tag k="access" v="yes"/>
    <tag k="addr:country" v="PT"/>
    <tag k="amenity" v="charging_station"/>
    <tag k="authentication:membership_card" v="yes"/>
    <tag k="authentication:none" v="no"/>
    <tag k="capacity" v="2"/>
    <tag k="email" v="comercial@iberdrola.pt"/>
    <tag k="fee" v="yes"/>
    <tag k="maxstay" v="unlimited"/>
    <tag k="motorcar" v="yes"/>
    <tag k="name" v="GDM-00037 - Mercadona"/>
    <tag k="network" v="Mobi.E"/>
    <tag k="opening_hours" v="09:00-21:30"/>
    <tag k="operator" v="Iberdrola"/>
    <tag k="operator:wikidata" v="Q1437502"/>
    <tag k="parking:fee" v="no"/>
    <tag k="payment:app" v="yes"/>
    <tag k="payment:cards" v="no"/>
    <tag k="payment:cash" v="no"/>
    <tag k="payment:membership_card" v="yes"/>
    <tag k="phone" v="+351 800 607 717"/>
    <tag k="ref" v="GDM-00037"/>
    <tag k="socket:type2" v="2"/>
    <tag k="socket:type2:current" v="32"/>
    <tag k="socket:type2:output" v="22kW"/>
    <tag k="socket:type2:voltage" v="400"/>
    <tag k="website" v="https://www.mobie.pt"/>
  </node>
</old>
<new>
  <node id="11228733847" visible="true" version="1" timestamp="2023-09-30T10:41:34Z" changeset="141945584" uid="347293" user="Alexmol"/>
</new>
</action>
<action type="delete">
<old>
  <node id="11228733848" lat="38.7470279" lon="-9.1671225" version="2" timestamp="2023-10-09T18:46:27Z" changeset="142362411" uid="347293" user="Alexmol">
    <tag k="access" v="yes"/>
    <tag k="addr:country" v="PT"/>
    <tag k="amenity" v="charging_station"/>
    <tag k="authentication:membership_card" v="yes"/>
    <tag k="authentication:none" v="no"/>
    <tag k="capacity" v="2"/>
    <tag k="fee" v="yes"/>
    <tag k="maxstay" v="unlimited"/>
    <tag k="motorcar" v="yes"/>
    <tag k="name" v="LSB-00632/634 - AESE"/>
    <tag k="network" v="Mobi.E"/>
    <tag k="opening_hours" v="24/7"/>
    <tag k="operator" v="Mota Engil II"/>
    <tag k="parking:fee" v="yes"/>
    <tag k="payment:app" v="yes"/>
    <tag k="payment:cards" v="no"/>
    <tag k="payment:cash" v="no"/>
    <tag k="payment:membership_card" v="yes"/>
    <tag k="ref" v="LSB-00632;LSB-00634"/>
    <tag k="socket:type2" v="2"/>
    <tag k="socket:type2:current" v="16"/>
    <tag k="socket:type2:output" v="11kW"/>
    <tag k="socket:type2:voltage" v="400"/>
    <tag k="website" v="https://www.mobie.pt/"/>
  </node>
</old>
<new>
  <node id="11228733848" visible="true" version="1" timestamp="2023-09-30T10:41:34Z" changeset="141945584" uid="347293" user="Alexmol"/>
</new>
</action>
<action type="delete">
<old>
  <node id="11251745185" lat="40.1205680" lon="-8.8513520" version="1" timestamp="2023-10-09T19:40:35Z" changeset="142364273" uid="347293" user="Alexmol">
    <tag k="access" v="customers"/>
    <tag k="addr:country" v="PT"/>
    <tag k="amenity" v="charging_station"/>
    <tag k="authentication:membership_card" v="yes"/>
    <tag k="authentication:none" v="no"/>
    <tag k="capacity" v="2"/>
    <tag k="fee" v="yes"/>
    <tag k="maxstay" v="unlimited"/>
    <tag k="motorcar" v="yes"/>
    <tag k="name" v="FIG-00023"/>
    <tag k="network" v="Mobi.E"/>
    <tag k="opening_hours" v="24/7"/>
    <tag k="operator" v="EDP Comercial"/>
    <tag k="parking:fee" v="no"/>
    <tag k="payment:app" v="yes"/>
    <tag k="payment:cards" v="no"/>
    <tag k="payment:cash" v="no"/>
    <tag k="payment:membership_card" v="yes"/>
    <tag k="ref" v="FIG-00023"/>
    <tag k="socket:type2" v="2"/>
    <tag k="socket:type2:current" v="16"/>
    <tag k="socket:type2:output" v="11kW"/>
    <tag k="socket:type2:voltage" v="400"/>
    <tag k="website" v="https://www.mobie.pt/"/>
  </node>
</old>
<new>
  <node id="11251745185" visible="false" version="0" timestamp="0000-00-00T00:00:00Z" changeset="0" uid="0" user=""/>
</new>
</action>
<action type="delete">
<old>
  <node id="11251745186" lat="40.2694189" lon="-7.5055597" version="1" timestamp="2023-10-09T19:40:35Z" changeset="142364273" uid="347293" user="Alexmol">
    <tag k="access" v="customers"/>
    <tag k="addr:country" v="PT"/>
    <tag k="amenity" v="charging_station"/>
    <tag k="authentication:membership_card" v="yes"/>
    <tag k="authentication:none" v="no"/>
    <tag k="capacity" v="2"/>
    <tag k="fee" v="yes"/>
    <tag k="maxstay" v="unlimited"/>
    <tag k="motorcar" v="yes"/>
    <tag k="name" v="CVL-00014 - Hotel Dona Maria"/>
    <tag k="network" v="Mobi.E"/>
    <tag k="opening_hours" v="24/7"/>
    <tag k="operator" v="EDP Comercial"/>
    <tag k="parking:fee" v="yes"/>
    <tag k="payment:app" v="yes"/>
    <tag k="payment:cards" v="no"/>
    <tag k="payment:cash" v="no"/>
    <tag k="payment:membership_card" v="yes"/>
    <tag k="ref" v="CVL-00014"/>
    <tag k="socket:type2" v="2"/>
    <tag k="socket:type2:current" v="32"/>
    <tag k="socket:type2:output" v="22kW"/>
    <tag k="socket:type2:voltage" v="400"/>
    <tag k="website" v="https://www.mobie.pt/"/>
  </node>
</old>
<new>
  <node id="11251745186" visible="false" version="0" timestamp="0000-00-00T00:00:00Z" changeset="0" uid="0" user=""/>
</new>
</action>

</osm>
