<?xml version="1.0" encoding="UTF-8"?>
<osm version="0.6" generator="Overpass API 0.7.60.2 e4cf9f7a">
<note>The data included in this document is from www.openstreetmap.org. The data is made available under ODbL.</note>
<meta osm_base="2023-05-17T01:33:37Z" areas="2023-05-16T23:32:53Z"/>

<action type="modify">
<old>
  <node id="8085492053" version="11" timestamp="2023-05-16T09:44:47Z" changeset="136160042" uid="347293" user="Alexmol"/>
</old>
<new>
  <node id="8085492053" lat="37.0976520" lon="-7.9978886" version="9" timestamp="2023-01-28T17:00:01Z" changeset="131815341" uid="4591611" user="David_RF">
    <tag k="access" v="customers"/>
    <tag k="addr:country" v="PT"/>
    <tag k="amenity" v="charging_station"/>
    <tag k="amenity:wikipedia" v="en:Tesla Supercharger"/>
    <tag k="authentication:none" v="no"/>
    <tag k="brand" v="Tesla Supercharger"/>
    <tag k="brand:wikidata" v="Q17089620"/>
    <tag k="brand:wikipedia" v="en:Tesla Supercharger"/>
    <tag k="capacity" v="8"/>
    <tag k="fee" v="yes"/>
    <tag k="socket:tesla_supercharger_ccs:output" v="250 kW"/>
    <tag k="motorcar" v="yes"/>
    <tag k="name" v="Loulé Supercharger"/>
    <tag k="network" v="Tesla"/>
    <tag k="not:brand:wikidata" v="Q478214"/>
    <tag k="opening_hours" v="24/7"/>
    <tag k="operator" v="Tesla, Inc."/>
    <tag k="operator:wikidata" v="Q478214"/>
    <tag k="parking:fee" v="no"/>
    <tag k="short_name" v="Tesla"/>
    <tag k="socket:tesla_supercharger_ccs" v="8"/>
    <tag k="website" v="https://www.tesla.com/findus/location/supercharger/loulesupercharger"/>
    <tag k="description" v="V3"/>
  </node>
</new>
</action>
<action type="create">
  <node id="8225238548" lat="40.6566940" lon="-7.9090185" version="13" timestamp="2023-03-21T20:46:01Z" changeset="133956174" uid="347293" user="Alexmol">
    <tag k="addr:country" v="PT"/>
    <tag k="amenity" v="charging_station"/>
    <tag k="capacity" v="10"/>
    <tag k="construction:amenity" v="charging_station"/>
    <tag k="socket:type2:voltage" v="400"/>
    <tag k="maxstay" v="unlimited"/>
    <tag k="motorcar" v="yes"/>
    <tag k="name" v="VIS-00029/30/31/42/43"/>
    <tag k="ref" v="VIS-00029;VIS-00030;VIS-00031;VIS-00042;VIS-00043"/>
    <tag k="socket:type2" v="10"/>
    <tag k="website" v="https://www.mobie.pt"/>
    <tag k="access" v="yes"/>
    <tag k="authentication:membership_card" v="yes"/>
    <tag k="authentication:none" v="no"/>
    <tag k="fee" v="yes"/>
    <tag k="network" v="Mobi.E"/>
    <tag k="opening_hours" v="24/7"/>
    <tag k="operator" v="Atlante"/>
    <tag k="parking:fee" v="no"/>
    <tag k="payment:app" v="yes"/>
    <tag k="payment:cards" v="no"/>
    <tag k="payment:cash" v="no"/>
    <tag k="payment:membership_card" v="yes"/>
    <tag k="socket:type2:current" v="32"/>
    <tag k="socket:type2:output" v="22kW"/>
  </node>
</action>
<action type="modify">
<old>
  <node id="8225238550" version="14" timestamp="2023-05-16T11:44:58Z" changeset="136165085" uid="347293" user="Alexmol"/>
</old>
<new>
  <node id="8225238550" lat="40.6567062" lon="-7.9089794" version="12" timestamp="2023-03-21T20:46:01Z" changeset="133956174" uid="347293" user="Alexmol">
    <tag k="addr:city" v="Viseu"/>
    <tag k="addr:country" v="PT"/>
    <tag k="addr:street" v="Rua 5 de Outubro"/>
    <tag k="amenity" v="charging_station"/>
    <tag k="capacity" v="3"/>
    <tag k="construction:amenity" v="charging_station"/>
    <tag k="socket:type2_combo:voltage" v="500"/>
    <tag k="maxstay" v="unlimited"/>
    <tag k="motorcar" v="yes"/>
    <tag k="name" v="VIS-00026/27/28"/>
    <tag k="ref" v="VIS-00026;VIS-00027;VIS-00028"/>
    <tag k="socket:chademo" v="3"/>
    <tag k="socket:type2_combo" v="3"/>
    <tag k="website" v="https://www.mobie.pt"/>
    <tag k="access" v="yes"/>
    <tag k="authentication:membership_card" v="yes"/>
    <tag k="authentication:none" v="no"/>
    <tag k="fee" v="yes"/>
    <tag k="network" v="Mobi.E"/>
    <tag k="opening_hours" v="24/7"/>
    <tag k="operator" v="Atlante"/>
    <tag k="parking:fee" v="no"/>
    <tag k="payment:app" v="yes"/>
    <tag k="payment:cards" v="no"/>
    <tag k="payment:cash" v="no"/>
    <tag k="payment:membership_card" v="yes"/>
    <tag k="socket:chademo:current" v="120"/>
    <tag k="socket:chademo:output" v="50kW"/>
    <tag k="socket:chademo:voltage" v="500"/>
    <tag k="socket:type2_combo:current" v="125"/>
    <tag k="socket:type2_combo:output" v="50kW"/>
  </node>
</new>
</action>
<action type="delete">
<old>
  <node id="8440774859" lat="40.6851500" lon="-8.5211800" version="10" timestamp="2023-05-16T21:00:16Z" changeset="136186239" uid="347293" user="Alexmol">
    <tag k="access" v="yes"/>
    <tag k="addr:city" v="Albergaria-a-Velha"/>
    <tag k="addr:country" v="PT"/>
    <tag k="addr:street" v="EN 16"/>
    <tag k="amenity" v="charging_station"/>
    <tag k="authentication:membership_card" v="yes"/>
    <tag k="authentication:none" v="no"/>
    <tag k="capacity" v="2"/>
    <tag k="email" v="ajuda@powerdot.pt"/>
    <tag k="fee" v="yes"/>
    <tag k="maxstay" v="unlimited"/>
    <tag k="motorcar" v="yes"/>
    <tag k="name" v="ALB-00004 - Q8"/>
    <tag k="network" v="Mobi.E"/>
    <tag k="opening_hours" v="24/7"/>
    <tag k="operator" v="Powerdot"/>
    <tag k="parking:fee" v="no"/>
    <tag k="payment:app" v="yes"/>
    <tag k="payment:cards" v="no"/>
    <tag k="payment:cash" v="no"/>
    <tag k="payment:membership_card" v="yes"/>
    <tag k="phone" v="+351 800 180 292"/>
    <tag k="ref" v="ALB-00004"/>
    <tag k="socket:chademo" v="1"/>
    <tag k="socket:chademo:current" v="120"/>
    <tag k="socket:chademo:output" v="50kW"/>
    <tag k="socket:chademo:voltage" v="500"/>
    <tag k="socket:type2_cable" v="1"/>
    <tag k="socket:type2_cable:current" v="63"/>
    <tag k="socket:type2_cable:output" v="43kW"/>
    <tag k="socket:type2_cable:voltage" v="400"/>
    <tag k="socket:type2_combo" v="1"/>
    <tag k="socket:type2_combo:current" v="125"/>
    <tag k="socket:type2_combo:output" v="50kW"/>
    <tag k="socket:type2_combo:voltage" v="500"/>
    <tag k="website" v="https://www.mobie.pt"/>
  </node>
</old>
<new>
  <node id="8440774859" visible="true" version="9" timestamp="2023-04-29T11:40:48Z" changeset="135500707" uid="347293" user="Alexmol"/>
</new>
</action>
<action type="create">
  <node id="8513200747" lat="39.8064962" lon="-7.5155403" version="4" timestamp="2022-07-29T12:56:04Z" changeset="124230518" uid="16484819" user="jgomes1997">
    <tag k="amenity" v="charging_station"/>
    <tag k="access" v="customers"/>
    <tag k="addr:country" v="PT"/>
    <tag k="amenity:wikipedia" v="en:Tesla Supercharger"/>
    <tag k="authentication:none" v="no"/>
    <tag k="brand" v="Tesla Supercharger"/>
    <tag k="brand:wikidata" v="Q17089620"/>
    <tag k="brand:wikipedia" v="en:Tesla Supercharger"/>
    <tag k="capacity" v="8"/>
    <tag k="construction:amenity" v="charging_station"/>
    <tag k="fee" v="yes"/>
    <tag k="motorcar" v="yes"/>
    <tag k="name" v="Castelo Branco Supercharger"/>
    <tag k="network" v="Tesla"/>
    <tag k="note" v="V3"/>
    <tag k="opening_hours" v="24/7"/>
    <tag k="operator" v="Tesla, Inc."/>
    <tag k="operator:wikidata" v="Q478214"/>
    <tag k="parking:fee" v="no"/>
    <tag k="short_name" v="Tesla"/>
    <tag k="socket:tesla_supercharger_ccs" v="8"/>
    <tag k="socket:tesla_supercharger_ccs:output" v="250 kW"/>
  </node>
</action>
<action type="delete">
<old>
  <node id="8833382348" lat="41.9235980" lon="-8.7541990" version="11" timestamp="2023-05-16T21:00:16Z" changeset="136186239" uid="347293" user="Alexmol">
    <tag k="access" v="yes"/>
    <tag k="addr:city" v="Vila Nova de Cerveira"/>
    <tag k="addr:country" v="PT"/>
    <tag k="amenity" v="charging_station"/>
    <tag k="authentication:membership_card" v="yes"/>
    <tag k="authentication:none" v="no"/>
    <tag k="capacity" v="2"/>
    <tag k="email" v="apoio.cliente@kmlowcost.com"/>
    <tag k="fee" v="yes"/>
    <tag k="maxstay" v="unlimited"/>
    <tag k="motorcar" v="yes"/>
    <tag k="name" v="VNC-00003 - Pingo Doce"/>
    <tag k="network" v="Mobi.E"/>
    <tag k="opening_hours" v="24/7"/>
    <tag k="operator" v="Atlante"/>
    <tag k="parking:fee" v="no"/>
    <tag k="payment:app" v="yes"/>
    <tag k="payment:cards" v="no"/>
    <tag k="payment:cash" v="no"/>
    <tag k="payment:membership_card" v="yes"/>
    <tag k="phone" v="+351 800 296 929"/>
    <tag k="ref" v="VNC-00003"/>
    <tag k="socket:chademo" v="1"/>
    <tag k="socket:chademo:current" v="120"/>
    <tag k="socket:chademo:output" v="50kW"/>
    <tag k="socket:chademo:voltage" v="500"/>
    <tag k="socket:type2_cable" v="1"/>
    <tag k="socket:type2_cable:current" v="63"/>
    <tag k="socket:type2_cable:output" v="43kW"/>
    <tag k="socket:type2_cable:voltage" v="400"/>
    <tag k="socket:type2_combo" v="1"/>
    <tag k="socket:type2_combo:current" v="125"/>
    <tag k="socket:type2_combo:output" v="50kW"/>
    <tag k="socket:type2_combo:voltage" v="500"/>
    <tag k="website" v="https://www.mobie.pt"/>
  </node>
</old>
<new>
  <node id="8833382348" visible="true" version="10" timestamp="2023-03-21T20:46:01Z" changeset="133956174" uid="347293" user="Alexmol"/>
</new>
</action>
<action type="delete">
<old>
  <node id="10681530969" lat="41.0570710" lon="-8.5679000" version="6" timestamp="2023-05-16T21:00:16Z" changeset="136186239" uid="347293" user="Alexmol">
    <tag k="access" v="yes"/>
    <tag k="addr:country" v="PT"/>
    <tag k="amenity" v="charging_station"/>
    <tag k="authentication:membership_card" v="yes"/>
    <tag k="authentication:none" v="no"/>
    <tag k="capacity" v="2"/>
    <tag k="fee" v="yes"/>
    <tag k="maxstay" v="unlimited"/>
    <tag k="motorcar" v="yes"/>
    <tag k="name" v="VNG-00108/111/113 - Pingo Doce"/>
    <tag k="network" v="Mobi.E"/>
    <tag k="opening_hours" v="24/7"/>
    <tag k="operator" v="Atlante"/>
    <tag k="parking:fee" v="no"/>
    <tag k="payment:app" v="yes"/>
    <tag k="payment:cards" v="no"/>
    <tag k="payment:cash" v="no"/>
    <tag k="payment:membership_card" v="yes"/>
    <tag k="ref" v="VNG-00108;VNG-00111;VNG-00113"/>
    <tag k="socket:chademo" v="1"/>
    <tag k="socket:chademo:current" v="120"/>
    <tag k="socket:chademo:output" v="50kW"/>
    <tag k="socket:chademo:voltage" v="500"/>
    <tag k="socket:type2_cable" v="1"/>
    <tag k="socket:type2_cable:current" v="16"/>
    <tag k="socket:type2_cable:output" v="11kW"/>
    <tag k="socket:type2_cable:voltage" v="400"/>
    <tag k="socket:type2_combo" v="1"/>
    <tag k="socket:type2_combo:current" v="125"/>
    <tag k="socket:type2_combo:output" v="50kW"/>
    <tag k="socket:type2_combo:voltage" v="500"/>
    <tag k="website" v="https://www.mobie.pt/"/>
  </node>
</old>
<new>
  <node id="10681530969" visible="true" version="5" timestamp="2023-04-13T19:58:10Z" changeset="134877279" uid="347293" user="Alexmol"/>
</new>
</action>
<action type="delete">
<old>
  <node id="10792390026" lat="39.2372527" lon="-9.3079886" version="3" timestamp="2023-05-16T21:00:16Z" changeset="136186239" uid="347293" user="Alexmol">
    <tag k="access" v="yes"/>
    <tag k="addr:country" v="PT"/>
    <tag k="amenity" v="charging_station"/>
    <tag k="authentication:membership_card" v="yes"/>
    <tag k="authentication:none" v="no"/>
    <tag k="capacity" v="2"/>
    <tag k="fee" v="yes"/>
    <tag k="maxstay" v="unlimited"/>
    <tag k="motorcar" v="yes"/>
    <tag k="name" v="LNH-00006 - Aldi"/>
    <tag k="network" v="Mobi.E"/>
    <tag k="opening_hours" v="24/7"/>
    <tag k="operator" v="Atlante"/>
    <tag k="parking:fee" v="no"/>
    <tag k="payment:app" v="yes"/>
    <tag k="payment:cards" v="no"/>
    <tag k="payment:cash" v="no"/>
    <tag k="payment:membership_card" v="yes"/>
    <tag k="ref" v="LNH-00006"/>
    <tag k="socket:type2" v="2"/>
    <tag k="socket:type2:current" v="32"/>
    <tag k="socket:type2:output" v="22kW"/>
    <tag k="socket:type2:voltage" v="400"/>
    <tag k="website" v="https://www.mobie.pt/"/>
  </node>
</old>
<new>
  <node id="10792390026" visible="true" version="2" timestamp="2023-04-20T20:12:17Z" changeset="135167172" uid="347293" user="Alexmol"/>
</new>
</action>
<action type="delete">
<old>
  <node id="10830023114" lat="41.4342525" lon="-8.3043601" version="3" timestamp="2023-05-16T21:00:16Z" changeset="136186239" uid="347293" user="Alexmol">
    <tag k="access" v="yes"/>
    <tag k="addr:country" v="PT"/>
    <tag k="amenity" v="charging_station"/>
    <tag k="authentication:membership_card" v="yes"/>
    <tag k="authentication:none" v="no"/>
    <tag k="capacity" v="2"/>
    <tag k="fee" v="yes"/>
    <tag k="maxstay" v="unlimited"/>
    <tag k="motorcar" v="yes"/>
    <tag k="name" v="GMR-00076"/>
    <tag k="network" v="Mobi.E"/>
    <tag k="opening_hours" v="24/7"/>
    <tag k="operator" v="Generation Journey"/>
    <tag k="parking:fee" v="no"/>
    <tag k="payment:app" v="yes"/>
    <tag k="payment:cards" v="no"/>
    <tag k="payment:cash" v="no"/>
    <tag k="payment:membership_card" v="yes"/>
    <tag k="ref" v="GMR-00076"/>
    <tag k="socket:type2" v="2"/>
    <tag k="socket:type2:current" v="32"/>
    <tag k="socket:type2:output" v="7.4kW"/>
    <tag k="socket:type2:voltage" v="230"/>
    <tag k="website" v="https://www.mobie.pt/"/>
  </node>
</old>
<new>
  <node id="10830023114" visible="true" version="2" timestamp="2023-04-28T20:04:14Z" changeset="135483065" uid="347293" user="Alexmol"/>
</new>
</action>
<action type="delete">
<old>
  <node id="10874108523" lat="38.0526240" lon="-8.7868590" version="3" timestamp="2023-05-16T21:00:16Z" changeset="136186239" uid="347293" user="Alexmol">
    <tag k="access" v="yes"/>
    <tag k="addr:country" v="PT"/>
    <tag k="amenity" v="charging_station"/>
    <tag k="authentication:membership_card" v="yes"/>
    <tag k="authentication:none" v="no"/>
    <tag k="capacity" v="6"/>
    <tag k="fee" v="yes"/>
    <tag k="maxstay" v="unlimited"/>
    <tag k="motorcar" v="yes"/>
    <tag k="name" v="Hotel Vila Park"/>
    <tag k="network" v="Mobi.E"/>
    <tag k="opening_hours" v="24/7"/>
    <tag k="operator" v="Powerdot"/>
    <tag k="parking:fee" v="no"/>
    <tag k="payment:app" v="yes"/>
    <tag k="payment:cards" v="no"/>
    <tag k="payment:cash" v="no"/>
    <tag k="payment:membership_card" v="yes"/>
    <tag k="ref" v="SNS-00012;STC-XXXXX"/>
    <tag k="socket:chademo" v="1"/>
    <tag k="socket:chademo:current" v="125"/>
    <tag k="socket:chademo:output" v="60kW"/>
    <tag k="socket:chademo:voltage" v="500"/>
    <tag k="socket:type2_combo" v="5"/>
    <tag k="socket:type2_combo:current" v="300"/>
    <tag k="socket:type2_combo:output" v="120kW"/>
    <tag k="socket:type2_combo:voltage" v="500"/>
    <tag k="website" v="https://www.mobie.pt"/>
  </node>
</old>
<new>
  <node id="10874108523" visible="true" version="2" timestamp="2023-05-10T20:43:54Z" changeset="135951903" uid="347293" user="Alexmol"/>
</new>
</action>
<action type="delete">
<old>
  <node id="10901519591" lat="37.0233083" lon="-8.9260791" version="1" timestamp="2023-05-16T10:24:33Z" changeset="136161627" uid="347293" user="Alexmol">
    <tag k="access" v="customers"/>
    <tag k="addr:country" v="PT"/>
    <tag k="addr:postcode" v="8650-908"/>
    <tag k="amenity" v="charging_station"/>
    <tag k="capacity" v="4"/>
    <tag k="fee" v="no"/>
    <tag k="motorcar" v="yes"/>
    <tag k="name" v="Martinhal Sagres Beach Familty Resort Tesla Destination Charger"/>
    <tag k="network" v="Tesla"/>
    <tag k="operator" v="Tesla"/>
    <tag k="phone" v="+351 282 240 200"/>
    <tag k="ref" v="dc71608"/>
    <tag k="socket:tesla_destination" v="2"/>
    <tag k="socket:tesla_destination:output" v="22kW"/>
    <tag k="socket:type2_cable" v="2"/>
    <tag k="socket:type2_cable:output" v="22kW"/>
    <tag k="source" v="microsoft/BuildingFootprints"/>
    <tag k="website" v="https://www.tesla.com/pt_PT/findus/list/chargers/Portugal"/>
  </node>
</old>
<new>
  <node id="10901519591" visible="false" version="0" timestamp="0000-00-00T00:00:00Z" changeset="0" uid="0" user=""/>
</new>
</action>
<action type="delete">
<old>
  <node id="10901672874" lat="37.0976259" lon="-7.9979868" version="1" timestamp="2023-05-16T11:23:03Z" changeset="136164143" uid="347293" user="Alexmol">
    <tag k="access" v="customers"/>
    <tag k="addr:country" v="PT"/>
    <tag k="amenity" v="charging_station"/>
    <tag k="amenity:wikipedia" v="en:Tesla Supercharger"/>
    <tag k="authentication:none" v="no"/>
    <tag k="brand" v="Tesla Supercharger"/>
    <tag k="brand:wikidata" v="Q17089620"/>
    <tag k="brand:wikipedia" v="en:Tesla Supercharger"/>
    <tag k="capacity" v="8"/>
    <tag k="description" v="V3"/>
    <tag k="fee" v="yes"/>
    <tag k="motorcar" v="yes"/>
    <tag k="name" v="Loulé Supercharger"/>
    <tag k="network" v="Tesla"/>
    <tag k="not:brand:wikidata" v="Q478214"/>
    <tag k="opening_hours" v="24/7"/>
    <tag k="operator" v="Tesla, Inc."/>
    <tag k="operator:wikidata" v="Q478214"/>
    <tag k="parking:fee" v="no"/>
    <tag k="short_name" v="Tesla"/>
    <tag k="socket:tesla_supercharger_ccs" v="8"/>
    <tag k="socket:tesla_supercharger_ccs:output" v="250 kW"/>
    <tag k="website" v="https://www.tesla.com/findus/location/supercharger/loulesupercharger"/>
  </node>
</old>
<new>
  <node id="10901672874" visible="false" version="0" timestamp="0000-00-00T00:00:00Z" changeset="0" uid="0" user=""/>
</new>
</action>
<action type="delete">
<old>
  <node id="10901688677" lat="40.6565213" lon="-7.9091430" version="1" timestamp="2023-05-16T11:44:58Z" changeset="136165085" uid="347293" user="Alexmol">
    <tag k="access" v="yes"/>
    <tag k="addr:city" v="Viseu"/>
    <tag k="addr:country" v="PT"/>
    <tag k="addr:street" v="Rua 5 de Outubro"/>
    <tag k="amenity" v="charging_station"/>
    <tag k="authentication:membership_card" v="yes"/>
    <tag k="authentication:none" v="no"/>
    <tag k="capacity" v="10"/>
    <tag k="fee" v="yes"/>
    <tag k="man_made" v="charge_point"/>
    <tag k="maxstay" v="unlimited"/>
    <tag k="motorcar" v="yes"/>
    <tag k="name" v="VIS-00029/30/31/42/43"/>
    <tag k="network" v="Mobi.E"/>
    <tag k="opening_hours" v="24/7"/>
    <tag k="operator" v="Atlante"/>
    <tag k="parking:fee" v="no"/>
    <tag k="payment:app" v="yes"/>
    <tag k="payment:cards" v="no"/>
    <tag k="payment:cash" v="no"/>
    <tag k="payment:membership_card" v="yes"/>
    <tag k="ref" v="VIS-00029;VIS-00030;VIS-00031;VIS-00042;VIS-00043"/>
    <tag k="socket:type2" v="10"/>
    <tag k="socket:type2:current" v="32"/>
    <tag k="socket:type2:output" v="22kW"/>
    <tag k="socket:type2:voltage" v="400"/>
    <tag k="website" v="https://www.mobie.pt"/>
  </node>
</old>
<new>
  <node id="10901688677" visible="false" version="0" timestamp="0000-00-00T00:00:00Z" changeset="0" uid="0" user=""/>
</new>
</action>
<action type="delete">
<old>
  <node id="10901688678" lat="40.6565997" lon="-7.9089130" version="1" timestamp="2023-05-16T11:44:58Z" changeset="136165085" uid="347293" user="Alexmol">
    <tag k="access" v="yes"/>
    <tag k="addr:city" v="Viseu"/>
    <tag k="addr:country" v="PT"/>
    <tag k="addr:street" v="Rua 5 de Outubro"/>
    <tag k="amenity" v="charging_station"/>
    <tag k="authentication:membership_card" v="yes"/>
    <tag k="authentication:none" v="no"/>
    <tag k="capacity" v="3"/>
    <tag k="fee" v="yes"/>
    <tag k="man_made" v="charge_point"/>
    <tag k="maxstay" v="unlimited"/>
    <tag k="motorcar" v="yes"/>
    <tag k="name" v="VIS-00026/27/28"/>
    <tag k="network" v="Mobi.E"/>
    <tag k="opening_hours" v="24/7"/>
    <tag k="operator" v="Atlante"/>
    <tag k="parking:fee" v="no"/>
    <tag k="payment:app" v="yes"/>
    <tag k="payment:cards" v="no"/>
    <tag k="payment:cash" v="no"/>
    <tag k="payment:membership_card" v="yes"/>
    <tag k="ref" v="VIS-00026;VIS-00027;VIS-00028"/>
    <tag k="socket:chademo" v="3"/>
    <tag k="socket:chademo:current" v="120"/>
    <tag k="socket:chademo:output" v="50kW"/>
    <tag k="socket:chademo:voltage" v="500"/>
    <tag k="socket:type2_combo" v="3"/>
    <tag k="socket:type2_combo:current" v="125"/>
    <tag k="socket:type2_combo:output" v="50kW"/>
    <tag k="socket:type2_combo:voltage" v="500"/>
    <tag k="website" v="https://www.mobie.pt"/>
  </node>
</old>
<new>
  <node id="10901688678" visible="false" version="0" timestamp="0000-00-00T00:00:00Z" changeset="0" uid="0" user=""/>
</new>
</action>

</osm>
