<?xml version="1.0" encoding="UTF-8"?>
<osm version="0.6" generator="Overpass API 0.7.59.2 0994154d">
<note>The data included in this document is from www.openstreetmap.org. The data is made available under ODbL.</note>
<meta osm_base="2023-03-06T01:44:54Z" areas="2023-03-06T00:54:12Z"/>

<action type="create">
  <node id="3341738003" lat="41.1289487" lon="-8.6676454" version="10" timestamp="2022-05-14T12:09:25Z" changeset="120976521" uid="347293" user="Alexmol">
    <tag k="amenity" v="charging_station"/>
    <tag k="website" v="https://www.mobie.pt"/>
    <tag k="access" v="yes"/>
    <tag k="addr:country" v="PT"/>
    <tag k="authentication:membership_card" v="yes"/>
    <tag k="authentication:none" v="no"/>
    <tag k="capacity" v="2"/>
    <tag k="email" v="mobilidade-eletrica@edp.pt"/>
    <tag k="fee" v="yes"/>
    <tag k="maxstay" v="unlimited"/>
    <tag k="motorcar" v="yes"/>
    <tag k="name" v="VNG-00013"/>
    <tag k="network" v="Mobi.E"/>
    <tag k="opening_hours" v="24/7"/>
    <tag k="operator" v="EDP Comercial"/>
    <tag k="parking:fee" v="no"/>
    <tag k="payment:app" v="yes"/>
    <tag k="payment:cards" v="no"/>
    <tag k="payment:cash" v="no"/>
    <tag k="payment:membership_card" v="yes"/>
    <tag k="phone" v="+351 800 222 222"/>
    <tag k="ref" v="VNG-90013"/>
    <tag k="socket:type2" v="2"/>
    <tag k="socket:type2:current" v="16"/>
    <tag k="socket:type2:output" v="3.7kW"/>
    <tag k="socket:type2:voltage" v="230"/>
  </node>
</action>
<action type="create">
  <node id="5378144367" lat="39.7130210" lon="-8.7116999" version="13" timestamp="2022-08-01T19:38:38Z" changeset="124362079" uid="347293" user="Alexmol">
    <tag k="amenity" v="charging_station"/>
    <tag k="website" v="https://www.mobie.pt"/>
    <tag k="access" v="yes"/>
    <tag k="addr:country" v="PT"/>
    <tag k="authentication:membership_card" v="yes"/>
    <tag k="authentication:none" v="no"/>
    <tag k="capacity" v="2"/>
    <tag k="email" v="propel@cepsa.com"/>
    <tag k="fee" v="yes"/>
    <tag k="maxstay" v="unlimited"/>
    <tag k="motorcar" v="yes"/>
    <tag k="name" v="LRA-00072 - Cepsa"/>
    <tag k="network" v="Mobi.E"/>
    <tag k="old_operator" v="Propel-Cepsa"/>
    <tag k="old_ref" v="LRA-00012"/>
    <tag k="opening_hours" v="24/7"/>
    <tag k="operator" v="Cepsa"/>
    <tag k="parking:fee" v="no"/>
    <tag k="payment:app" v="yes"/>
    <tag k="payment:cards" v="no"/>
    <tag k="payment:cash" v="no"/>
    <tag k="payment:membership_card" v="yes"/>
    <tag k="phone" v="+351 800 500 504"/>
    <tag k="ref" v="LRA-00072"/>
    <tag k="socket:chademo" v="1"/>
    <tag k="socket:chademo:current" v="120"/>
    <tag k="socket:chademo:output" v="50kW"/>
    <tag k="socket:chademo:voltage" v="500"/>
    <tag k="socket:type2_cable" v="1"/>
    <tag k="socket:type2_cable:current" v="63"/>
    <tag k="socket:type2_cable:output" v="43kW"/>
    <tag k="socket:type2_cable:voltage" v="400"/>
    <tag k="socket:type2_combo" v="1"/>
    <tag k="socket:type2_combo:current" v="125"/>
    <tag k="socket:type2_combo:output" v="50kW"/>
    <tag k="socket:type2_combo:voltage" v="500"/>
  </node>
</action>
<action type="create">
  <node id="5378147752" lat="39.7126083" lon="-8.7094361" version="13" timestamp="2022-08-01T19:38:38Z" changeset="124362079" uid="347293" user="Alexmol">
    <tag k="amenity" v="charging_station"/>
    <tag k="website" v="https://www.mobie.pt"/>
    <tag k="access" v="yes"/>
    <tag k="addr:country" v="PT"/>
    <tag k="authentication:membership_card" v="yes"/>
    <tag k="authentication:none" v="no"/>
    <tag k="capacity" v="2"/>
    <tag k="email" v="propel@cepsa.com"/>
    <tag k="fee" v="yes"/>
    <tag k="maxstay" v="unlimited"/>
    <tag k="motorcar" v="yes"/>
    <tag k="name" v="LRA-00073 - Cepsa"/>
    <tag k="network" v="Mobi.E"/>
    <tag k="old_operator" v="Propel-Cepsa"/>
    <tag k="old_ref" v="LRA-00013"/>
    <tag k="opening_hours" v="24/7"/>
    <tag k="operator" v="Cepsa"/>
    <tag k="parking:fee" v="no"/>
    <tag k="payment:app" v="yes"/>
    <tag k="payment:cards" v="no"/>
    <tag k="payment:cash" v="no"/>
    <tag k="payment:membership_card" v="yes"/>
    <tag k="phone" v="+351 800 500 504"/>
    <tag k="ref" v="LRA-00073"/>
    <tag k="socket:chademo" v="1"/>
    <tag k="socket:chademo:current" v="120"/>
    <tag k="socket:chademo:output" v="50kW"/>
    <tag k="socket:chademo:voltage" v="500"/>
    <tag k="socket:type2_cable" v="1"/>
    <tag k="socket:type2_cable:current" v="63"/>
    <tag k="socket:type2_cable:output" v="43kW"/>
    <tag k="socket:type2_cable:voltage" v="400"/>
    <tag k="socket:type2_combo" v="1"/>
    <tag k="socket:type2_combo:current" v="125"/>
    <tag k="socket:type2_combo:output" v="50kW"/>
    <tag k="socket:type2_combo:voltage" v="500"/>
  </node>
</action>
<action type="delete">
<old>
  <node id="5398312786" lat="37.1488153" lon="-8.7039529" version="15" timestamp="2023-03-05T11:19:50Z" changeset="133320861" uid="347293" user="Alexmol">
    <tag k="access" v="yes"/>
    <tag k="amenity" v="charging_station"/>
    <tag k="authentication:membership_card" v="yes"/>
    <tag k="authentication:none" v="no"/>
    <tag k="bicycle" v="no"/>
    <tag k="capacity" v="2"/>
    <tag k="email" v="mobilidade.electricacrc@galp.com"/>
    <tag k="fee" v="yes"/>
    <tag k="maxstay" v="unlimited"/>
    <tag k="motorcar" v="yes"/>
    <tag k="name" v="LGS-00003 - Galp E&gt;O"/>
    <tag k="network" v="Mobi.E"/>
    <tag k="opening_hours" v="24/7"/>
    <tag k="operator" v="Galp Power"/>
    <tag k="parking:fee" v="no"/>
    <tag k="payment:app" v="yes"/>
    <tag k="payment:cards" v="no"/>
    <tag k="payment:cash" v="no"/>
    <tag k="payment:membership_card" v="yes"/>
    <tag k="phone" v="+351 800 249 249"/>
    <tag k="ref" v="LGS-00003"/>
    <tag k="socket:chademo" v="1"/>
    <tag k="socket:chademo:current" v="120"/>
    <tag k="socket:chademo:output" v="50kW"/>
    <tag k="socket:chademo:voltage" v="500"/>
    <tag k="socket:type2_cable" v="1"/>
    <tag k="socket:type2_cable:current" v="63"/>
    <tag k="socket:type2_cable:output" v="43kW"/>
    <tag k="socket:type2_cable:voltage" v="400"/>
    <tag k="socket:type2_combo" v="1"/>
    <tag k="socket:type2_combo:current" v="125"/>
    <tag k="socket:type2_combo:output" v="50kW"/>
    <tag k="socket:type2_combo:voltage" v="500"/>
    <tag k="website" v="https://www.mobie.pt"/>
  </node>
</old>
<new>
  <node id="5398312786" visible="true" version="14" timestamp="2022-05-14T12:09:25Z" changeset="120976521" uid="347293" user="Alexmol"/>
</new>
</action>
<action type="create">
  <node id="8082100533" lat="37.7497292" lon="-25.6494324" version="16" timestamp="2022-10-22T10:16:13Z" changeset="127915997" uid="347293" user="Alexmol">
    <tag k="amenity" v="charging_station"/>
    <tag k="website" v="https://www.mobie.pt"/>
    <tag k="access" v="yes"/>
    <tag k="addr:city" v="Ponta Delgada"/>
    <tag k="addr:country" v="PT"/>
    <tag k="addr:street" v="Circular de Ponta Delgada"/>
    <tag k="authentication:membership_card" v="yes"/>
    <tag k="authentication:none" v="no"/>
    <tag k="capacity" v="1"/>
    <tag k="email" v="mobilidade.electricacrc@galp.com"/>
    <tag k="fee" v="yes"/>
    <tag k="maxstay" v="unlimited"/>
    <tag k="motorcar" v="yes"/>
    <tag k="name" v="PDL-00002 - Galp Laranjeiras"/>
    <tag k="network" v="Mobi.E"/>
    <tag k="opening_hours" v="24/7"/>
    <tag k="operator" v="Galp Geste"/>
    <tag k="parking:fee" v="no"/>
    <tag k="payment:app" v="yes"/>
    <tag k="payment:cards" v="no"/>
    <tag k="payment:cash" v="no"/>
    <tag k="payment:membership_card" v="yes"/>
    <tag k="phone" v="+351 800 249 249"/>
    <tag k="ref" v="PDL-00002"/>
    <tag k="socket:chademo" v="1"/>
    <tag k="socket:chademo:current" v="120"/>
    <tag k="socket:chademo:output" v="50kW"/>
    <tag k="socket:chademo:voltage" v="500"/>
    <tag k="socket:type2_combo" v="1"/>
    <tag k="socket:type2_combo:current" v="125"/>
    <tag k="socket:type2_combo:output" v="50kW"/>
    <tag k="socket:type2_combo:voltage" v="500"/>
  </node>
</action>
<action type="create">
  <node id="9440272697" lat="38.7582254" lon="-9.2342198" version="7" timestamp="2022-05-14T12:31:46Z" changeset="120977349" uid="347293" user="Alexmol">
    <tag k="amenity" v="charging_station"/>
    <tag k="website" v="https://www.mobie.pt/"/>
    <tag k="access" v="yes"/>
    <tag k="addr:country" v="PT"/>
    <tag k="authentication:membership_card" v="yes"/>
    <tag k="authentication:none" v="no"/>
    <tag k="capacity" v="3"/>
    <tag k="email" v="ev_portugal@maksu.com"/>
    <tag k="fee" v="yes"/>
    <tag k="level" v="-1"/>
    <tag k="location" v="underground"/>
    <tag k="maxstay" v="unlimited"/>
    <tag k="motorcar" v="yes"/>
    <tag k="name" v="AMD-00042/43/44 - Empark"/>
    <tag k="network" v="Mobi.E"/>
    <tag k="opening_hours" v="24/7"/>
    <tag k="operator" v="Maksu Services"/>
    <tag k="parking:fee" v="yes"/>
    <tag k="payment:app" v="yes"/>
    <tag k="payment:cards" v="no"/>
    <tag k="payment:cash" v="no"/>
    <tag k="payment:membership_card" v="yes"/>
    <tag k="phone" v="+351 800 910 124"/>
    <tag k="ref" v="AMD-00042;AMD-00043;AMD-00044"/>
    <tag k="socket:type2" v="3"/>
    <tag k="socket:type2:current" v="32"/>
    <tag k="socket:type2:output" v="22kW"/>
    <tag k="socket:type2:voltage" v="400"/>
  </node>
</action>
<action type="delete">
<old>
  <node id="10056853552" lat="41.1778145" lon="-8.6542624" version="4" timestamp="2023-03-05T11:19:50Z" changeset="133320861" uid="347293" user="Alexmol">
    <tag k="access" v="yes"/>
    <tag k="addr:country" v="PT"/>
    <tag k="amenity" v="charging_station"/>
    <tag k="authentication:membership_card" v="yes"/>
    <tag k="authentication:none" v="no"/>
    <tag k="capacity" v="1"/>
    <tag k="fee" v="yes"/>
    <tag k="maxstay" v="unlimited"/>
    <tag k="motorcar" v="yes"/>
    <tag k="name" v="PRT-00172 - Kinda"/>
    <tag k="network" v="Mobi.E"/>
    <tag k="opening_hours" v="09:00-21:30"/>
    <tag k="operator" v="KLC"/>
    <tag k="parking:fee" v="yes"/>
    <tag k="payment:app" v="yes"/>
    <tag k="payment:cards" v="no"/>
    <tag k="payment:cash" v="no"/>
    <tag k="payment:membership_card" v="yes"/>
    <tag k="ref" v="PRT-00172"/>
    <tag k="socket:chademo" v="1"/>
    <tag k="socket:chademo:current" v="80"/>
    <tag k="socket:chademo:output" v="30kW"/>
    <tag k="socket:chademo:voltage" v="500"/>
    <tag k="socket:type2_cable" v="1"/>
    <tag k="socket:type2_cable:current" v="32"/>
    <tag k="socket:type2_cable:output" v="22kW"/>
    <tag k="socket:type2_cable:voltage" v="400"/>
    <tag k="socket:type2_combo" v="1"/>
    <tag k="socket:type2_combo:current" v="80"/>
    <tag k="socket:type2_combo:output" v="30kW"/>
    <tag k="socket:type2_combo:voltage" v="500"/>
    <tag k="website" v="https://www.mobie.pt"/>
  </node>
</old>
<new>
  <node id="10056853552" visible="true" version="3" timestamp="2023-02-03T21:10:55Z" changeset="132057823" uid="347293" user="Alexmol"/>
</new>
</action>
<action type="delete">
<old>
  <node id="10571447304" lat="39.7123926" lon="-8.7112838" version="2" timestamp="2023-03-05T11:19:50Z" changeset="133320861" uid="347293" user="Alexmol">
    <tag k="access" v="yes"/>
    <tag k="addr:country" v="PT"/>
    <tag k="amenity" v="charging_station"/>
    <tag k="authentication:membership_card" v="yes"/>
    <tag k="authentication:none" v="no"/>
    <tag k="capacity" v="2"/>
    <tag k="fee" v="yes"/>
    <tag k="maxstay" v="unlimited"/>
    <tag k="motorcar" v="yes"/>
    <tag k="name" v="LRA-00088"/>
    <tag k="network" v="Mobi.E"/>
    <tag k="opening_hours" v="24/7"/>
    <tag k="operator" v="Cepsa"/>
    <tag k="parking:fee" v="no"/>
    <tag k="payment:app" v="yes"/>
    <tag k="payment:cards" v="no"/>
    <tag k="payment:cash" v="no"/>
    <tag k="payment:membership_card" v="yes"/>
    <tag k="ref" v="LRA-00088"/>
    <tag k="socket:chademo" v="1"/>
    <tag k="socket:chademo:current" v="120"/>
    <tag k="socket:chademo:output" v="50kW"/>
    <tag k="socket:chademo:voltage" v="500"/>
    <tag k="socket:type2_cable" v="1"/>
    <tag k="socket:type2_cable:current" v="63"/>
    <tag k="socket:type2_cable:output" v="43kW"/>
    <tag k="socket:type2_cable:voltage" v="400"/>
    <tag k="socket:type2_combo" v="1"/>
    <tag k="socket:type2_combo:current" v="125"/>
    <tag k="socket:type2_combo:output" v="50kW"/>
    <tag k="socket:type2_combo:voltage" v="500"/>
    <tag k="website" v="https://www.mobie.pt/"/>
  </node>
</old>
<new>
  <node id="10571447304" visible="true" version="1" timestamp="2023-01-20T22:12:11Z" changeset="131524851" uid="347293" user="Alexmol"/>
</new>
</action>
<action type="delete">
<old>
  <node id="10707933571" lat="41.1843215" lon="-8.6816997" version="2" timestamp="2023-03-05T11:19:50Z" changeset="133320861" uid="347293" user="Alexmol">
    <tag k="access" v="yes"/>
    <tag k="addr:city" v="Matosinhos"/>
    <tag k="addr:country" v="PT"/>
    <tag k="addr:street" v="Rua de Goa"/>
    <tag k="amenity" v="charging_station"/>
    <tag k="authentication:membership_card" v="yes"/>
    <tag k="authentication:none" v="no"/>
    <tag k="capacity" v="1"/>
    <tag k="email" v="comercial@iberdrola.pt"/>
    <tag k="fee" v="yes"/>
    <tag k="maxstay" v="unlimited"/>
    <tag k="motorcar" v="yes"/>
    <tag k="name" v="MTS-00104"/>
    <tag k="network" v="Mobi.E"/>
    <tag k="opening_hours" v="24/7"/>
    <tag k="operator" v="Iberdrola"/>
    <tag k="operator:wikidata" v="Q1437502"/>
    <tag k="parking:fee" v="no"/>
    <tag k="payment:app" v="yes"/>
    <tag k="payment:cards" v="no"/>
    <tag k="payment:cash" v="no"/>
    <tag k="payment:membership_card" v="yes"/>
    <tag k="phone" v="+351 800 607 717"/>
    <tag k="ref" v="MTS-00104"/>
    <tag k="socket:chademo" v="1"/>
    <tag k="socket:chademo:current" v="120"/>
    <tag k="socket:chademo:output" v="50kW"/>
    <tag k="socket:chademo:voltage" v="500"/>
    <tag k="socket:type2_combo" v="1"/>
    <tag k="socket:type2_combo:current" v="300"/>
    <tag k="socket:type2_combo:output" v="180kW"/>
    <tag k="socket:type2_combo:voltage" v="1000"/>
    <tag k="website" v="https://www.mobie.pt"/>
  </node>
</old>
<new>
  <node id="10707933571" visible="true" version="1" timestamp="2023-03-03T22:35:16Z" changeset="133272580" uid="347293" user="Alexmol"/>
</new>
</action>
<action type="delete">
<old>
  <node id="10707933572" lat="41.4562281" lon="-8.2785523" version="2" timestamp="2023-03-05T11:19:50Z" changeset="133320861" uid="347293" user="Alexmol">
    <tag k="access" v="yes"/>
    <tag k="addr:country" v="PT"/>
    <tag k="amenity" v="charging_station"/>
    <tag k="authentication:membership_card" v="yes"/>
    <tag k="authentication:none" v="no"/>
    <tag k="capacity" v="2"/>
    <tag k="fee" v="yes"/>
    <tag k="maxstay" v="unlimited"/>
    <tag k="motorcar" v="yes"/>
    <tag k="name" v="GMR-00085"/>
    <tag k="network" v="Mobi.E"/>
    <tag k="opening_hours" v="24/7"/>
    <tag k="operator" v="GEN"/>
    <tag k="parking:fee" v="no"/>
    <tag k="payment:app" v="yes"/>
    <tag k="payment:cards" v="no"/>
    <tag k="payment:cash" v="no"/>
    <tag k="payment:membership_card" v="yes"/>
    <tag k="ref" v="GMR-00085"/>
    <tag k="socket:type2" v="2"/>
    <tag k="socket:type2:current" v="32"/>
    <tag k="socket:type2:output" v="7.4kW"/>
    <tag k="socket:type2:voltage" v="230"/>
    <tag k="website" v="https://www.mobie.pt/"/>
  </node>
</old>
<new>
  <node id="10707933572" visible="true" version="1" timestamp="2023-03-03T22:35:16Z" changeset="133272580" uid="347293" user="Alexmol"/>
</new>
</action>
<action type="delete">
<old>
  <node id="10708033835" lat="41.1842952" lon="-8.6817607" version="2" timestamp="2023-03-05T11:19:50Z" changeset="133320861" uid="347293" user="Alexmol">
    <tag k="access" v="yes"/>
    <tag k="addr:country" v="PT"/>
    <tag k="amenity" v="charging_station"/>
    <tag k="authentication:membership_card" v="yes"/>
    <tag k="authentication:none" v="no"/>
    <tag k="capacity" v="2"/>
    <tag k="email" v="comercial@iberdrola.pt"/>
    <tag k="fee" v="yes"/>
    <tag k="maxstay" v="unlimited"/>
    <tag k="motorcar" v="yes"/>
    <tag k="name" v="MTS-00099"/>
    <tag k="network" v="Mobi.E"/>
    <tag k="opening_hours" v="24/7"/>
    <tag k="operator" v="Iberdrola"/>
    <tag k="operator:wikidata" v="Q1437502"/>
    <tag k="parking:fee" v="no"/>
    <tag k="payment:app" v="yes"/>
    <tag k="payment:cards" v="no"/>
    <tag k="payment:cash" v="no"/>
    <tag k="payment:membership_card" v="yes"/>
    <tag k="phone" v="+351 800 607 717"/>
    <tag k="ref" v="MTS-00099"/>
    <tag k="socket:type2" v="2"/>
    <tag k="socket:type2:current" v="32"/>
    <tag k="socket:type2:output" v="22kW"/>
    <tag k="socket:type2:voltage" v="400"/>
    <tag k="website" v="https://www.mobie.pt"/>
  </node>
</old>
<new>
  <node id="10708033835" visible="true" version="1" timestamp="2023-03-04T00:13:08Z" changeset="133274099" uid="347293" user="Alexmol"/>
</new>
</action>

</osm>
