<?xml version="1.0" encoding="UTF-8"?>
<osm version="0.6" generator="Overpass API 0.7.61.5 4133829e">
<note>The data included in this document is from www.openstreetmap.org. The data is made available under ODbL.</note>
<meta osm_base="2023-10-23T01:12:06Z" areas="2023-10-23T00:14:36Z"/>

<action type="create">
  <node id="8224427792" lat="39.0009879" lon="-8.9711550" version="8" timestamp="2022-09-25T06:17:38Z" changeset="126603363" uid="1193685" user="DiogoBaptista98">
    <tag k="access" v="yes"/>
    <tag k="addr:city" v="Vila Franca de Xira"/>
    <tag k="addr:country" v="PT"/>
    <tag k="addr:street" v="EN 1"/>
    <tag k="amenity" v="charging_station"/>
    <tag k="authentication:membership_card" v="yes"/>
    <tag k="authentication:none" v="no"/>
    <tag k="capacity" v="1"/>
    <tag k="construction:amenity" v="charging_station"/>
    <tag k="email" v="electric@prioenergy.com"/>
    <tag k="fee" v="yes"/>
    <tag k="maxstay" v="unlimited"/>
    <tag k="motorcar" v="yes"/>
    <tag k="name" v="VFX-00002"/>
    <tag k="network" v="Mobi.E"/>
    <tag k="website" v="https://www.mobie.pt"/>
    <tag k="opening_hours" v="24/7"/>
    <tag k="operator" v="Prio.E"/>
    <tag k="parking:fee" v="no"/>
    <tag k="payment:app" v="yes"/>
    <tag k="payment:cards" v="no"/>
    <tag k="payment:cash" v="no"/>
    <tag k="payment:membership_card" v="yes"/>
    <tag k="phone" v="+351 800 450 111"/>
    <tag k="ref" v="VFX-00002"/>
    <tag k="socket:type2_combo:voltage" v="500"/>
    <tag k="socket:chademo" v="1"/>
    <tag k="socket:chademo:current" v="120"/>
    <tag k="socket:chademo:output" v="50kW"/>
    <tag k="socket:chademo:voltage" v="500"/>
    <tag k="socket:type2_combo" v="1"/>
    <tag k="socket:type2_combo:current" v="125"/>
    <tag k="socket:type2_combo:output" v="50kW"/>
  </node>
</action>
<action type="delete">
<old>
  <node id="8888875830" lat="38.7735433" lon="-9.1597271" version="8" timestamp="2023-10-22T14:03:09Z" changeset="142969832" uid="347293" user="Alexmol">
    <tag k="access" v="yes"/>
    <tag k="addr:country" v="PT"/>
    <tag k="amenity" v="charging_station"/>
    <tag k="authentication:membership_card" v="yes"/>
    <tag k="authentication:none" v="no"/>
    <tag k="capacity" v="8"/>
    <tag k="email" v="opc@emel.pt"/>
    <tag k="fee" v="yes"/>
    <tag k="maxstay" v="unlimited"/>
    <tag k="motorcar" v="yes"/>
    <tag k="name" v="LSB-00422/423/424/425 - Parque Estacionamento Lumiar"/>
    <tag k="network" v="Mobi.E"/>
    <tag k="opening_hours" v="24/7"/>
    <tag k="operator" v="EMEL"/>
    <tag k="parking:fee" v="yes"/>
    <tag k="payment:app" v="yes"/>
    <tag k="payment:cards" v="no"/>
    <tag k="payment:cash" v="no"/>
    <tag k="payment:membership_card" v="yes"/>
    <tag k="phone" v="+351 800 910 255"/>
    <tag k="ref" v="LSB-00422;LSB-00423;LSB-00424;LSB-00425"/>
    <tag k="socket:type2" v="8"/>
    <tag k="socket:type2:current" v="32"/>
    <tag k="socket:type2:output" v="7.4kW"/>
    <tag k="socket:type2:voltage" v="230"/>
    <tag k="website" v="https://www.mobie.pt"/>
  </node>
</old>
<new>
  <node id="8888875830" visible="true" version="7" timestamp="2022-05-14T12:09:25Z" changeset="120976521" uid="347293" user="Alexmol"/>
</new>
</action>
<action type="delete">
<old>
  <node id="8888875831" lat="38.7734372" lon="-9.1596644" version="7" timestamp="2023-10-22T14:03:09Z" changeset="142969832" uid="347293" user="Alexmol">
    <tag k="access" v="yes"/>
    <tag k="addr:country" v="PT"/>
    <tag k="amenity" v="charging_station"/>
    <tag k="authentication:membership_card" v="yes"/>
    <tag k="authentication:none" v="no"/>
    <tag k="capacity" v="8"/>
    <tag k="email" v="opc@emel.pt"/>
    <tag k="fee" v="yes"/>
    <tag k="maxstay" v="unlimited"/>
    <tag k="motorcar" v="yes"/>
    <tag k="name" v="LSB-00418/419/420/421 - Parque Estacionamento Lumiar"/>
    <tag k="network" v="Mobi.E"/>
    <tag k="opening_hours" v="24/7"/>
    <tag k="operator" v="EMEL"/>
    <tag k="parking:fee" v="yes"/>
    <tag k="payment:app" v="yes"/>
    <tag k="payment:cards" v="no"/>
    <tag k="payment:cash" v="no"/>
    <tag k="payment:membership_card" v="yes"/>
    <tag k="phone" v="+351 800 910 255"/>
    <tag k="ref" v="LSB-00418;LSB-00419;LSB-00420;LSB-00421"/>
    <tag k="socket:type2" v="8"/>
    <tag k="socket:type2:current" v="32"/>
    <tag k="socket:type2:output" v="22kW"/>
    <tag k="socket:type2:voltage" v="400"/>
    <tag k="website" v="https://www.mobie.pt"/>
  </node>
</old>
<new>
  <node id="8888875831" visible="true" version="6" timestamp="2022-05-14T12:09:25Z" changeset="120976521" uid="347293" user="Alexmol"/>
</new>
</action>
<action type="create">
  <node id="8958089021" lat="38.0397937" lon="-8.7314635" version="7" timestamp="2023-06-28T14:10:10Z" changeset="137881500" uid="18770658" user="dricardo01">
    <tag k="access" v="yes"/>
    <tag k="addr:country" v="PT"/>
    <tag k="amenity" v="charging_station"/>
    <tag k="authentication:membership_card" v="yes"/>
    <tag k="authentication:none" v="no"/>
    <tag k="capacity" v="1"/>
    <tag k="email" v="geral@eplug.pt"/>
    <tag k="fee" v="yes"/>
    <tag k="maxstay" v="unlimited"/>
    <tag k="motorcar" v="yes"/>
    <tag k="name" v="STC-00006 - Hospital do Litoral Alentejano"/>
    <tag k="network" v="Mobi.E"/>
    <tag k="opening_hours" v="24/7"/>
    <tag k="operator" v="E-Plug"/>
    <tag k="parking:fee" v="no"/>
    <tag k="payment:app" v="yes"/>
    <tag k="payment:cards" v="no"/>
    <tag k="payment:cash" v="no"/>
    <tag k="payment:membership_card" v="yes"/>
    <tag k="phone" v="+351 211 648 577"/>
    <tag k="planned:amenity" v="charging_station"/>
    <tag k="ref" v="STC-00006"/>
    <tag k="socket:chademo" v="1"/>
    <tag k="socket:chademo:current" v="120"/>
    <tag k="socket:chademo:output" v="50kW"/>
    <tag k="socket:chademo:voltage" v="500"/>
    <tag k="socket:type2_combo" v="1"/>
    <tag k="socket:type2_combo:current" v="125"/>
    <tag k="socket:type2_combo:output" v="50kW"/>
    <tag k="socket:type2_combo:voltage" v="500"/>
    <tag k="website" v="https://www.mobie.pt"/>
  </node>
</action>
<action type="delete">
<old>
  <node id="11281906537" lat="40.6415486" lon="-8.6530219" version="1" timestamp="2023-10-22T18:13:30Z" changeset="142979807" uid="347293" user="Alexmol">
    <tag k="access" v="customers"/>
    <tag k="addr:country" v="PT"/>
    <tag k="amenity" v="charging_station"/>
    <tag k="authentication:none" v="no"/>
    <tag k="bicycle" v="no"/>
    <tag k="boat" v="yes"/>
    <tag k="capacity" v="3"/>
    <tag k="maxstay" v="unlimited"/>
    <tag k="motorcar" v="no"/>
    <tag k="name" v="Posto de Carregamento de Moliceiros"/>
    <tag k="opening_hours" v="24/7"/>
    <tag k="socket:type2_cable" v="3"/>
  </node>
</old>
<new>
  <node id="11281906537" visible="false" version="0" timestamp="0000-00-00T00:00:00Z" changeset="0" uid="0" user=""/>
</new>
</action>

</osm>
