<?xml version="1.0" encoding="UTF-8"?>
<osm version="0.6" generator="Overpass API 0.7.61.5 4133829e">
<note>The data included in this document is from www.openstreetmap.org. The data is made available under ODbL.</note>
<meta osm_base="2023-09-03T01:13:52Z" areas="2023-09-02T23:28:28Z"/>

<action type="create">
  <node id="7736361143" lat="37.6943269" lon="-8.0900346" version="10" timestamp="2022-05-14T12:09:25Z" changeset="120976521" uid="347293" user="Alexmol">
    <tag k="amenity" v="charging_station"/>
    <tag k="website" v="https://www.mobie.pt"/>
    <tag k="access" v="yes"/>
    <tag k="addr:city" v="Castro Verde"/>
    <tag k="addr:country" v="PT"/>
    <tag k="addr:street" v="Rua Nova da Feira"/>
    <tag k="authentication:membership_card" v="yes"/>
    <tag k="authentication:none" v="no"/>
    <tag k="capacity" v="2"/>
    <tag k="email" v="mobilidade.electricacrc@galp.com"/>
    <tag k="fee" v="yes"/>
    <tag k="maxstay" v="unlimited"/>
    <tag k="motorcar" v="yes"/>
    <tag k="name" v="CVR-00002 - Intermarché"/>
    <tag k="network" v="Mobi.E"/>
    <tag k="opening_hours" v="24/7"/>
    <tag k="operator" v="Galp Power"/>
    <tag k="parking:fee" v="no"/>
    <tag k="payment:app" v="yes"/>
    <tag k="payment:cards" v="no"/>
    <tag k="payment:cash" v="no"/>
    <tag k="payment:membership_card" v="yes"/>
    <tag k="phone" v="+351 800 249 249"/>
    <tag k="ref" v="CVR-00002"/>
    <tag k="socket:chademo" v="1"/>
    <tag k="socket:chademo:current" v="120"/>
    <tag k="socket:chademo:output" v="50kW"/>
    <tag k="socket:chademo:voltage" v="500"/>
    <tag k="socket:type2_cable" v="1"/>
    <tag k="socket:type2_cable:current" v="63"/>
    <tag k="socket:type2_cable:output" v="43kW"/>
    <tag k="socket:type2_cable:voltage" v="400"/>
    <tag k="socket:type2_combo" v="1"/>
    <tag k="socket:type2_combo:current" v="125"/>
    <tag k="socket:type2_combo:output" v="50kW"/>
    <tag k="socket:type2_combo:voltage" v="500"/>
  </node>
</action>
<action type="create">
  <node id="8076005286" lat="41.1501485" lon="-8.5993351" version="10" timestamp="2022-05-14T12:09:25Z" changeset="120976521" uid="347293" user="Alexmol">
    <tag k="amenity" v="charging_station"/>
    <tag k="website" v="https://www.mobie.pt"/>
    <tag k="access" v="yes"/>
    <tag k="addr:city" v="Porto"/>
    <tag k="addr:country" v="PT"/>
    <tag k="addr:street" v="Campo 24 de Agosto"/>
    <tag k="authentication:membership_card" v="yes"/>
    <tag k="authentication:none" v="no"/>
    <tag k="capacity" v="1"/>
    <tag k="email" v="info@evce.pt"/>
    <tag k="fee" v="yes"/>
    <tag k="location" v="underground"/>
    <tag k="maxstay" v="unlimited"/>
    <tag k="motorcar" v="yes"/>
    <tag k="name" v="PRT-00030"/>
    <tag k="network" v="Mobi.E"/>
    <tag k="opening_hours" v="24/7"/>
    <tag k="operator" v="EVCE"/>
    <tag k="parking:fee" v="yes"/>
    <tag k="payment:app" v="yes"/>
    <tag k="payment:cards" v="no"/>
    <tag k="payment:cash" v="no"/>
    <tag k="payment:membership_card" v="yes"/>
    <tag k="phone" v="+351 253 623 190"/>
    <tag k="ref" v="PRT-00030"/>
    <tag k="socket:chademo" v="1"/>
    <tag k="socket:chademo:current" v="120"/>
    <tag k="socket:chademo:output" v="50kW"/>
    <tag k="socket:chademo:voltage" v="500"/>
    <tag k="socket:type2_combo" v="1"/>
    <tag k="socket:type2_combo:current" v="125"/>
    <tag k="socket:type2_combo:output" v="50kW"/>
    <tag k="socket:type2_combo:voltage" v="500"/>
  </node>
</action>
<action type="create">
  <node id="8269972288" lat="37.0737479" lon="-8.1086015" version="8" timestamp="2022-05-14T12:09:25Z" changeset="120976521" uid="347293" user="Alexmol">
    <tag k="amenity" v="charging_station"/>
    <tag k="website" v="https://www.mobie.pt"/>
    <tag k="access" v="yes"/>
    <tag k="addr:country" v="PT"/>
    <tag k="authentication:membership_card" v="yes"/>
    <tag k="authentication:none" v="no"/>
    <tag k="capacity" v="2"/>
    <tag k="email" v="geral@lcglobal.pt"/>
    <tag k="fee" v="yes"/>
    <tag k="maxstay" v="unlimited"/>
    <tag k="motorcar" v="yes"/>
    <tag k="name" v="LLE-00061"/>
    <tag k="network" v="Mobi.E"/>
    <tag k="opening_hours" v="24/7"/>
    <tag k="operator" v="Loulé Concelho Global"/>
    <tag k="parking:fee" v="no"/>
    <tag k="payment:app" v="yes"/>
    <tag k="payment:cards" v="no"/>
    <tag k="payment:cash" v="no"/>
    <tag k="payment:membership_card" v="yes"/>
    <tag k="phone" v="+351 800 200 289"/>
    <tag k="ref" v="LLE-00061"/>
    <tag k="socket:type2" v="2"/>
    <tag k="socket:type2:current" v="32"/>
    <tag k="socket:type2:output" v="22kW"/>
    <tag k="socket:type2:voltage" v="400"/>
  </node>
</action>
<action type="create">
  <node id="8270035097" lat="37.1856912" lon="-8.4416552" version="12" timestamp="2023-03-21T20:46:01Z" changeset="133956174" uid="347293" user="Alexmol">
    <tag k="amenity" v="charging_station"/>
    <tag k="website" v="https://www.mobie.pt"/>
    <tag k="access" v="yes"/>
    <tag k="addr:country" v="PT"/>
    <tag k="authentication:membership_card" v="yes"/>
    <tag k="authentication:none" v="no"/>
    <tag k="capacity" v="2"/>
    <tag k="email" v="apoio.cliente@kmlowcost.com"/>
    <tag k="fee" v="yes"/>
    <tag k="maxstay" v="unlimited"/>
    <tag k="motorcar" v="yes"/>
    <tag k="name" v="SLV-00002"/>
    <tag k="network" v="Mobi.E"/>
    <tag k="opening_hours" v="24/7"/>
    <tag k="operator" v="Atlante"/>
    <tag k="parking:fee" v="no"/>
    <tag k="payment:app" v="yes"/>
    <tag k="payment:cards" v="no"/>
    <tag k="payment:cash" v="no"/>
    <tag k="payment:membership_card" v="yes"/>
    <tag k="phone" v="+351 800 296 929"/>
    <tag k="ref" v="SLV-90002"/>
    <tag k="socket:type2" v="2"/>
    <tag k="socket:type2:current" v="32"/>
    <tag k="socket:type2:output" v="22kW"/>
    <tag k="socket:type2:voltage" v="400"/>
  </node>
</action>
<action type="create">
  <node id="8420616352" lat="41.1474633" lon="-8.6091885" version="10" timestamp="2022-05-14T12:09:25Z" changeset="120976521" uid="347293" user="Alexmol">
    <tag k="amenity" v="charging_station"/>
    <tag k="website" v="https://www.mobie.pt"/>
    <tag k="access" v="yes"/>
    <tag k="addr:country" v="PT"/>
    <tag k="authentication:membership_card" v="yes"/>
    <tag k="authentication:none" v="no"/>
    <tag k="capacity" v="6"/>
    <tag k="email" v="ev_portugal@maksu.com"/>
    <tag k="fee" v="yes"/>
    <tag k="location" v="underground"/>
    <tag k="maxstay" v="unlimited"/>
    <tag k="motorcar" v="yes"/>
    <tag k="name" v="PRT-00053/54/55/56/57/58 - Empark Dom João I"/>
    <tag k="network" v="Mobi.E"/>
    <tag k="opening_hours" v="24/7"/>
    <tag k="operator" v="Maksu Services"/>
    <tag k="parking:fee" v="yes"/>
    <tag k="payment:app" v="yes"/>
    <tag k="payment:cards" v="no"/>
    <tag k="payment:cash" v="no"/>
    <tag k="payment:membership_card" v="yes"/>
    <tag k="phone" v="+351 800 910 124"/>
    <tag k="ref" v="PRT-00053;PRT-00054;PRT-00055;PRT-00056;PRT-00057;PRT-00058"/>
    <tag k="socket:type2" v="6"/>
    <tag k="socket:type2:current" v="32"/>
    <tag k="socket:type2:output" v="22kW"/>
    <tag k="socket:type2:voltage" v="400"/>
  </node>
</action>
<action type="create">
  <node id="10736008754" lat="39.6156800" lon="-8.4004214" version="2" timestamp="2023-03-20T11:17:45Z" changeset="133894284" uid="347293" user="Alexmol">
    <tag k="amenity" v="charging_station"/>
    <tag k="website" v="https://www.mobie.pt/"/>
    <tag k="access" v="yes"/>
    <tag k="addr:country" v="PT"/>
    <tag k="authentication:membership_card" v="yes"/>
    <tag k="authentication:none" v="no"/>
    <tag k="capacity" v="2"/>
    <tag k="fee" v="yes"/>
    <tag k="maxstay" v="unlimited"/>
    <tag k="motorcar" v="yes"/>
    <tag k="name" v="TMR-00015"/>
    <tag k="network" v="Mobi.E"/>
    <tag k="opening_hours" v="24/7"/>
    <tag k="operator" v="Wowplug"/>
    <tag k="parking:fee" v="no"/>
    <tag k="payment:app" v="yes"/>
    <tag k="payment:cards" v="no"/>
    <tag k="payment:cash" v="no"/>
    <tag k="payment:membership_card" v="yes"/>
    <tag k="ref" v="TMR-00015"/>
    <tag k="socket:type2" v="2"/>
    <tag k="socket:type2:current" v="32"/>
    <tag k="socket:type2:output" v="22kW"/>
    <tag k="socket:type2:voltage" v="400"/>
  </node>
</action>
<action type="create">
  <node id="10853407453" lat="38.7498261" lon="-9.2045883" version="3" timestamp="2023-08-12T10:23:48Z" changeset="139781514" uid="347293" user="Alexmol">
    <tag k="amenity" v="charging_station"/>
    <tag k="website" v="https://www.mobie.pt/"/>
    <tag k="access" v="yes"/>
    <tag k="authentication:membership_card" v="yes"/>
    <tag k="authentication:none" v="no"/>
    <tag k="capacity" v="2"/>
    <tag k="fee" v="yes"/>
    <tag k="maxstay" v="unlimited"/>
    <tag k="motorcar" v="yes"/>
    <tag k="name" v="LSB-00588 - Pingo Doce"/>
    <tag k="network" v="Mobi.E"/>
    <tag k="opening_hours" v="09:00-21:00"/>
    <tag k="operator" v="Atlante"/>
    <tag k="parking:fee" v="no"/>
    <tag k="payment:app" v="yes"/>
    <tag k="payment:cards" v="no"/>
    <tag k="payment:cash" v="no"/>
    <tag k="payment:membership_card" v="yes"/>
    <tag k="phone" v="+351 800 296 929"/>
    <tag k="ref" v="LSB-00588"/>
    <tag k="socket:chademo" v="1"/>
    <tag k="socket:chademo:current" v="125"/>
    <tag k="socket:chademo:output" v="50kW"/>
    <tag k="socket:chademo:voltage" v="500"/>
    <tag k="socket:type2_cable" v="1"/>
    <tag k="socket:type2_cable:current" v="32"/>
    <tag k="socket:type2_cable:output" v="22kW"/>
    <tag k="socket:type2_cable:voltage" v="400"/>
    <tag k="socket:type2_combo" v="1"/>
    <tag k="socket:type2_combo:current" v="150"/>
    <tag k="socket:type2_combo:output" v="60kW"/>
    <tag k="socket:type2_combo:voltage" v="920"/>
  </node>
</action>
<action type="modify">
<old>
  <node id="10891755087" version="5" timestamp="2023-09-02T10:11:23Z" changeset="140711939" uid="347293" user="Alexmol"/>
</old>
<new>
  <node id="10891755087" lat="41.2024070" lon="-8.6922120" version="4" timestamp="2023-08-12T10:23:48Z" changeset="139781514" uid="347293" user="Alexmol">
    <tag k="amenity" v="charging_station"/>
    <tag k="website" v="https://www.mobie.pt/"/>
    <tag k="access" v="yes"/>
    <tag k="addr:country" v="PT"/>
    <tag k="authentication:membership_card" v="yes"/>
    <tag k="authentication:none" v="no"/>
    <tag k="capacity" v="2"/>
    <tag k="email" v="ajuda@powerdot.pt"/>
    <tag k="fee" v="yes"/>
    <tag k="maxstay" v="unlimited"/>
    <tag k="motorcar" v="yes"/>
    <tag k="name" v="MTS-00109 - Hotel Tryp"/>
    <tag k="network" v="Mobi.E"/>
    <tag k="opening_hours" v="24/7"/>
    <tag k="operator" v="Powerdot"/>
    <tag k="parking:fee" v="no"/>
    <tag k="payment:app" v="yes"/>
    <tag k="payment:cards" v="no"/>
    <tag k="payment:cash" v="no"/>
    <tag k="payment:membership_card" v="yes"/>
    <tag k="phone" v="+351 800 180 292"/>
    <tag k="ref" v="MTS-00109"/>
    <tag k="socket:type2" v="1"/>
    <tag k="socket:type2:current" v="32"/>
    <tag k="socket:type2:output" v="22kW"/>
    <tag k="socket:type2:voltage" v="400"/>
    <tag k="socket:type2_combo" v="2"/>
    <tag k="socket:type2_combo:current" v="250"/>
    <tag k="socket:type2_combo:output" v="120kW"/>
    <tag k="socket:type2_combo:voltage" v="500"/>
  </node>
</new>
</action>

</osm>
