<?xml version="1.0" encoding="UTF-8"?>
<osm version="0.6" generator="Overpass API 0.7.61.5 4133829e">
<note>The data included in this document is from www.openstreetmap.org. The data is made available under ODbL.</note>
<meta osm_base="2023-09-30T01:10:16Z" areas="2023-09-29T20:13:01Z"/>

<action type="create">
  <node id="8085492051" lat="37.0978991" lon="-7.9976405" version="5" timestamp="2022-01-19T22:05:11Z" changeset="116360694" uid="347293" user="Alexmol">
    <tag k="access" v="yes"/>
    <tag k="addr:country" v="PT"/>
    <tag k="addr:street" v="Mar Shopping Algarve, Avenida Algarve"/>
    <tag k="amenity" v="charging_station"/>
    <tag k="authentication:none" v="yes"/>
    <tag k="capacity" v="2"/>
    <tag k="fee" v="no"/>
    <tag k="maxstay" v="unlimited"/>
    <tag k="motorcar" v="yes"/>
    <tag k="name" v="Porsche Destination Charging"/>
    <tag k="network" v="Porsche"/>
    <tag k="opening_hours" v="Mo-Su 10:00-23:00"/>
    <tag k="operator" v="Porsche"/>
    <tag k="parking:fee" v="no"/>
    <tag k="socket:type2_cable" v="2"/>
    <tag k="socket:type2_cable:current" v="16"/>
    <tag k="socket:type2_cable:output" v="11kW"/>
    <tag k="socket:type2_cable:voltage" v="400"/>
  </node>
</action>
<action type="create">
  <node id="8220175103" lat="38.7519615" lon="-9.0953959" version="4" timestamp="2022-06-26T14:19:08Z" changeset="122869357" uid="347293" user="Alexmol">
    <tag k="access" v="private"/>
    <tag k="addr:city" v="Lisboa"/>
    <tag k="addr:country" v="PT"/>
    <tag k="amenity" v="charging_station"/>
    <tag k="capacity" v="1"/>
    <tag k="motorcar" v="yes"/>
    <tag k="name" v="Soauto Expo Porsche"/>
    <tag k="network" v="Porsche"/>
    <tag k="opening_hours" v="Mo-Fr 09:00-17:00"/>
    <tag k="operator" v="Porsche"/>
    <tag k="parking:fee" v="no"/>
    <tag k="socket:type2_combo" v="1"/>
    <tag k="socket:type2_combo:current" v="125"/>
    <tag k="socket:type2_combo:output" v="50kW"/>
    <tag k="socket:type2_combo:voltage" v="500"/>
  </node>
</action>
<action type="create">
  <node id="8262554176" lat="37.0312441" lon="-8.0220312" version="3" timestamp="2022-08-04T21:55:46Z" changeset="124498764" uid="347293" user="Alexmol">
    <tag k="access" v="customers"/>
    <tag k="addr:country" v="PT"/>
    <tag k="amenity" v="charging_station"/>
    <tag k="authentication:none" v="yes"/>
    <tag k="capacity" v="1"/>
    <tag k="fee" v="no"/>
    <tag k="motorcar" v="yes"/>
    <tag k="name" v="Porsche Destination Charging"/>
    <tag k="network" v="Porsche"/>
    <tag k="opening_hours" v="24/7"/>
    <tag k="operator" v="Porsche"/>
    <tag k="parking:fee" v="no"/>
    <tag k="socket:type2_cable" v="1"/>
    <tag k="socket:type2_cable:current" v="16"/>
    <tag k="socket:type2_cable:output" v="11kW"/>
    <tag k="socket:type2_cable:voltage" v="400"/>
  </node>
</action>
<action type="create">
  <node id="8262556573" lat="37.0931613" lon="-8.1117095" version="2" timestamp="2021-03-09T20:48:07Z" changeset="100732850" uid="347293" user="Alexmol">
    <tag k="access" v="customers"/>
    <tag k="addr:country" v="PT"/>
    <tag k="amenity" v="charging_station"/>
    <tag k="authentication:none" v="yes"/>
    <tag k="capacity" v="2"/>
    <tag k="fee" v="no"/>
    <tag k="motorcar" v="yes"/>
    <tag k="name" v="Porsche Destination Charging"/>
    <tag k="network" v="Porsche"/>
    <tag k="opening_hours" v="24/7"/>
    <tag k="operator" v="Porsche"/>
    <tag k="parking:fee" v="no"/>
    <tag k="socket:type2_cable" v="2"/>
    <tag k="socket:type2_cable:current" v="16"/>
    <tag k="socket:type2_cable:output" v="11kW"/>
    <tag k="socket:type2_cable:voltage" v="400"/>
  </node>
</action>
<action type="create">
  <node id="8262653923" lat="37.1183238" lon="-8.5344297" version="3" timestamp="2023-05-27T11:20:48Z" changeset="136620602" uid="12507004" user="Linfindel">
    <tag k="access" v="customers"/>
    <tag k="addr:country" v="PT"/>
    <tag k="amenity" v="charging_station"/>
    <tag k="authentication:none" v="yes"/>
    <tag k="capacity" v="2"/>
    <tag k="fee" v="no"/>
    <tag k="motorcar" v="yes"/>
    <tag k="name" v="Porsche Destination Charging"/>
    <tag k="network" v="Porsche"/>
    <tag k="opening_hours" v="24/7"/>
    <tag k="operator" v="Porsche"/>
    <tag k="operator:wikidata" v="Q40993"/>
    <tag k="parking:fee" v="no"/>
    <tag k="socket:type2_cable" v="2"/>
    <tag k="socket:type2_cable:current" v="16"/>
    <tag k="socket:type2_cable:output" v="11kW"/>
    <tag k="socket:type2_cable:voltage" v="400"/>
  </node>
</action>
<action type="create">
  <node id="8265055939" lat="38.1822841" lon="-7.5923520" version="2" timestamp="2021-03-09T20:48:07Z" changeset="100732850" uid="347293" user="Alexmol">
    <tag k="access" v="customers"/>
    <tag k="addr:country" v="PT"/>
    <tag k="amenity" v="charging_station"/>
    <tag k="authentication:none" v="yes"/>
    <tag k="capacity" v="1"/>
    <tag k="fee" v="no"/>
    <tag k="motorcar" v="yes"/>
    <tag k="name" v="Porsche Destination Charging"/>
    <tag k="network" v="Porsche"/>
    <tag k="operator" v="Porsche"/>
    <tag k="parking:fee" v="no"/>
    <tag k="socket:type2_cable" v="1"/>
    <tag k="socket:type2_cable:current" v="16"/>
    <tag k="socket:type2_cable:output" v="11kW"/>
    <tag k="socket:type2_cable:voltage" v="400"/>
  </node>
</action>
<action type="create">
  <node id="8280596650" lat="38.7550643" lon="-9.4544220" version="2" timestamp="2021-03-09T20:48:07Z" changeset="100732850" uid="347293" user="Alexmol">
    <tag k="access" v="customers"/>
    <tag k="addr:country" v="PT"/>
    <tag k="amenity" v="charging_station"/>
    <tag k="authentication:none" v="yes"/>
    <tag k="capacity" v="2"/>
    <tag k="fee" v="no"/>
    <tag k="motorcar" v="yes"/>
    <tag k="name" v="Porsche Destination Charging"/>
    <tag k="network" v="Porsche"/>
    <tag k="operator" v="Porsche"/>
    <tag k="parking:fee" v="no"/>
    <tag k="socket:type2_cable" v="2"/>
    <tag k="socket:type2_cable:current" v="16"/>
    <tag k="socket:type2_cable:output" v="11kW"/>
    <tag k="socket:type2_cable:voltage" v="400"/>
  </node>
</action>
<action type="create">
  <node id="8284074297" lat="38.7025076" lon="-9.4105303" version="2" timestamp="2021-03-09T20:48:07Z" changeset="100732850" uid="347293" user="Alexmol">
    <tag k="access" v="customers"/>
    <tag k="addr:country" v="PT"/>
    <tag k="amenity" v="charging_station"/>
    <tag k="authentication:none" v="yes"/>
    <tag k="capacity" v="1"/>
    <tag k="fee" v="no"/>
    <tag k="motorcar" v="yes"/>
    <tag k="name" v="Porsche Destination Charging"/>
    <tag k="network" v="Porsche"/>
    <tag k="opening_hours" v="24/7"/>
    <tag k="operator" v="Porsche"/>
    <tag k="socket:type2_cable" v="1"/>
    <tag k="socket:type2_cable:current" v="16"/>
    <tag k="socket:type2_cable:output" v="11kW"/>
    <tag k="socket:type2_cable:voltage" v="400"/>
  </node>
</action>
<action type="create">
  <node id="8289944481" lat="38.7552669" lon="-9.3929548" version="2" timestamp="2021-03-09T20:48:07Z" changeset="100732850" uid="347293" user="Alexmol">
    <tag k="access" v="customers"/>
    <tag k="addr:country" v="PT"/>
    <tag k="amenity" v="charging_station"/>
    <tag k="capacity" v="1"/>
    <tag k="motorcar" v="yes"/>
    <tag k="name" v="Centro Porsche Estoril"/>
    <tag k="network" v="Porsche"/>
    <tag k="operator" v="Porsche"/>
    <tag k="socket:type2" v="1"/>
    <tag k="socket:type2:current" v="32"/>
    <tag k="socket:type2:output" v="22kW"/>
    <tag k="socket:type2:voltage" v="400"/>
  </node>
</action>
<action type="create">
  <node id="8289966177" lat="39.6487005" lon="-8.8392815" version="2" timestamp="2021-03-09T20:48:07Z" changeset="100732850" uid="347293" user="Alexmol">
    <tag k="access" v="customers"/>
    <tag k="addr:country" v="PT"/>
    <tag k="amenity" v="charging_station"/>
    <tag k="authentication:none" v="yes"/>
    <tag k="capacity" v="2"/>
    <tag k="fee" v="no"/>
    <tag k="motorcar" v="yes"/>
    <tag k="name" v="Porsche Destination Charging"/>
    <tag k="network" v="Porsche"/>
    <tag k="opening_hours" v="Mo-Su 12:00-22:00"/>
    <tag k="operator" v="Porsche"/>
    <tag k="parking:fee" v="no"/>
    <tag k="socket:type2_cable" v="2"/>
    <tag k="socket:type2_cable:current" v="16"/>
    <tag k="socket:type2_cable:output" v="11kW"/>
    <tag k="socket:type2_cable:voltage" v="400"/>
  </node>
</action>
<action type="create">
  <node id="8308541433" lat="41.1614748" lon="-8.6846817" version="2" timestamp="2021-03-09T20:48:07Z" changeset="100732850" uid="347293" user="Alexmol">
    <tag k="access" v="customers"/>
    <tag k="addr:country" v="PT"/>
    <tag k="amenity" v="charging_station"/>
    <tag k="authentication:none" v="yes"/>
    <tag k="capacity" v="2"/>
    <tag k="fee" v="no"/>
    <tag k="motorcar" v="yes"/>
    <tag k="name" v="Porsche Destination Charging"/>
    <tag k="network" v="Porsche"/>
    <tag k="operator" v="Porsche"/>
    <tag k="parking:fee" v="no"/>
    <tag k="socket:type2_cable" v="2"/>
    <tag k="socket:type2_cable:current" v="16"/>
    <tag k="socket:type2_cable:output" v="11kW"/>
    <tag k="socket:type2_cable:voltage" v="400"/>
  </node>
</action>
<action type="create">
  <node id="8308550979" lat="41.1471280" lon="-8.6321358" version="2" timestamp="2021-03-09T20:48:07Z" changeset="100732850" uid="347293" user="Alexmol">
    <tag k="access" v="customers"/>
    <tag k="addr:country" v="PT"/>
    <tag k="amenity" v="charging_station"/>
    <tag k="authentication:none" v="yes"/>
    <tag k="capacity" v="2"/>
    <tag k="fee" v="no"/>
    <tag k="motorcar" v="yes"/>
    <tag k="name" v="Porsche Destination Charging"/>
    <tag k="network" v="Porsche"/>
    <tag k="operator" v="Porsche"/>
    <tag k="parking:fee" v="no"/>
    <tag k="socket:type2_cable" v="2"/>
    <tag k="socket:type2_cable:current" v="16"/>
    <tag k="socket:type2_cable:output" v="11kW"/>
    <tag k="socket:type2_cable:voltage" v="400"/>
  </node>
</action>
<action type="create">
  <node id="8308946954" lat="38.7305740" lon="-9.1557916" version="2" timestamp="2021-03-09T20:48:07Z" changeset="100732850" uid="347293" user="Alexmol">
    <tag k="access" v="customers"/>
    <tag k="addr:country" v="PT"/>
    <tag k="amenity" v="charging_station"/>
    <tag k="authentication:none" v="yes"/>
    <tag k="capacity" v="1"/>
    <tag k="fee" v="no"/>
    <tag k="motorcar" v="yes"/>
    <tag k="name" v="Porsche Destination Charging"/>
    <tag k="network" v="Porsche"/>
    <tag k="operator" v="Porsche"/>
    <tag k="parking:fee" v="no"/>
    <tag k="socket:type2_cable" v="1"/>
    <tag k="socket:type2_cable:current" v="16"/>
    <tag k="socket:type2_cable:output" v="11kW"/>
    <tag k="socket:type2_cable:voltage" v="400"/>
  </node>
</action>
<action type="create">
  <node id="8309468598" lat="40.9846392" lon="-8.6415182" version="3" timestamp="2022-11-14T17:23:32Z" changeset="128902138" uid="6590092" user="Rui 228">
    <tag k="access" v="customers"/>
    <tag k="addr:country" v="PT"/>
    <tag k="amenity" v="charging_station"/>
    <tag k="authentication:none" v="yes"/>
    <tag k="capacity" v="1"/>
    <tag k="fee" v="no"/>
    <tag k="motorcar" v="yes"/>
    <tag k="name" v="Porsche Destination Charging"/>
    <tag k="network" v="Porsche"/>
    <tag k="operator" v="Porsche"/>
    <tag k="operator:wikidata" v="Q40993"/>
    <tag k="parking:fee" v="no"/>
    <tag k="socket:type2_cable" v="1"/>
    <tag k="socket:type2_cable:current" v="16"/>
    <tag k="socket:type2_cable:output" v="11kW"/>
    <tag k="socket:type2_cable:voltage" v="400"/>
  </node>
</action>
<action type="create">
  <node id="8309516334" lat="41.1323285" lon="-8.5748076" version="2" timestamp="2021-03-09T20:48:08Z" changeset="100732850" uid="347293" user="Alexmol">
    <tag k="access" v="customers"/>
    <tag k="addr:country" v="PT"/>
    <tag k="amenity" v="charging_station"/>
    <tag k="authentication:none" v="yes"/>
    <tag k="capacity" v="4"/>
    <tag k="fee" v="no"/>
    <tag k="motorcar" v="yes"/>
    <tag k="name" v="Porsche Destination Charging"/>
    <tag k="network" v="Porsche"/>
    <tag k="operator" v="Porsche"/>
    <tag k="parking:fee" v="no"/>
    <tag k="socket:type2_cable" v="4"/>
    <tag k="socket:type2_cable:current" v="16"/>
    <tag k="socket:type2_cable:output" v="11kW"/>
    <tag k="socket:type2_cable:voltage" v="400"/>
  </node>
</action>
<action type="create">
  <node id="8312981685" lat="41.7606881" lon="-7.4887048" version="2" timestamp="2021-03-09T20:48:08Z" changeset="100732850" uid="347293" user="Alexmol">
    <tag k="access" v="customers"/>
    <tag k="addr:country" v="PT"/>
    <tag k="amenity" v="charging_station"/>
    <tag k="authentication:none" v="yes"/>
    <tag k="capacity" v="1"/>
    <tag k="fee" v="no"/>
    <tag k="motorcar" v="yes"/>
    <tag k="name" v="Porsche Destination Charging"/>
    <tag k="network" v="Porsche"/>
    <tag k="operator" v="Porsche"/>
    <tag k="parking:fee" v="no"/>
    <tag k="socket:type2_cable" v="1"/>
    <tag k="socket:type2_cable:current" v="16"/>
    <tag k="socket:type2_cable:output" v="11kW"/>
    <tag k="socket:type2_cable:voltage" v="400"/>
  </node>
</action>
<action type="create">
  <node id="8313043951" lat="41.4566586" lon="-8.7762871" version="2" timestamp="2021-03-09T20:48:08Z" changeset="100732850" uid="347293" user="Alexmol">
    <tag k="access" v="customers"/>
    <tag k="addr:country" v="PT"/>
    <tag k="amenity" v="charging_station"/>
    <tag k="authentication:none" v="yes"/>
    <tag k="capacity" v="2"/>
    <tag k="fee" v="no"/>
    <tag k="motorcar" v="yes"/>
    <tag k="name" v="Porsche Destination Charging"/>
    <tag k="network" v="Porsche"/>
    <tag k="operator" v="Porsche"/>
    <tag k="parking:fee" v="no"/>
    <tag k="socket:type2_cable" v="2"/>
    <tag k="socket:type2_cable:current" v="16"/>
    <tag k="socket:type2_cable:output" v="11kW"/>
    <tag k="socket:type2_cable:voltage" v="400"/>
  </node>
</action>
<action type="create">
  <node id="8422173529" lat="37.0946440" lon="-8.1894842" version="2" timestamp="2021-03-09T20:48:08Z" changeset="100732850" uid="347293" user="Alexmol">
    <tag k="access" v="customers"/>
    <tag k="addr:country" v="PT"/>
    <tag k="amenity" v="charging_station"/>
    <tag k="authentication:none" v="yes"/>
    <tag k="capacity" v="2"/>
    <tag k="fee" v="no"/>
    <tag k="motorcar" v="yes"/>
    <tag k="name" v="Porsche Destination Charging"/>
    <tag k="network" v="Porsche"/>
    <tag k="operator" v="Porsche"/>
    <tag k="parking:fee" v="no"/>
    <tag k="socket:type2_cable" v="2"/>
    <tag k="socket:type2_cable:current" v="16"/>
    <tag k="socket:type2_cable:output" v="11kW"/>
    <tag k="socket:type2_cable:voltage" v="400"/>
  </node>
</action>
<action type="create">
  <node id="8426984784" lat="38.7075782" lon="-9.4567609" version="2" timestamp="2021-03-09T20:48:08Z" changeset="100732850" uid="347293" user="Alexmol">
    <tag k="access" v="customers"/>
    <tag k="addr:country" v="PT"/>
    <tag k="amenity" v="charging_station"/>
    <tag k="authentication:none" v="yes"/>
    <tag k="capacity" v="2"/>
    <tag k="fee" v="no"/>
    <tag k="motorcar" v="yes"/>
    <tag k="name" v="Porsche Destination Charging"/>
    <tag k="network" v="Porsche"/>
    <tag k="operator" v="Porsche"/>
    <tag k="parking:fee" v="no"/>
    <tag k="socket:type2_cable" v="2"/>
    <tag k="socket:type2_cable:current" v="16"/>
    <tag k="socket:type2_cable:output" v="11kW"/>
    <tag k="socket:type2_cable:voltage" v="400"/>
  </node>
</action>
<action type="create">
  <node id="8427002574" lat="37.1015487" lon="-8.3797735" version="2" timestamp="2021-03-09T20:48:08Z" changeset="100732850" uid="347293" user="Alexmol">
    <tag k="access" v="customers"/>
    <tag k="addr:country" v="PT"/>
    <tag k="amenity" v="charging_station"/>
    <tag k="authentication:none" v="yes"/>
    <tag k="capacity" v="2"/>
    <tag k="fee" v="no"/>
    <tag k="motorcar" v="yes"/>
    <tag k="name" v="Porsche Destination Charging"/>
    <tag k="network" v="Porsche"/>
    <tag k="operator" v="Porsche"/>
    <tag k="parking:fee" v="no"/>
    <tag k="socket:type2_cable" v="2"/>
    <tag k="socket:type2_cable:current" v="16"/>
    <tag k="socket:type2_cable:output" v="11kW"/>
    <tag k="socket:type2_cable:voltage" v="400"/>
  </node>
</action>
<action type="create">
  <node id="8427051065" lat="41.0289241" lon="-8.6424369" version="2" timestamp="2021-03-09T20:48:08Z" changeset="100732850" uid="347293" user="Alexmol">
    <tag k="access" v="customers"/>
    <tag k="addr:country" v="PT"/>
    <tag k="amenity" v="charging_station"/>
    <tag k="authentication:none" v="yes"/>
    <tag k="capacity" v="1"/>
    <tag k="fee" v="no"/>
    <tag k="motorcar" v="yes"/>
    <tag k="name" v="Porsche Destination Charging"/>
    <tag k="network" v="Porsche"/>
    <tag k="operator" v="Porsche"/>
    <tag k="parking:fee" v="no"/>
    <tag k="socket:type2_cable" v="1"/>
    <tag k="socket:type2_cable:current" v="16"/>
    <tag k="socket:type2_cable:output" v="11kW"/>
    <tag k="socket:type2_cable:voltage" v="400"/>
  </node>
</action>
<action type="create">
  <node id="8427068929" lat="37.1029007" lon="-8.6752751" version="3" timestamp="2023-05-27T11:43:29Z" changeset="136621318" uid="12507004" user="Linfindel">
    <tag k="access" v="customers"/>
    <tag k="addr:country" v="PT"/>
    <tag k="amenity" v="charging_station"/>
    <tag k="authentication:none" v="yes"/>
    <tag k="capacity" v="1"/>
    <tag k="fee" v="no"/>
    <tag k="motorcar" v="yes"/>
    <tag k="name" v="Porsche Destination Charging"/>
    <tag k="network" v="Porsche"/>
    <tag k="operator" v="Porsche"/>
    <tag k="operator:wikidata" v="Q40993"/>
    <tag k="parking:fee" v="no"/>
    <tag k="socket:type2_cable" v="1"/>
    <tag k="socket:type2_cable:current" v="16"/>
    <tag k="socket:type2_cable:output" v="11kW"/>
    <tag k="socket:type2_cable:voltage" v="400"/>
  </node>
</action>
<action type="create">
  <node id="8427070603" lat="41.8654941" lon="-8.8481730" version="3" timestamp="2023-07-01T16:05:42Z" changeset="137997956" uid="12507004" user="Linfindel">
    <tag k="access" v="customers"/>
    <tag k="addr:country" v="PT"/>
    <tag k="amenity" v="charging_station"/>
    <tag k="authentication:none" v="yes"/>
    <tag k="capacity" v="2"/>
    <tag k="fee" v="no"/>
    <tag k="motorcar" v="yes"/>
    <tag k="name" v="Porsche Destination Charging"/>
    <tag k="network" v="Porsche"/>
    <tag k="operator" v="Porsche"/>
    <tag k="operator:wikidata" v="Q40993"/>
    <tag k="parking:fee" v="no"/>
    <tag k="socket:type2_cable" v="2"/>
    <tag k="socket:type2_cable:current" v="16"/>
    <tag k="socket:type2_cable:output" v="11kW"/>
    <tag k="socket:type2_cable:voltage" v="400"/>
  </node>
</action>
<action type="create">
  <node id="8688493182" lat="37.1802282" lon="-7.4823935" version="1" timestamp="2021-05-01T17:23:11Z" changeset="103966890" uid="347293" user="Alexmol">
    <tag k="access" v="customers"/>
    <tag k="addr:country" v="PT"/>
    <tag k="amenity" v="charging_station"/>
    <tag k="authentication:none" v="yes"/>
    <tag k="capacity" v="1"/>
    <tag k="fee" v="no"/>
    <tag k="motorcar" v="yes"/>
    <tag k="name" v="Porsche Destination Charging"/>
    <tag k="network" v="Porsche"/>
    <tag k="operator" v="Porsche"/>
    <tag k="parking:fee" v="no"/>
    <tag k="socket:type2_cable" v="1"/>
    <tag k="socket:type2_cable:current" v="16"/>
    <tag k="socket:type2_cable:output" v="11kW"/>
    <tag k="socket:type2_cable:voltage" v="400"/>
  </node>
</action>
<action type="create">
  <node id="11033268442" lat="40.9221151" lon="-8.5699994" version="3" timestamp="2023-08-21T22:50:35Z" changeset="140203093" uid="12612838" user="rui228">
    <tag k="access" v="yes"/>
    <tag k="addr:country" v="PT"/>
    <tag k="amenity" v="charging_station"/>
    <tag k="authentication:membership_card" v="yes"/>
    <tag k="authentication:none" v="no"/>
    <tag k="capacity" v="2"/>
    <tag k="fee" v="yes"/>
    <tag k="maxstay" v="unlimited"/>
    <tag k="motorcar" v="yes"/>
    <tag k="name" v="VFR-00043"/>
    <tag k="network" v="Mobi.E"/>
    <tag k="opening_hours" v="24/7"/>
    <tag k="operator" v="Generation Journey"/>
    <tag k="parking:fee" v="no"/>
    <tag k="payment:app" v="yes"/>
    <tag k="payment:cards" v="no"/>
    <tag k="payment:cash" v="no"/>
    <tag k="payment:membership_card" v="yes"/>
    <tag k="ref" v="VFR-00043"/>
    <tag k="socket:type2" v="2"/>
    <tag k="socket:type2:current" v="32"/>
    <tag k="socket:type2:output" v="22kW"/>
    <tag k="socket:type2:voltage" v="400"/>
    <tag k="website" v="https://www.mobie.pt/"/>
  </node>
</action>
<action type="create">
  <node id="11091139845" lat="40.9333456" lon="-8.5779205" version="3" timestamp="2023-09-16T16:15:08Z" changeset="141349988" uid="347293" user="Alexmol">
    <tag k="access" v="yes"/>
    <tag k="addr:country" v="PT"/>
    <tag k="amenity" v="charging_station"/>
    <tag k="authentication:membership_card" v="yes"/>
    <tag k="authentication:none" v="no"/>
    <tag k="capacity" v="2"/>
    <tag k="fee" v="yes"/>
    <tag k="maxstay" v="unlimited"/>
    <tag k="motorcar" v="yes"/>
    <tag k="name" v="VFR-00075 - Europarque"/>
    <tag k="network" v="Mobi.E"/>
    <tag k="opening_hours" v="24/7"/>
    <tag k="operator" v="Galp Power"/>
    <tag k="parking:fee" v="no"/>
    <tag k="payment:app" v="yes"/>
    <tag k="payment:cards" v="no"/>
    <tag k="payment:cash" v="no"/>
    <tag k="payment:membership_card" v="yes"/>
    <tag k="ref" v="VFR-00075"/>
    <tag k="socket:chademo" v="1"/>
    <tag k="socket:chademo:current" v="120"/>
    <tag k="socket:chademo:output" v="45kW"/>
    <tag k="socket:chademo:voltage" v="500"/>
    <tag k="socket:type2_cable" v="1"/>
    <tag k="socket:type2_cable:current" v="32"/>
    <tag k="socket:type2_cable:output" v="22kW"/>
    <tag k="socket:type2_cable:voltage" v="400"/>
    <tag k="socket:type2_combo" v="1"/>
    <tag k="socket:type2_combo:current" v="150"/>
    <tag k="socket:type2_combo:output" v="45kW"/>
    <tag k="socket:type2_combo:voltage" v="500"/>
    <tag k="website" v="https://www.mobie.pt/"/>
  </node>
</action>
<action type="delete">
<old>
  <node id="11227936821" lat="39.8512820" lon="-8.8669646" version="1" timestamp="2023-09-29T19:23:08Z" changeset="141927417" uid="347293" user="Alexmol">
    <tag k="access" v="customers"/>
    <tag k="addr:country" v="PT"/>
    <tag k="amenity" v="charging_station"/>
    <tag k="authentication:none" v="yes"/>
    <tag k="capacity" v="1"/>
    <tag k="check_date" v="2022-04-14"/>
    <tag k="fee" v="no"/>
    <tag k="motorcar" v="yes"/>
    <tag k="name" v="Porsche Destination Charging"/>
    <tag k="network" v="Porsche"/>
    <tag k="operator" v="Porsche"/>
    <tag k="parking:fee" v="no"/>
    <tag k="socket:type2_cable" v="1"/>
    <tag k="socket:type2_cable:current" v="16"/>
    <tag k="socket:type2_cable:output" v="11kW"/>
    <tag k="socket:type2_cable:voltage" v="400"/>
  </node>
</old>
<new>
  <node id="11227936821" visible="false" version="0" timestamp="0000-00-00T00:00:00Z" changeset="0" uid="0" user=""/>
</new>
</action>

</osm>
