<?xml version="1.0" encoding="UTF-8"?>
<osm version="0.6" generator="Overpass API 0.7.62.4 2390de5a">
<note>The data included in this document is from www.openstreetmap.org. The data is made available under ODbL.</note>
<meta osm_base="2024-12-29T01:49:12Z" areas="2024-12-28T22:33:55Z"/>

<action type="create">
  <node id="8154943186" lat="38.7010009" lon="-9.1757884" version="6" timestamp="2022-05-14T12:09:25Z" changeset="120976521" uid="347293" user="Alexmol">
    <tag k="amenity" v="charging_station"/>
    <tag k="website" v="https://www.mobie.pt"/>
    <tag k="name" v="LSB-00219"/>
    <tag k="access" v="yes"/>
    <tag k="addr:city" v="Lisboa"/>
    <tag k="addr:country" v="PT"/>
    <tag k="authentication:membership_card" v="yes"/>
    <tag k="authentication:none" v="no"/>
    <tag k="capacity" v="2"/>
    <tag k="email" v="ajuda@powerdot.pt"/>
    <tag k="fee" v="yes"/>
    <tag k="maxstay" v="unlimited"/>
    <tag k="motorcar" v="yes"/>
    <tag k="network" v="Mobi.E"/>
    <tag k="opening_hours" v="24/7"/>
    <tag k="operator" v="Powerdot"/>
    <tag k="parking:fee" v="yes"/>
    <tag k="payment:app" v="yes"/>
    <tag k="payment:cards" v="no"/>
    <tag k="payment:cash" v="no"/>
    <tag k="payment:membership_card" v="yes"/>
    <tag k="phone" v="+351 800 180 292"/>
    <tag k="ref" v="LSB-00219"/>
    <tag k="socket:type2_cable" v="2"/>
    <tag k="socket:type2_cable:current" v="63"/>
    <tag k="socket:type2_cable:output" v="43kW"/>
    <tag k="socket:type2_cable:voltage" v="400"/>
  </node>
</action>
<action type="create">
  <node id="8207021262" lat="37.5363296" lon="-8.1829235" version="18" timestamp="2024-04-19T21:14:11Z" changeset="150241197" uid="347293" user="Alexmol">
    <tag k="amenity" v="charging_station"/>
    <tag k="capacity" v="6"/>
    <tag k="website" v="https://www.mobie.pt"/>
    <tag k="name" v="IONITY Almodovar S-N"/>
    <tag k="old_ref" v="ADV-00002;ADV-00003;ADV-00008;ADV-00009;ADV-00010;ADV-00011"/>
    <tag k="socket:type2_combo:voltage" v="1000"/>
    <tag k="socket:type2_combo" v="6"/>
    <tag k="access" v="yes"/>
    <tag k="addr:country" v="PT"/>
    <tag k="authentication:membership_card" v="yes"/>
    <tag k="authentication:none" v="no"/>
    <tag k="brand" v="Ionity"/>
    <tag k="brand:wikidata" v="Q42717773"/>
    <tag k="fee" v="yes"/>
    <tag k="maxstay" v="unlimited"/>
    <tag k="motorcar" v="yes"/>
    <tag k="network" v="Mobi.E;Ionity"/>
    <tag k="opening_hours" v="24/7"/>
    <tag k="operator" v="Ionity"/>
    <tag k="parking:fee" v="no"/>
    <tag k="payment:app" v="yes"/>
    <tag k="payment:cards" v="no"/>
    <tag k="payment:cash" v="no"/>
    <tag k="payment:membership_card" v="yes"/>
    <tag k="ref" v="ADV-00018"/>
    <tag k="socket:type2_combo:current" v="500"/>
    <tag k="socket:type2_combo:output" v="350kW"/>
  </node>
</action>
<action type="create">
  <node id="8207021263" lat="37.5357969" lon="-8.1848212" version="18" timestamp="2024-04-19T21:14:11Z" changeset="150241197" uid="347293" user="Alexmol">
    <tag k="amenity" v="charging_station"/>
    <tag k="capacity" v="6"/>
    <tag k="website" v="https://www.mobie.pt"/>
    <tag k="name" v="IONITY Almodovar N-S"/>
    <tag k="old_ref" v="ADV-00004;ADV-00005:ADV-00012;ADV-00013;ADV-00014;ADV-00015"/>
    <tag k="socket:type2_combo:voltage" v="1000"/>
    <tag k="socket:type2_combo" v="6"/>
    <tag k="access" v="yes"/>
    <tag k="addr:country" v="PT"/>
    <tag k="authentication:membership_card" v="yes"/>
    <tag k="authentication:none" v="no"/>
    <tag k="brand" v="Ionity"/>
    <tag k="brand:wikidata" v="Q42717773"/>
    <tag k="fee" v="yes"/>
    <tag k="maxstay" v="unlimited"/>
    <tag k="motorcar" v="yes"/>
    <tag k="network" v="Mobi.E;Ionity"/>
    <tag k="opening_hours" v="24/7"/>
    <tag k="operator" v="Ionity"/>
    <tag k="parking:fee" v="no"/>
    <tag k="payment:app" v="yes"/>
    <tag k="payment:cards" v="no"/>
    <tag k="payment:cash" v="no"/>
    <tag k="payment:membership_card" v="yes"/>
    <tag k="ref" v="ADV-00017"/>
    <tag k="socket:type2_combo:current" v="500"/>
    <tag k="socket:type2_combo:output" v="350kW"/>
  </node>
</action>
<action type="modify">
<old>
  <node id="8220237394" version="8" timestamp="2024-12-28T17:27:08Z" changeset="160722930" uid="347293" user="Alexmol"/>
</old>
<new>
  <node id="8220237394" lat="38.7010465" lon="-9.1756129" version="6" timestamp="2023-01-07T23:04:14Z" changeset="130998736" uid="347293" user="Alexmol">
    <tag k="amenity" v="charging_station"/>
    <tag k="capacity" v="4"/>
    <tag k="socket:type2_combo:voltage" v="500"/>
    <tag k="name" v="LSB-00574/575 - Power Hub Docas"/>
    <tag k="ref" v="LSB-00574;LSB-00575"/>
    <tag k="socket:chademo" v="2"/>
    <tag k="socket:type2_cable" v="2"/>
    <tag k="socket:type2_combo" v="2"/>
    <tag k="access" v="yes"/>
    <tag k="addr:city" v="Lisboa"/>
    <tag k="addr:country" v="PT"/>
    <tag k="authentication:membership_card" v="yes"/>
    <tag k="authentication:none" v="no"/>
    <tag k="email" v="ajuda@powerdot.pt"/>
    <tag k="fee" v="yes"/>
    <tag k="motorcar" v="yes"/>
    <tag k="network" v="Mobi.E"/>
    <tag k="opening_hours" v="24/7"/>
    <tag k="operator" v="Powerdot"/>
    <tag k="parking:fee" v="no"/>
    <tag k="phone" v="+351 800 180 292"/>
    <tag k="socket:chademo:current" v="120"/>
    <tag k="socket:chademo:output" v="50kW"/>
    <tag k="socket:chademo:voltage" v="500"/>
    <tag k="socket:type2_cable:current" v="63"/>
    <tag k="socket:type2_cable:output" v="43kW"/>
    <tag k="socket:type2_cable:voltage" v="400"/>
    <tag k="socket:type2_combo:current" v="125"/>
    <tag k="socket:type2_combo:output" v="50kW"/>
  </node>
</new>
</action>
<action type="create">
  <node id="8308860880" lat="38.8004954" lon="-7.6610421" version="15" timestamp="2024-04-19T21:14:11Z" changeset="150241197" uid="347293" user="Alexmol">
    <tag k="amenity" v="charging_station"/>
    <tag k="socket:type2_combo:voltage" v="1000"/>
    <tag k="socket:type2_combo:output" v="350kW"/>
    <tag k="capacity" v="2"/>
    <tag k="socket:type2_combo:current" v="500"/>
    <tag k="name" v="IONITY Estremoz L-O"/>
    <tag k="old_ref" v="ETZ-00008;ETZ-00009"/>
    <tag k="ref" v="ETZ-00025"/>
    <tag k="socket:type2_combo" v="2"/>
    <tag k="website" v="https://www.mobie.pt"/>
    <tag k="access" v="yes"/>
    <tag k="addr:country" v="PT"/>
    <tag k="authentication:membership_card" v="yes"/>
    <tag k="authentication:none" v="no"/>
    <tag k="fee" v="yes"/>
    <tag k="maxstay" v="unlimited"/>
    <tag k="motorcar" v="yes"/>
    <tag k="network" v="Mobi.E;Ionity"/>
    <tag k="opening_hours" v="24/7"/>
    <tag k="operator" v="Ionity"/>
    <tag k="parking:fee" v="no"/>
    <tag k="payment:app" v="yes"/>
    <tag k="payment:cards" v="no"/>
    <tag k="payment:cash" v="no"/>
    <tag k="payment:membership_card" v="yes"/>
  </node>
</action>
<action type="create">
  <node id="8308860881" lat="38.7994304" lon="-7.6600188" version="14" timestamp="2024-04-19T21:14:11Z" changeset="150241197" uid="347293" user="Alexmol">
    <tag k="amenity" v="charging_station"/>
    <tag k="capacity" v="2"/>
    <tag k="socket:type2_combo:voltage" v="1000"/>
    <tag k="name" v="IONITY Estremoz O-L"/>
    <tag k="old_ref" v="ETZ-00006;ETZ-00007"/>
    <tag k="socket:type2_combo:output" v="350kW"/>
    <tag k="socket:type2_combo" v="2"/>
    <tag k="website" v="https://www.mobie.pt"/>
    <tag k="access" v="yes"/>
    <tag k="addr:country" v="PT"/>
    <tag k="authentication:membership_card" v="yes"/>
    <tag k="authentication:none" v="no"/>
    <tag k="brand" v="Ionity"/>
    <tag k="brand:wikidata" v="Q42717773"/>
    <tag k="fee" v="yes"/>
    <tag k="maxstay" v="unlimited"/>
    <tag k="motorcar" v="yes"/>
    <tag k="network" v="Mobi.E;Ionity"/>
    <tag k="opening_hours" v="24/7"/>
    <tag k="operator" v="Ionity"/>
    <tag k="parking:fee" v="no"/>
    <tag k="payment:app" v="yes"/>
    <tag k="payment:cards" v="no"/>
    <tag k="payment:cash" v="no"/>
    <tag k="payment:membership_card" v="yes"/>
    <tag k="ref" v="ETZ-00026"/>
    <tag k="socket:type2_combo:current" v="500"/>
  </node>
</action>
<action type="modify">
<old>
  <node id="8449046026" version="7" timestamp="2024-12-28T17:27:08Z" changeset="160722930" uid="347293" user="Alexmol"/>
</old>
<new>
  <node id="8449046026" lat="38.7010339" lon="-9.1757941" version="5" timestamp="2022-05-14T12:09:25Z" changeset="120976521" uid="347293" user="Alexmol">
    <tag k="amenity" v="charging_station"/>
    <tag k="website" v="https://www.mobie.pt"/>
    <tag k="name" v="LSB-00218"/>
    <tag k="access" v="yes"/>
    <tag k="addr:city" v="Lisboa"/>
    <tag k="addr:country" v="PT"/>
    <tag k="authentication:membership_card" v="yes"/>
    <tag k="authentication:none" v="no"/>
    <tag k="capacity" v="2"/>
    <tag k="email" v="ajuda@powerdot.pt"/>
    <tag k="fee" v="yes"/>
    <tag k="maxstay" v="unlimited"/>
    <tag k="motorcar" v="yes"/>
    <tag k="network" v="Mobi.E"/>
    <tag k="opening_hours" v="24/7"/>
    <tag k="operator" v="Powerdot"/>
    <tag k="parking:fee" v="yes"/>
    <tag k="payment:app" v="yes"/>
    <tag k="payment:cards" v="no"/>
    <tag k="payment:cash" v="no"/>
    <tag k="payment:membership_card" v="yes"/>
    <tag k="phone" v="+351 800 180 292"/>
    <tag k="ref" v="LSB-00218"/>
    <tag k="socket:type2_cable" v="2"/>
    <tag k="socket:type2_cable:current" v="32"/>
    <tag k="socket:type2_cable:output" v="22kW"/>
    <tag k="socket:type2_cable:voltage" v="400"/>
  </node>
</new>
</action>
<action type="modify">
<old>
  <node id="10237649028" version="5" timestamp="2024-12-28T17:26:32Z" changeset="160722897" uid="347293" user="Alexmol"/>
</old>
<new>
  <node id="10237649028" lat="38.7885219" lon="-9.1276860" version="3" timestamp="2023-08-12T10:23:48Z" changeset="139781514" uid="347293" user="Alexmol">
    <tag k="amenity" v="charging_station"/>
    <tag k="capacity" v="4"/>
    <tag k="website" v="https://www.mobie.pt/"/>
    <tag k="name" v="LSB-00572/573 - Power Hub Aeroporto"/>
    <tag k="ref" v="LSB-00572;LSB-00573"/>
    <tag k="socket:chademo" v="2"/>
    <tag k="socket:type2_cable" v="2"/>
    <tag k="socket:type2_combo" v="2"/>
    <tag k="access" v="yes"/>
    <tag k="addr:country" v="PT"/>
    <tag k="authentication:membership_card" v="yes"/>
    <tag k="authentication:none" v="no"/>
    <tag k="email" v="ajuda@powerdot.pt"/>
    <tag k="fee" v="yes"/>
    <tag k="maxstay" v="unlimited"/>
    <tag k="motorcar" v="yes"/>
    <tag k="network" v="Mobi.E"/>
    <tag k="opening_hours" v="24/7"/>
    <tag k="operator" v="Powerdot"/>
    <tag k="parking:fee" v="no"/>
    <tag k="payment:app" v="yes"/>
    <tag k="payment:cards" v="no"/>
    <tag k="payment:cash" v="no"/>
    <tag k="payment:membership_card" v="yes"/>
    <tag k="phone" v="+351 800 180 292"/>
    <tag k="socket:chademo:current" v="120"/>
    <tag k="socket:chademo:output" v="50kW"/>
    <tag k="socket:chademo:voltage" v="500"/>
    <tag k="socket:type2_cable:current" v="63"/>
    <tag k="socket:type2_cable:output" v="43kW"/>
    <tag k="socket:type2_cable:voltage" v="400"/>
    <tag k="socket:type2_combo:current" v="125"/>
    <tag k="socket:type2_combo:output" v="50kW"/>
    <tag k="socket:type2_combo:voltage" v="500"/>
  </node>
</new>
</action>
<action type="create">
  <node id="10313632199" lat="41.1539420" lon="-8.6007822" version="2" timestamp="2023-01-07T23:04:14Z" changeset="130998736" uid="347293" user="Alexmol">
    <tag k="amenity" v="charging_station"/>
    <tag k="capacity" v="8"/>
    <tag k="socket:type2_combo:voltage" v="500"/>
    <tag k="name" v="PRT-00164/165/166/167 - Power Hub Bonfim"/>
    <tag k="ref" v="PRT-00164;PRT-00165;PRT-00166;PRT-00167"/>
    <tag k="socket:chademo" v="4"/>
    <tag k="socket:type2_cable" v="4"/>
    <tag k="socket:type2_combo" v="4"/>
    <tag k="access" v="yes"/>
    <tag k="addr:city" v="Maia"/>
    <tag k="addr:country" v="PT"/>
    <tag k="authentication:none" v="no"/>
    <tag k="email" v="ajuda@powerdot.pt"/>
    <tag k="fee" v="yes"/>
    <tag k="motorcar" v="yes"/>
    <tag k="network" v="Mobi.E"/>
    <tag k="opening_hours" v="24/7"/>
    <tag k="operator" v="Powerdot"/>
    <tag k="parking:fee" v="no"/>
    <tag k="phone" v="+351 800 180 292"/>
    <tag k="socket:chademo:current" v="120"/>
    <tag k="socket:chademo:output" v="50kW"/>
    <tag k="socket:chademo:voltage" v="500"/>
    <tag k="socket:type2_cable:current" v="63"/>
    <tag k="socket:type2_cable:output" v="43kW"/>
    <tag k="socket:type2_cable:voltage" v="400"/>
    <tag k="socket:type2_combo:current" v="125"/>
    <tag k="socket:type2_combo:output" v="50kW"/>
  </node>
</action>
<action type="modify">
<old>
  <node id="10313632200" version="4" timestamp="2024-12-28T17:20:07Z" changeset="160722661" uid="347293" user="Alexmol"/>
</old>
<new>
  <node id="10313632200" lat="41.1642555" lon="-8.6417287" version="2" timestamp="2023-01-07T23:04:14Z" changeset="130998736" uid="347293" user="Alexmol">
    <tag k="amenity" v="charging_station"/>
    <tag k="capacity" v="4"/>
    <tag k="socket:type2_combo:voltage" v="500"/>
    <tag k="name" v="PRT-00162/163 - Power Hub Bessa"/>
    <tag k="parking:fee" v="no"/>
    <tag k="ref" v="PRT-00162;PRT-00163"/>
    <tag k="socket:chademo" v="2"/>
    <tag k="socket:type2_cable" v="2"/>
    <tag k="socket:type2_combo" v="2"/>
    <tag k="access" v="yes"/>
    <tag k="addr:city" v="Maia"/>
    <tag k="addr:country" v="PT"/>
    <tag k="authentication:none" v="no"/>
    <tag k="email" v="ajuda@powerdot.pt"/>
    <tag k="fee" v="yes"/>
    <tag k="motorcar" v="yes"/>
    <tag k="network" v="Mobi.E"/>
    <tag k="opening_hours" v="24/7"/>
    <tag k="operator" v="Powerdot"/>
    <tag k="phone" v="+351 800 180 292"/>
    <tag k="socket:chademo:current" v="120"/>
    <tag k="socket:chademo:output" v="50kW"/>
    <tag k="socket:chademo:voltage" v="500"/>
    <tag k="socket:type2_cable:current" v="63"/>
    <tag k="socket:type2_cable:output" v="43kW"/>
    <tag k="socket:type2_cable:voltage" v="400"/>
    <tag k="socket:type2_combo:current" v="125"/>
    <tag k="socket:type2_combo:output" v="50kW"/>
  </node>
</new>
</action>
<action type="delete">
<old>
  <node id="12219380406" lat="38.9779115" lon="-8.9768038" version="2" timestamp="2024-12-28T19:07:50Z" changeset="160726654" uid="347293" user="Alexmol">
    <tag k="access" v="yes"/>
    <tag k="addr:country" v="PT"/>
    <tag k="amenity" v="charging_station"/>
    <tag k="authentication:membership_card" v="yes"/>
    <tag k="authentication:none" v="no"/>
    <tag k="capacity" v="2"/>
    <tag k="fee" v="yes"/>
    <tag k="maxstay" v="unlimited"/>
    <tag k="motorcar" v="yes"/>
    <tag k="name" v="VFX-00080 - Staples"/>
    <tag k="network" v="Mobi.E"/>
    <tag k="opening_hours" v="09:00-20:00"/>
    <tag k="operator" v="EDP"/>
    <tag k="parking:fee" v="no"/>
    <tag k="payment:app" v="yes"/>
    <tag k="payment:cards" v="no"/>
    <tag k="payment:cash" v="no"/>
    <tag k="payment:membership_card" v="yes"/>
    <tag k="ref" v="VFX-00080"/>
    <tag k="socket:type2" v="2"/>
    <tag k="socket:type2:current" v="32"/>
    <tag k="socket:type2:output" v="22kW"/>
    <tag k="socket:type2:voltage" v="400"/>
    <tag k="website" v="https://www.mobie.pt/"/>
  </node>
</old>
<new>
  <node id="12219380406" visible="true" version="1" timestamp="2024-10-03T20:29:39Z" changeset="157436061" uid="347293" user="Alexmol"/>
</new>
</action>
<action type="delete">
<old>
  <node id="12456224740" lat="38.7622147" lon="-9.1136654" version="2" timestamp="2024-12-28T19:03:52Z" changeset="160726540" uid="347293" user="Alexmol">
    <tag k="access" v="yes"/>
    <tag k="addr:country" v="PT"/>
    <tag k="amenity" v="charging_station"/>
    <tag k="authentication:membership_card" v="yes"/>
    <tag k="authentication:none" v="no"/>
    <tag k="capacity" v="4"/>
    <tag k="fee" v="yes"/>
    <tag k="location" v="underground"/>
    <tag k="maxstay" v="unlimited"/>
    <tag k="motorcar" v="yes"/>
    <tag k="name" v="LSB-00850"/>
    <tag k="network" v="Mobi.E"/>
    <tag k="opening_hours" v="Mo-Su 09:00-22:00"/>
    <tag k="operator" v="Powerdot"/>
    <tag k="parking:fee" v="yes"/>
    <tag k="payment:app" v="yes"/>
    <tag k="payment:cards" v="no"/>
    <tag k="payment:cash" v="no"/>
    <tag k="payment:membership_card" v="yes"/>
    <tag k="ref" v="LSB-00850"/>
    <tag k="ref:EU:EVSE" v="PT*HRZ*E*LSB*00850*01;PT*HRZ*E*LSB*00850*02;PT*HRZ*E*LSB*00850*03;PT*HRZ*E*LSB*00850*04"/>
    <tag k="socket:chademo" v="1"/>
    <tag k="socket:chademo:current" v="125"/>
    <tag k="socket:chademo:output" v="50kW"/>
    <tag k="socket:chademo:voltage" v="500"/>
    <tag k="socket:type2_combo" v="3"/>
    <tag k="socket:type2_combo:current" v="250"/>
    <tag k="socket:type2_combo:output" v="200kW"/>
    <tag k="socket:type2_combo:voltage" v="1000"/>
    <tag k="website" v="https://www.mobie.pt"/>
  </node>
</old>
<new>
  <node id="12456224740" visible="true" version="1" timestamp="2024-12-27T16:37:03Z" changeset="160684110" uid="347293" user="Alexmol"/>
</new>
</action>

</osm>
