<?xml version="1.0" encoding="UTF-8"?>
<osm version="0.6" generator="Overpass API 0.7.62.7 375dc00a">
<note>The data included in this document is from www.openstreetmap.org. The data is made available under ODbL.</note>
<meta osm_base="2025-08-05T02:20:28Z" areas="2025-08-04T22:44:15Z"/>

<action type="delete">
<old>
  <node id="7272409829" lat="37.1335145" lon="-8.4543195" version="17" timestamp="2025-08-04T21:01:44Z" changeset="169976616" uid="347293" user="Alexmol">
    <tag k="access" v="yes"/>
    <tag k="addr:country" v="PT"/>
    <tag k="amenity" v="charging_station"/>
    <tag k="authentication:app" v="yes"/>
    <tag k="authentication:membership_card" v="yes"/>
    <tag k="authentication:none" v="no"/>
    <tag k="brand" v="Atlante"/>
    <tag k="brand:wikidata" v="Q126913632"/>
    <tag k="capacity" v="2"/>
    <tag k="email" v="support.portugal@atlante.energy"/>
    <tag k="fee" v="yes"/>
    <tag k="maxstay" v="unlimited"/>
    <tag k="motorcar" v="yes"/>
    <tag k="name" v="LGA-80001"/>
    <tag k="network" v="Mobi.E"/>
    <tag k="old_operator" v="KLC"/>
    <tag k="old_ref" v="LGA-90001"/>
    <tag k="opening_hours" v="24/7"/>
    <tag k="operator" v="Atlante"/>
    <tag k="operator:wikidata" v="Q126913632"/>
    <tag k="parking:fee" v="no"/>
    <tag k="payment:app" v="yes"/>
    <tag k="payment:cards" v="no"/>
    <tag k="payment:cash" v="no"/>
    <tag k="payment:membership_card" v="yes"/>
    <tag k="phone" v="+351 800 296 929;+351 234 246 050"/>
    <tag k="ref" v="LGA-80001"/>
    <tag k="socket:type2" v="2"/>
    <tag k="socket:type2:current" v="32"/>
    <tag k="socket:type2:output" v="22 kW"/>
    <tag k="socket:type2:voltage" v="400"/>
    <tag k="website" v="https://www.mobie.pt"/>
  </node>
</old>
<new>
  <node id="7272409829" visible="true" version="16" timestamp="2025-07-26T13:12:40Z" changeset="169505935" uid="347293" user="Alexmol"/>
</new>
</action>
<action type="create">
  <node id="8225142688" lat="39.8157287" lon="-7.5202891" version="11" timestamp="2025-07-26T13:16:46Z" changeset="169506198" uid="347293" user="Alexmol">
    <tag k="amenity" v="charging_station"/>
    <tag k="website" v="https://www.mobie.pt"/>
    <tag k="socket:type2_combo:voltage" v="500"/>
    <tag k="socket:type2_combo:output" v="50 kW"/>
    <tag k="name" v="CTB-00011 - Auchan"/>
    <tag k="access" v="yes"/>
    <tag k="addr:city" v="Castelo Branco"/>
    <tag k="addr:country" v="PT"/>
    <tag k="authentication:app" v="yes"/>
    <tag k="authentication:membership_card" v="yes"/>
    <tag k="authentication:none" v="no"/>
    <tag k="brand" v="helexia"/>
    <tag k="capacity" v="2"/>
    <tag k="email" v="geral.pt@helexia.eu"/>
    <tag k="fee" v="yes"/>
    <tag k="maxstay" v="unlimited"/>
    <tag k="motorcar" v="yes"/>
    <tag k="network" v="Mobi.E"/>
    <tag k="opening_hours" v="09:00-22:00"/>
    <tag k="operator" v="Helexia II"/>
    <tag k="parking:fee" v="no"/>
    <tag k="payment:app" v="yes"/>
    <tag k="payment:cards" v="no"/>
    <tag k="payment:cash" v="no"/>
    <tag k="payment:membership_card" v="yes"/>
    <tag k="phone" v="+351 210 181 157"/>
    <tag k="ref" v="CTB-00011"/>
    <tag k="socket:chademo" v="1"/>
    <tag k="socket:chademo:current" v="120"/>
    <tag k="socket:chademo:output" v="50 kW"/>
    <tag k="socket:chademo:voltage" v="500"/>
    <tag k="socket:type2_cable" v="1"/>
    <tag k="socket:type2_cable:current" v="63"/>
    <tag k="socket:type2_cable:output" v="43 kW"/>
    <tag k="socket:type2_cable:voltage" v="400"/>
    <tag k="socket:type2_combo" v="1"/>
    <tag k="socket:type2_combo:current" v="125"/>
  </node>
</action>
<action type="create">
  <node id="8228854413" lat="41.1720880" lon="-8.6784064" version="17" timestamp="2025-07-26T13:20:51Z" changeset="169506470" uid="347293" user="Alexmol">
    <tag k="amenity" v="charging_station"/>
    <tag k="capacity" v="3"/>
    <tag k="socket:type2_combo:voltage" v="500"/>
    <tag k="name" v="MTS-00031"/>
    <tag k="website" v="https://www.mobie.pt"/>
    <tag k="access" v="yes"/>
    <tag k="addr:city" v="Matosinhos"/>
    <tag k="addr:country" v="PT"/>
    <tag k="addr:street" v="Estrada Exterior da Circunvalação"/>
    <tag k="authentication:app" v="yes"/>
    <tag k="authentication:membership_card" v="yes"/>
    <tag k="authentication:none" v="no"/>
    <tag k="brand" v="Galp electric"/>
    <tag k="brand:wikidata" v="Q135275520"/>
    <tag k="email" v="veiculoeletrico@galp.com"/>
    <tag k="fee" v="yes"/>
    <tag k="maxstay" v="unlimited"/>
    <tag k="motorcar" v="yes"/>
    <tag k="network" v="Mobi.E"/>
    <tag k="opening_hours" v="24/7"/>
    <tag k="operator" v="Galp Geste"/>
    <tag k="operator:wikidata" v="Q1492739"/>
    <tag k="parking:fee" v="no"/>
    <tag k="payment:app" v="yes"/>
    <tag k="payment:cards" v="no"/>
    <tag k="payment:cash" v="no"/>
    <tag k="payment:membership_card" v="yes"/>
    <tag k="phone" v="+351 800 249 249"/>
    <tag k="ref" v="MTS-00031"/>
    <tag k="ref:EU:EVSE" v="PT*GLG*EMTS*00031*01;PT*GLG*EMTS*00031*02;PT*GLG*EMTS*00031*03"/>
    <tag k="socket:chademo" v="1"/>
    <tag k="socket:chademo:current" v="120"/>
    <tag k="socket:chademo:output" v="50 kW"/>
    <tag k="socket:chademo:voltage" v="500"/>
    <tag k="socket:type2_cable" v="1"/>
    <tag k="socket:type2_cable:current" v="63"/>
    <tag k="socket:type2_cable:output" v="43 kW"/>
    <tag k="socket:type2_cable:voltage" v="400"/>
    <tag k="socket:type2_combo" v="1"/>
    <tag k="socket:type2_combo:current" v="125"/>
    <tag k="socket:type2_combo:output" v="50 kW"/>
  </node>
</action>
<action type="create">
  <node id="8231890496" lat="41.4120811" lon="-8.5136855" version="11" timestamp="2025-07-26T13:20:51Z" changeset="169506470" uid="347293" user="Alexmol">
    <tag k="amenity" v="charging_station"/>
    <tag k="website" v="https://www.mobie.pt"/>
    <tag k="name" v="VNF-00014 - Auchan"/>
    <tag k="access" v="yes"/>
    <tag k="addr:city" v="Vila Nova de Famalicão"/>
    <tag k="addr:country" v="PT"/>
    <tag k="addr:street" v="Avenida do Brasil"/>
    <tag k="authentication:app" v="yes"/>
    <tag k="authentication:membership_card" v="yes"/>
    <tag k="authentication:none" v="no"/>
    <tag k="brand" v="helexia"/>
    <tag k="capacity" v="2"/>
    <tag k="email" v="geral.pt@helexia.eu"/>
    <tag k="fee" v="yes"/>
    <tag k="maxstay" v="unlimited"/>
    <tag k="motorcar" v="yes"/>
    <tag k="network" v="Mobi.E"/>
    <tag k="opening_hours" v="24/7"/>
    <tag k="operator" v="Helexia II"/>
    <tag k="parking:fee" v="no"/>
    <tag k="payment:app" v="yes"/>
    <tag k="payment:cards" v="no"/>
    <tag k="payment:cash" v="no"/>
    <tag k="payment:membership_card" v="yes"/>
    <tag k="phone" v="+351 210 181 157"/>
    <tag k="ref" v="VNF-00014"/>
    <tag k="socket:chademo" v="1"/>
    <tag k="socket:chademo:current" v="120"/>
    <tag k="socket:chademo:output" v="50 kW"/>
    <tag k="socket:chademo:voltage" v="500"/>
    <tag k="socket:type2_cable" v="1"/>
    <tag k="socket:type2_cable:current" v="63"/>
    <tag k="socket:type2_cable:output" v="43 kW"/>
    <tag k="socket:type2_cable:voltage" v="400"/>
    <tag k="socket:type2_combo" v="1"/>
    <tag k="socket:type2_combo:current" v="125"/>
    <tag k="socket:type2_combo:output" v="50 kW"/>
    <tag k="socket:type2_combo:voltage" v="500"/>
  </node>
</action>
<action type="create">
  <node id="8235091592" lat="41.3320273" lon="-8.4770384" version="12" timestamp="2025-07-26T13:20:51Z" changeset="169506470" uid="347293" user="Alexmol">
    <tag k="amenity" v="charging_station"/>
    <tag k="website" v="https://www.mobie.pt"/>
    <tag k="name" v="STS-00004 - Auchan"/>
    <tag k="access" v="yes"/>
    <tag k="addr:city" v="Santo Tirso"/>
    <tag k="addr:country" v="PT"/>
    <tag k="addr:street" v="Rua das Rãs"/>
    <tag k="authentication:app" v="yes"/>
    <tag k="authentication:membership_card" v="yes"/>
    <tag k="authentication:none" v="no"/>
    <tag k="brand" v="helexia"/>
    <tag k="capacity" v="2"/>
    <tag k="email" v="geral.pt@helexia.eu"/>
    <tag k="fee" v="yes"/>
    <tag k="maxstay" v="unlimited"/>
    <tag k="motorcar" v="yes"/>
    <tag k="network" v="Mobi.E"/>
    <tag k="opening_hours" v="24/7"/>
    <tag k="operator" v="Helexia II"/>
    <tag k="parking:fee" v="no"/>
    <tag k="payment:app" v="yes"/>
    <tag k="payment:cards" v="no"/>
    <tag k="payment:cash" v="no"/>
    <tag k="payment:membership_card" v="yes"/>
    <tag k="phone" v="+351 210 181 157"/>
    <tag k="ref" v="STS-00004"/>
    <tag k="socket:chademo" v="1"/>
    <tag k="socket:chademo:current" v="120"/>
    <tag k="socket:chademo:output" v="50 kW"/>
    <tag k="socket:chademo:voltage" v="500"/>
    <tag k="socket:type2_cable" v="1"/>
    <tag k="socket:type2_cable:current" v="63"/>
    <tag k="socket:type2_cable:output" v="43 kW"/>
    <tag k="socket:type2_cable:voltage" v="400"/>
    <tag k="socket:type2_combo" v="1"/>
    <tag k="socket:type2_combo:current" v="125"/>
    <tag k="socket:type2_combo:output" v="50 kW"/>
    <tag k="socket:type2_combo:voltage" v="500"/>
  </node>
</action>
<action type="create">
  <node id="8309569967" lat="41.4120067" lon="-8.5136305" version="11" timestamp="2025-07-26T13:20:51Z" changeset="169506470" uid="347293" user="Alexmol">
    <tag k="amenity" v="charging_station"/>
    <tag k="capacity" v="4"/>
    <tag k="website" v="https://www.mobie.pt"/>
    <tag k="name" v="VNF-00015/16 - Auchan"/>
    <tag k="ref" v="VNF-00015;VNF-00016"/>
    <tag k="socket:type2" v="4"/>
    <tag k="access" v="yes"/>
    <tag k="addr:country" v="PT"/>
    <tag k="authentication:app" v="yes"/>
    <tag k="authentication:membership_card" v="yes"/>
    <tag k="authentication:none" v="no"/>
    <tag k="brand" v="helexia"/>
    <tag k="email" v="geral.pt@helexia.eu"/>
    <tag k="fee" v="yes"/>
    <tag k="maxstay" v="unlimited"/>
    <tag k="motorcar" v="yes"/>
    <tag k="network" v="Mobi.E"/>
    <tag k="opening_hours" v="24/7"/>
    <tag k="operator" v="Helexia II"/>
    <tag k="parking:fee" v="no"/>
    <tag k="payment:app" v="yes"/>
    <tag k="payment:cards" v="no"/>
    <tag k="payment:cash" v="no"/>
    <tag k="payment:membership_card" v="yes"/>
    <tag k="phone" v="+351 210 181 157"/>
    <tag k="socket:type2:current" v="32"/>
    <tag k="socket:type2:output" v="22 kW"/>
    <tag k="socket:type2:voltage" v="400"/>
  </node>
</action>
<action type="create">
  <node id="8380293875" lat="41.3319669" lon="-8.4769902" version="12" timestamp="2025-07-26T13:20:51Z" changeset="169506470" uid="347293" user="Alexmol">
    <tag k="amenity" v="charging_station"/>
    <tag k="capacity" v="4"/>
    <tag k="website" v="https://www.mobie.pt"/>
    <tag k="name" v="STS-00005/6 - Auchan"/>
    <tag k="ref" v="STS-00005;STS-00006"/>
    <tag k="socket:type2" v="4"/>
    <tag k="access" v="yes"/>
    <tag k="addr:country" v="PT"/>
    <tag k="authentication:app" v="yes"/>
    <tag k="authentication:membership_card" v="yes"/>
    <tag k="authentication:none" v="no"/>
    <tag k="brand" v="helexia"/>
    <tag k="email" v="geral.pt@helexia.eu"/>
    <tag k="fee" v="yes"/>
    <tag k="maxstay" v="unlimited"/>
    <tag k="motorcar" v="yes"/>
    <tag k="network" v="Mobi.E"/>
    <tag k="opening_hours" v="24/7"/>
    <tag k="operator" v="Helexia II"/>
    <tag k="parking:fee" v="no"/>
    <tag k="payment:app" v="yes"/>
    <tag k="payment:cards" v="no"/>
    <tag k="payment:cash" v="no"/>
    <tag k="payment:membership_card" v="yes"/>
    <tag k="phone" v="+351 210 181 157"/>
    <tag k="socket:type2:current" v="32"/>
    <tag k="socket:type2:output" v="22 kW"/>
    <tag k="socket:type2:voltage" v="400"/>
  </node>
</action>
<action type="modify">
<old>
  <node id="8403134574" version="12" timestamp="2025-08-04T19:01:38Z" changeset="169972332" uid="347293" user="Alexmol"/>
</old>
<new>
  <node id="8403134574" lat="39.8156967" lon="-7.5203133" version="11" timestamp="2025-07-26T13:16:46Z" changeset="169506198" uid="347293" user="Alexmol">
    <tag k="amenity" v="charging_station"/>
    <tag k="capacity" v="4"/>
    <tag k="website" v="https://www.mobie.pt"/>
    <tag k="socket:type2:voltage" v="400"/>
    <tag k="socket:type2:output" v="22 kW"/>
    <tag k="name" v="CTB-00012/13 - Auchan"/>
    <tag k="ref" v="CTB-00012;CTB-00013"/>
    <tag k="socket:type2" v="4"/>
    <tag k="access" v="yes"/>
    <tag k="addr:country" v="PT"/>
    <tag k="authentication:app" v="yes"/>
    <tag k="authentication:membership_card" v="yes"/>
    <tag k="authentication:none" v="no"/>
    <tag k="brand" v="helexia"/>
    <tag k="email" v="geral.pt@helexia.eu"/>
    <tag k="fee" v="yes"/>
    <tag k="maxstay" v="unlimited"/>
    <tag k="motorcar" v="yes"/>
    <tag k="network" v="Mobi.E"/>
    <tag k="opening_hours" v="09:00-22:00"/>
    <tag k="operator" v="Helexia II"/>
    <tag k="parking:fee" v="no"/>
    <tag k="payment:app" v="yes"/>
    <tag k="payment:cards" v="no"/>
    <tag k="payment:cash" v="no"/>
    <tag k="payment:membership_card" v="yes"/>
    <tag k="phone" v="+351 210 181 157"/>
    <tag k="socket:type2:current" v="32"/>
  </node>
</new>
</action>
<action type="create">
  <node id="9456391416" lat="40.2755169" lon="-8.4455869" version="4" timestamp="2025-07-26T13:17:51Z" changeset="169506286" uid="347293" user="Alexmol">
    <tag k="amenity" v="charging_station"/>
    <tag k="capacity" v="3"/>
    <tag k="socket:type2_combo:voltage" v="500"/>
    <tag k="name" v="Bomcar Automóveis"/>
    <tag k="socket:type2" v="2"/>
    <tag k="socket:type2:current" v="32"/>
    <tag k="socket:type2:output" v="22 kW"/>
    <tag k="socket:type2:voltage" v="400"/>
    <tag k="access" v="customers"/>
    <tag k="addr:country" v="PT"/>
    <tag k="motorcar" v="yes"/>
    <tag k="no:network" v="yes"/>
    <tag k="operator" v="Bomcar Automóveis"/>
    <tag k="socket:type2_combo" v="1"/>
    <tag k="socket:type2_combo:current" v="125"/>
    <tag k="socket:type2_combo:output" v="50 kW"/>
  </node>
</action>
<action type="create">
  <node id="9975732692" lat="39.4155550" lon="-9.2437894" version="9" timestamp="2025-07-26T13:17:11Z" changeset="169506235" uid="347293" user="Alexmol">
    <tag k="amenity" v="charging_station"/>
    <tag k="capacity" v="4"/>
    <tag k="website" v="https://www.mobie.pt/"/>
    <tag k="name" v="OBD-00013/14/15 - West Cliffs Ocean and Golf"/>
    <tag k="ref" v="OBD-00013;OBD-00014;OBD-00015"/>
    <tag k="socket:chademo" v="1"/>
    <tag k="socket:chademo:current" v="125"/>
    <tag k="socket:chademo:output" v="50 kW"/>
    <tag k="socket:chademo:voltage" v="500"/>
    <tag k="socket:type2" v="2"/>
    <tag k="socket:type2:current" v="32"/>
    <tag k="socket:type2:output" v="7.4 kW"/>
    <tag k="socket:type2:voltage" v="230"/>
    <tag k="access" v="yes"/>
    <tag k="addr:country" v="PT"/>
    <tag k="authentication:app" v="yes"/>
    <tag k="authentication:membership_card" v="yes"/>
    <tag k="authentication:none" v="no"/>
    <tag k="brand" v="helexia"/>
    <tag k="email" v="geral.pt@helexia.eu"/>
    <tag k="fee" v="yes"/>
    <tag k="maxstay" v="unlimited"/>
    <tag k="motorcar" v="yes"/>
    <tag k="network" v="Mobi.E"/>
    <tag k="opening_hours" v="24/7"/>
    <tag k="operator" v="Helexia II"/>
    <tag k="parking:fee" v="no"/>
    <tag k="payment:app" v="yes"/>
    <tag k="payment:cards" v="no"/>
    <tag k="payment:cash" v="no"/>
    <tag k="payment:membership_card" v="yes"/>
    <tag k="phone" v="+351 210 181 157"/>
    <tag k="socket:type2_combo" v="1"/>
    <tag k="socket:type2_combo:current" v="250"/>
    <tag k="socket:type2_combo:output" v="100 kW"/>
    <tag k="socket:type2_combo:voltage" v="1000"/>
  </node>
</action>
<action type="create">
  <node id="9975732693" lat="39.3856717" lon="-9.2826522" version="8" timestamp="2025-07-26T13:17:11Z" changeset="169506235" uid="347293" user="Alexmol">
    <tag k="amenity" v="charging_station"/>
    <tag k="capacity" v="4"/>
    <tag k="website" v="https://www.mobie.pt/"/>
    <tag k="name" v="OBD-00010/11/12 - Praia D'El Rey Golf"/>
    <tag k="ref" v="OBD-00010;OBD-00011;OBD-00012"/>
    <tag k="socket:type2" v="2"/>
    <tag k="socket:type2:current" v="32"/>
    <tag k="socket:type2:output" v="7.4 kW"/>
    <tag k="socket:type2:voltage" v="230"/>
    <tag k="access" v="yes"/>
    <tag k="addr:country" v="PT"/>
    <tag k="authentication:app" v="yes"/>
    <tag k="authentication:membership_card" v="yes"/>
    <tag k="authentication:none" v="no"/>
    <tag k="brand" v="helexia"/>
    <tag k="email" v="geral.pt@helexia.eu"/>
    <tag k="fee" v="yes"/>
    <tag k="maxstay" v="unlimited"/>
    <tag k="motorcar" v="yes"/>
    <tag k="network" v="Mobi.E"/>
    <tag k="opening_hours" v="24/7"/>
    <tag k="operator" v="Helexia II"/>
    <tag k="parking:fee" v="no"/>
    <tag k="payment:app" v="yes"/>
    <tag k="payment:cards" v="no"/>
    <tag k="payment:cash" v="no"/>
    <tag k="payment:membership_card" v="yes"/>
    <tag k="phone" v="+351 210 181 157"/>
    <tag k="socket:chademo" v="1"/>
    <tag k="socket:chademo:current" v="120"/>
    <tag k="socket:chademo:output" v="50 kW"/>
    <tag k="socket:chademo:voltage" v="500"/>
    <tag k="socket:type2_combo" v="1"/>
    <tag k="socket:type2_combo:current" v="125"/>
    <tag k="socket:type2_combo:output" v="50 kW"/>
    <tag k="socket:type2_combo:voltage" v="500"/>
  </node>
</action>
<action type="create">
  <node id="10157924952" lat="39.3899489" lon="-9.2875895" version="9" timestamp="2025-07-26T13:17:11Z" changeset="169506235" uid="347293" user="Alexmol">
    <tag k="amenity" v="charging_station"/>
    <tag k="capacity" v="4"/>
    <tag k="website" v="https://www.mobie.pt/"/>
    <tag k="name" v="OBD-00016/17/18 - Marriott"/>
    <tag k="ref" v="OBD-00016;OBD-00017;OBD-00018"/>
    <tag k="socket:type2" v="2"/>
    <tag k="socket:type2:current" v="32"/>
    <tag k="socket:type2:output" v="7.4 kW"/>
    <tag k="socket:type2:voltage" v="230"/>
    <tag k="access" v="yes"/>
    <tag k="addr:country" v="PT"/>
    <tag k="authentication:app" v="yes"/>
    <tag k="authentication:membership_card" v="yes"/>
    <tag k="authentication:none" v="no"/>
    <tag k="brand" v="helexia"/>
    <tag k="email" v="geral.pt@helexia.eu"/>
    <tag k="fee" v="yes"/>
    <tag k="maxstay" v="unlimited"/>
    <tag k="motorcar" v="yes"/>
    <tag k="network" v="Mobi.E"/>
    <tag k="opening_hours" v="24/7"/>
    <tag k="operator" v="Helexia II"/>
    <tag k="parking:fee" v="no"/>
    <tag k="payment:app" v="yes"/>
    <tag k="payment:cards" v="no"/>
    <tag k="payment:cash" v="no"/>
    <tag k="payment:membership_card" v="yes"/>
    <tag k="phone" v="+351 210 181 157"/>
    <tag k="socket:type2_combo" v="2"/>
    <tag k="socket:type2_combo:current" v="250"/>
    <tag k="socket:type2_combo:output" v="100 kW"/>
    <tag k="socket:type2_combo:voltage" v="1000"/>
  </node>
</action>
<action type="modify">
<old>
  <node id="10261279410" version="11" timestamp="2025-08-04T21:19:30Z" changeset="169977196" uid="347293" user="Alexmol"/>
</old>
<new>
  <node id="10261279410" lat="41.1720885" lon="-8.6783355" version="10" timestamp="2025-07-26T13:20:51Z" changeset="169506470" uid="347293" user="Alexmol">
    <tag k="website" v="https://www.mobie.pt/"/>
    <tag k="ref" v="MTS-00094"/>
    <tag k="amenity" v="charging_station"/>
    <tag k="phone" v="+351 800 249 249"/>
    <tag k="name" v="MTS-00094"/>
    <tag k="ref:EU:EVSE" v="PT*GLG*EMTS*00094*01;PT*GLG*EMTS*00094*02"/>
    <tag k="socket:type2_combo" v="2"/>
    <tag k="socket:type2_combo:current" v="250"/>
    <tag k="socket:type2_combo:output" v="120 kW"/>
    <tag k="socket:type2_combo:voltage" v="1000"/>
    <tag k="access" v="yes"/>
    <tag k="addr:country" v="PT"/>
    <tag k="authentication:app" v="yes"/>
    <tag k="authentication:membership_card" v="yes"/>
    <tag k="authentication:none" v="no"/>
    <tag k="brand" v="Galp electric"/>
    <tag k="brand:wikidata" v="Q135275520"/>
    <tag k="capacity" v="2"/>
    <tag k="email" v="veiculoeletrico@galp.com"/>
    <tag k="fee" v="yes"/>
    <tag k="maxstay" v="unlimited"/>
    <tag k="motorcar" v="yes"/>
    <tag k="network" v="Mobi.E"/>
    <tag k="opening_hours" v="24/7"/>
    <tag k="operator" v="Galp Geste"/>
    <tag k="operator:wikidata" v="Q1492739"/>
    <tag k="parking:fee" v="no"/>
    <tag k="payment:app" v="yes"/>
    <tag k="payment:cards" v="no"/>
    <tag k="payment:cash" v="no"/>
    <tag k="payment:membership_card" v="yes"/>
  </node>
</new>
</action>
<action type="create">
  <node id="11278275602" lat="39.7538648" lon="-8.8010863" version="6" timestamp="2025-07-26T13:17:11Z" changeset="169506235" uid="347293" user="Alexmol">
    <tag k="amenity" v="charging_station"/>
    <tag k="capacity" v="3"/>
    <tag k="website" v="https://www.mobie.pt/"/>
    <tag k="name" v="LRA-00096/97"/>
    <tag k="ref" v="LRA-00096;LRA-00097"/>
    <tag k="socket:type2" v="2"/>
    <tag k="socket:type2:current" v="32"/>
    <tag k="socket:type2:output" v="22 kW"/>
    <tag k="socket:type2:voltage" v="400"/>
    <tag k="access" v="yes"/>
    <tag k="addr:country" v="PT"/>
    <tag k="authentication:app" v="yes"/>
    <tag k="authentication:membership_card" v="yes"/>
    <tag k="authentication:none" v="no"/>
    <tag k="brand" v="helexia"/>
    <tag k="email" v="geral.pt@helexia.eu"/>
    <tag k="fee" v="yes"/>
    <tag k="maxstay" v="unlimited"/>
    <tag k="motorcar" v="yes"/>
    <tag k="network" v="Mobi.E"/>
    <tag k="opening_hours" v="24/7"/>
    <tag k="operator" v="Helexia II"/>
    <tag k="parking:fee" v="no"/>
    <tag k="payment:app" v="yes"/>
    <tag k="payment:cards" v="no"/>
    <tag k="payment:cash" v="no"/>
    <tag k="payment:membership_card" v="yes"/>
    <tag k="phone" v="+351 210 181 157"/>
    <tag k="socket:chademo" v="1"/>
    <tag k="socket:chademo:current" v="120"/>
    <tag k="socket:chademo:output" v="50 kW"/>
    <tag k="socket:chademo:voltage" v="500"/>
    <tag k="socket:type2_combo" v="1"/>
    <tag k="socket:type2_combo:current" v="125"/>
    <tag k="socket:type2_combo:output" v="50 kW"/>
    <tag k="socket:type2_combo:voltage" v="500"/>
  </node>
</action>
<action type="delete">
<old>
  <node id="11349894185" lat="38.7948520" lon="-9.1035223" version="13" timestamp="2025-08-04T15:12:11Z" changeset="169962072" uid="347293" user="Alexmol">
    <tag k="access" v="yes"/>
    <tag k="addr:country" v="PT"/>
    <tag k="amenity" v="charging_station"/>
    <tag k="authentication:app" v="yes"/>
    <tag k="authentication:membership_card" v="yes"/>
    <tag k="authentication:none" v="no"/>
    <tag k="brand" v="edp Charge"/>
    <tag k="brand:wikidata" v="Q135275389"/>
    <tag k="capacity" v="2"/>
    <tag k="fee" v="yes"/>
    <tag k="maxstay" v="unlimited"/>
    <tag k="motorcar" v="yes"/>
    <tag k="name" v="LRS-00131"/>
    <tag k="network" v="Mobi.E"/>
    <tag k="old_operator" v="KLC Serviços"/>
    <tag k="old_ref" v="LRS-00097"/>
    <tag k="opening_hours" v="24/7"/>
    <tag k="operator" v="EDP"/>
    <tag k="operator:wikidata" v="Q1341222"/>
    <tag k="parking:fee" v="no"/>
    <tag k="payment:app" v="yes"/>
    <tag k="payment:cards" v="no"/>
    <tag k="payment:cash" v="no"/>
    <tag k="payment:membership_card" v="yes"/>
    <tag k="phone" v="+351 800 222 222"/>
    <tag k="ref" v="LRS-00131"/>
    <tag k="socket:chademo" v="1"/>
    <tag k="socket:chademo:current" v="125"/>
    <tag k="socket:chademo:output" v="50 kW"/>
    <tag k="socket:chademo:voltage" v="500"/>
    <tag k="socket:type2_cable" v="1"/>
    <tag k="socket:type2_cable:current" v="32"/>
    <tag k="socket:type2_cable:output" v="22 kW"/>
    <tag k="socket:type2_cable:voltage" v="400"/>
    <tag k="socket:type2_combo" v="1"/>
    <tag k="socket:type2_combo:current" v="125"/>
    <tag k="socket:type2_combo:output" v="60 kW"/>
    <tag k="socket:type2_combo:voltage" v="500"/>
    <tag k="website" v="https://www.mobie.pt"/>
  </node>
</old>
<new>
  <node id="11349894185" visible="true" version="12" timestamp="2025-07-27T17:20:15Z" changeset="169571235" uid="347293" user="Alexmol"/>
</new>
</action>
<action type="create">
  <node id="12050811583" lat="40.1976940" lon="-8.4330830" version="6" timestamp="2025-07-26T13:17:51Z" changeset="169506286" uid="347293" user="Alexmol">
    <tag k="amenity" v="charging_station"/>
    <tag k="capacity" v="4"/>
    <tag k="website" v="https://www.mobie.pt/"/>
    <tag k="socket:type2_combo:voltage" v="1000"/>
    <tag k="name" v="CBR-00110/111"/>
    <tag k="ref" v="CBR-00110;CBR-00111"/>
    <tag k="socket:type2" v="2"/>
    <tag k="socket:type2:current" v="32"/>
    <tag k="socket:type2:output" v="22 kW"/>
    <tag k="socket:type2:voltage" v="400"/>
    <tag k="access" v="yes"/>
    <tag k="addr:country" v="PT"/>
    <tag k="authentication:app" v="yes"/>
    <tag k="authentication:membership_card" v="yes"/>
    <tag k="authentication:none" v="no"/>
    <tag k="brand" v="helexia"/>
    <tag k="email" v="geral.pt@helexia.eu"/>
    <tag k="fee" v="yes"/>
    <tag k="maxstay" v="unlimited"/>
    <tag k="motorcar" v="yes"/>
    <tag k="network" v="Mobi.E"/>
    <tag k="opening_hours" v="24/7"/>
    <tag k="operator" v="Helexia II"/>
    <tag k="parking:fee" v="yes"/>
    <tag k="payment:app" v="yes"/>
    <tag k="payment:cards" v="no"/>
    <tag k="payment:cash" v="no"/>
    <tag k="payment:membership_card" v="yes"/>
    <tag k="phone" v="+351 210 181 157"/>
    <tag k="socket:type2_combo" v="2"/>
    <tag k="socket:type2_combo:current" v="150"/>
    <tag k="socket:type2_combo:output" v="50 kW"/>
  </node>
</action>
<action type="create">
  <node id="12063761613" lat="41.1855780" lon="-8.5589990" version="6" timestamp="2025-07-26T13:20:51Z" changeset="169506470" uid="347293" user="Alexmol">
    <tag k="amenity" v="charging_station"/>
    <tag k="capacity" v="4"/>
    <tag k="website" v="https://www.mobie.pt/"/>
    <tag k="name" v="GDM-00048/49"/>
    <tag k="ref" v="GDM-00048;GDM-00049"/>
    <tag k="socket:type2" v="2"/>
    <tag k="socket:type2:current" v="32"/>
    <tag k="socket:type2:output" v="22 kW"/>
    <tag k="socket:type2:voltage" v="400"/>
    <tag k="access" v="yes"/>
    <tag k="addr:country" v="PT"/>
    <tag k="authentication:app" v="yes"/>
    <tag k="authentication:membership_card" v="yes"/>
    <tag k="authentication:none" v="no"/>
    <tag k="brand" v="helexia"/>
    <tag k="email" v="geral.pt@helexia.eu"/>
    <tag k="fee" v="yes"/>
    <tag k="maxstay" v="unlimited"/>
    <tag k="motorcar" v="yes"/>
    <tag k="network" v="Mobi.E"/>
    <tag k="opening_hours" v="09:00-21:00"/>
    <tag k="operator" v="Helexia II"/>
    <tag k="parking:fee" v="yes"/>
    <tag k="payment:app" v="yes"/>
    <tag k="payment:cards" v="no"/>
    <tag k="payment:cash" v="no"/>
    <tag k="payment:membership_card" v="yes"/>
    <tag k="phone" v="+351 210 181 157"/>
    <tag k="socket:type2_combo" v="1"/>
    <tag k="socket:type2_combo:current" v="125"/>
    <tag k="socket:type2_combo:output" v="50 kW"/>
    <tag k="socket:type2_combo:voltage" v="1000"/>
  </node>
</action>
<action type="create">
  <node id="12437786802" lat="41.1458237" lon="-8.6241552" version="7" timestamp="2025-07-26T13:20:28Z" changeset="169506440" uid="347293" user="Alexmol">
    <tag k="amenity" v="charging_station"/>
    <tag k="website" v="https://www.mobie.pt/"/>
    <tag k="access" v="yes"/>
    <tag k="addr:country" v="PT"/>
    <tag k="authentication:app" v="yes"/>
    <tag k="authentication:membership_card" v="yes"/>
    <tag k="authentication:none" v="no"/>
    <tag k="brand" v="helexia"/>
    <tag k="capacity" v="1"/>
    <tag k="email" v="geral.pt@helexia.eu"/>
    <tag k="fee" v="yes"/>
    <tag k="maxstay" v="unlimited"/>
    <tag k="motorcar" v="yes"/>
    <tag k="network" v="Mobi.E"/>
    <tag k="opening_hours" v="24/7"/>
    <tag k="operator" v="Helexia II"/>
    <tag k="parking:fee" v="yes"/>
    <tag k="payment:app" v="yes"/>
    <tag k="payment:cards" v="no"/>
    <tag k="payment:cash" v="no"/>
    <tag k="payment:membership_card" v="yes"/>
    <tag k="phone" v="+351 210 181 157"/>
    <tag k="ref" v="PRT-00256"/>
    <tag k="ref:EU:EVSE" v="PT*HLX*E*PRT*00256*01"/>
    <tag k="socket:type2" v="1"/>
    <tag k="socket:type2:current" v="32"/>
    <tag k="socket:type2:output" v="22 kW"/>
    <tag k="socket:type2:voltage" v="400"/>
  </node>
</action>
<action type="create">
  <node id="12510666549" lat="41.1458219" lon="-8.6241837" version="6" timestamp="2025-07-26T13:20:28Z" changeset="169506440" uid="347293" user="Alexmol">
    <tag k="amenity" v="charging_station"/>
    <tag k="website" v="https://www.mobie.pt/"/>
    <tag k="access" v="yes"/>
    <tag k="addr:country" v="PT"/>
    <tag k="authentication:app" v="yes"/>
    <tag k="authentication:membership_card" v="yes"/>
    <tag k="authentication:none" v="no"/>
    <tag k="brand" v="helexia"/>
    <tag k="capacity" v="1"/>
    <tag k="email" v="geral.pt@helexia.eu"/>
    <tag k="fee" v="yes"/>
    <tag k="maxstay" v="unlimited"/>
    <tag k="motorcar" v="yes"/>
    <tag k="network" v="Mobi.E"/>
    <tag k="opening_hours" v="24/7"/>
    <tag k="operator" v="Helexia II"/>
    <tag k="parking:fee" v="yes"/>
    <tag k="payment:app" v="yes"/>
    <tag k="payment:cards" v="no"/>
    <tag k="payment:cash" v="no"/>
    <tag k="payment:membership_card" v="yes"/>
    <tag k="phone" v="+351 210 181 157"/>
    <tag k="ref" v="PRT-00255"/>
    <tag k="ref:EU:EVSE" v="PT*HLX*E*PRT*00255*01"/>
    <tag k="socket:type2" v="1"/>
    <tag k="socket:type2:current" v="32"/>
    <tag k="socket:type2:output" v="22 kW"/>
    <tag k="socket:type2:voltage" v="400"/>
  </node>
</action>
<action type="create">
  <node id="12510706327" lat="41.1458255" lon="-8.6241268" version="6" timestamp="2025-07-26T13:20:28Z" changeset="169506440" uid="347293" user="Alexmol">
    <tag k="amenity" v="charging_station"/>
    <tag k="capacity" v="2"/>
    <tag k="website" v="https://www.mobie.pt/"/>
    <tag k="access" v="yes"/>
    <tag k="addr:country" v="PT"/>
    <tag k="authentication:app" v="yes"/>
    <tag k="authentication:membership_card" v="yes"/>
    <tag k="authentication:none" v="no"/>
    <tag k="brand" v="helexia"/>
    <tag k="email" v="geral.pt@helexia.eu"/>
    <tag k="fee" v="yes"/>
    <tag k="maxstay" v="unlimited"/>
    <tag k="motorcar" v="yes"/>
    <tag k="network" v="Mobi.E"/>
    <tag k="opening_hours" v="24/7"/>
    <tag k="operator" v="Helexia II"/>
    <tag k="parking:fee" v="yes"/>
    <tag k="payment:app" v="yes"/>
    <tag k="payment:cards" v="no"/>
    <tag k="payment:cash" v="no"/>
    <tag k="payment:membership_card" v="yes"/>
    <tag k="phone" v="+351 210 181 157"/>
    <tag k="ref" v="PRT-00257"/>
    <tag k="ref:EU:EVSE" v="PT*HLX*E*PRT*00257*01;PT*HLX*E*PRT*00257*02"/>
    <tag k="socket:chademo" v="1"/>
    <tag k="socket:chademo:current" v="60"/>
    <tag k="socket:chademo:output" v="25 kW"/>
    <tag k="socket:chademo:voltage" v="500"/>
    <tag k="socket:type2_combo" v="1"/>
    <tag k="socket:type2_combo:current" v="60"/>
    <tag k="socket:type2_combo:output" v="25 kW"/>
    <tag k="socket:type2_combo:voltage" v="1000"/>
  </node>
</action>

</osm>
