<?xml version="1.0" encoding="UTF-8"?>
<osm version="0.6" generator="Overpass API 0.7.62.5 1bd436f1">
<note>The data included in this document is from www.openstreetmap.org. The data is made available under ODbL.</note>
<meta osm_base="2025-04-07T01:53:12Z" areas="2024-12-31T00:49:33Z"/>

<action type="create">
  <node id="6966131935" lat="37.0167049" lon="-7.9345416" version="8" timestamp="2022-04-22T22:57:19Z" changeset="120071909" uid="8339" user="mtmail">
    <tag k="amenity" v="charging_station"/>
    <tag k="capacity" v="4"/>
    <tag k="website" v="https://www.tesla.com/pt_PT/findus/list/chargers/Portugal"/>
    <tag k="name" v="Hotel Faro Tesla Destination Charger"/>
    <tag k="short_name" v="Tesla"/>
    <tag k="socket:tesla_destination" v="2"/>
    <tag k="socket:type2_cable" v="2"/>
    <tag k="socket:type2_cable:output" v="22kW"/>
    <tag k="access" v="customers"/>
    <tag k="addr:country" v="PT"/>
    <tag k="addr:postcode" v="8000-168"/>
    <tag k="brand" v="Tesla, Inc."/>
    <tag k="brand:wikidata" v="Q478214"/>
    <tag k="brand:wikipedia" v="en:Tesla, Inc."/>
    <tag k="fee" v="no"/>
    <tag k="motorcar" v="yes"/>
    <tag k="network" v="Tesla"/>
    <tag k="operator" v="Tesla"/>
    <tag k="phone" v="+351 289 830 830"/>
    <tag k="ref" v="dc40070"/>
    <tag k="socket:tesla_destination:output" v="22kW"/>
  </node>
</action>
<action type="create">
  <node id="7126741218" lat="37.0123920" lon="-7.9327472" version="10" timestamp="2023-10-03T21:43:17Z" changeset="142119116" uid="347293" user="Alexmol">
    <tag k="amenity" v="charging_station"/>
    <tag k="capacity" v="4"/>
    <tag k="website" v="https://www.mobie.pt"/>
    <tag k="name" v="FAR-00001 - Largo de S찾o Francisco"/>
    <tag k="socket:type2" v="4"/>
    <tag k="access" v="yes"/>
    <tag k="addr:city" v="Faro"/>
    <tag k="addr:country" v="PT"/>
    <tag k="addr:street" v="Largo de S찾o Francisco"/>
    <tag k="authentication:membership_card" v="yes"/>
    <tag k="authentication:none" v="no"/>
    <tag k="email" v="ajuda@powerdot.pt"/>
    <tag k="fee" v="yes"/>
    <tag k="maxstay" v="unlimited"/>
    <tag k="motorcar" v="yes"/>
    <tag k="network" v="Mobi.E"/>
    <tag k="opening_hours" v="24/7"/>
    <tag k="operator" v="Powerdot"/>
    <tag k="parking:fee" v="no"/>
    <tag k="payment:app" v="yes"/>
    <tag k="payment:cards" v="no"/>
    <tag k="payment:cash" v="no"/>
    <tag k="payment:membership_card" v="yes"/>
    <tag k="phone" v="+351 800 180 292"/>
    <tag k="ref" v="FAR-90001"/>
    <tag k="socket:type2:current" v="16"/>
    <tag k="socket:type2:output" v="3.7kW"/>
    <tag k="socket:type2:voltage" v="230"/>
  </node>
</action>
<action type="create">
  <node id="7126770376" lat="37.0429043" lon="-7.9706022" version="16" timestamp="2024-09-25T21:12:26Z" changeset="157102031" uid="347293" user="Alexmol">
    <tag k="amenity" v="charging_station"/>
    <tag k="capacity" v="4"/>
    <tag k="website" v="https://www.mobie.pt"/>
    <tag k="name" v="FAR-00007 - Campus de Gambelas"/>
    <tag k="socket:type2" v="4"/>
    <tag k="access" v="yes"/>
    <tag k="addr:city" v="Faro"/>
    <tag k="addr:country" v="PT"/>
    <tag k="addr:street" v="Rua dos Malmequeres"/>
    <tag k="authentication:membership_card" v="yes"/>
    <tag k="authentication:none" v="no"/>
    <tag k="email" v="mobilidade-eletrica@edp.pt"/>
    <tag k="fee" v="yes"/>
    <tag k="maxstay" v="unlimited"/>
    <tag k="motorcar" v="yes"/>
    <tag k="network" v="Mobi.E"/>
    <tag k="opening_hours" v="24/7"/>
    <tag k="operator" v="EDP"/>
    <tag k="operator:wikidata" v="Q1341222"/>
    <tag k="parking:fee" v="no"/>
    <tag k="payment:app" v="yes"/>
    <tag k="payment:cards" v="no"/>
    <tag k="payment:cash" v="no"/>
    <tag k="payment:membership_card" v="yes"/>
    <tag k="phone" v="+351 800 222 222"/>
    <tag k="ref" v="FAR-90007"/>
    <tag k="socket:type2:current" v="16"/>
    <tag k="socket:type2:output" v="3.7kW"/>
    <tag k="socket:type2:voltage" v="230"/>
  </node>
</action>
<action type="create">
  <node id="7126770377" lat="37.0287501" lon="-7.9246419" version="14" timestamp="2024-05-20T22:07:19Z" changeset="151602196" uid="347293" user="Alexmol">
    <tag k="amenity" v="charging_station"/>
    <tag k="capacity" v="4"/>
    <tag k="website" v="https://www.mobie.pt"/>
    <tag k="name" v="FAR-80006 - Campus da Penha"/>
    <tag k="socket:type2" v="4"/>
    <tag k="access" v="yes"/>
    <tag k="addr:city" v="Faro"/>
    <tag k="addr:country" v="PT"/>
    <tag k="addr:street" v="Estrada da Penha"/>
    <tag k="authentication:membership_card" v="yes"/>
    <tag k="authentication:none" v="no"/>
    <tag k="email" v="support.portugal@atlante.energy"/>
    <tag k="fee" v="yes"/>
    <tag k="maxstay" v="unlimited"/>
    <tag k="motorcar" v="yes"/>
    <tag k="network" v="Mobi.E"/>
    <tag k="old_operator" v="KLC"/>
    <tag k="old_ref" v="FAR-90006"/>
    <tag k="opening_hours" v="24/7"/>
    <tag k="operator" v="Atlante"/>
    <tag k="parking:fee" v="no"/>
    <tag k="payment:app" v="yes"/>
    <tag k="payment:cards" v="no"/>
    <tag k="payment:cash" v="no"/>
    <tag k="payment:membership_card" v="yes"/>
    <tag k="phone" v="+351 800 296 929"/>
    <tag k="ref" v="FAR-80006"/>
    <tag k="socket:type2:current" v="16"/>
    <tag k="socket:type2:output" v="3.7kW"/>
    <tag k="socket:type2:voltage" v="230"/>
  </node>
</action>
<action type="create">
  <node id="7159220711" lat="37.0123079" lon="-7.9327230" version="15" timestamp="2024-01-30T22:33:01Z" changeset="146881985" uid="347293" user="Alexmol">
    <tag k="amenity" v="charging_station"/>
    <tag k="website" v="https://www.mobie.pt"/>
    <tag k="name" v="FAR-00008 - Largo de S찾o Francisco"/>
    <tag k="access" v="yes"/>
    <tag k="addr:country" v="PT"/>
    <tag k="authentication:membership_card" v="yes"/>
    <tag k="authentication:none" v="no"/>
    <tag k="capacity" v="2"/>
    <tag k="email" v="support.portugal@atlante.energy"/>
    <tag k="fee" v="yes"/>
    <tag k="maxstay" v="unlimited"/>
    <tag k="motorcar" v="yes"/>
    <tag k="network" v="Mobi.E"/>
    <tag k="old_operator" v="KLC"/>
    <tag k="old_ref" v="FAR-90008"/>
    <tag k="opening_hours" v="24/7"/>
    <tag k="operator" v="Atlante"/>
    <tag k="parking:fee" v="no"/>
    <tag k="payment:app" v="yes"/>
    <tag k="payment:cards" v="no"/>
    <tag k="payment:cash" v="no"/>
    <tag k="payment:membership_card" v="yes"/>
    <tag k="phone" v="+351 800 296 929"/>
    <tag k="ref" v="FAR-80008"/>
    <tag k="socket:type2" v="2"/>
    <tag k="socket:type2:current" v="32"/>
    <tag k="socket:type2:output" v="22kW"/>
    <tag k="socket:type2:voltage" v="400"/>
  </node>
</action>
<action type="delete">
<old>
  <node id="8223005911" lat="38.7007250" lon="-9.3051099" version="13" timestamp="2025-04-06T00:36:34Z" changeset="164571969" uid="347293" user="Alexmol">
    <tag k="access" v="yes"/>
    <tag k="addr:city" v="Oeiras"/>
    <tag k="addr:country" v="PT"/>
    <tag k="addr:street" v="Rua do Coro de Santo Amaro de Oeiras"/>
    <tag k="amenity" v="charging_station"/>
    <tag k="authentication:membership_card" v="yes"/>
    <tag k="authentication:none" v="no"/>
    <tag k="brand" v="Galp electric"/>
    <tag k="capacity" v="2"/>
    <tag k="email" v="mobilidade.electricacrc@galp.com"/>
    <tag k="fee" v="yes"/>
    <tag k="maxstay" v="unlimited"/>
    <tag k="motorcar" v="yes"/>
    <tag k="name" v="OER-00068"/>
    <tag k="network" v="Mobi.E"/>
    <tag k="opening_hours" v="24/7"/>
    <tag k="operator" v="Galp Power"/>
    <tag k="parking:fee" v="no"/>
    <tag k="payment:app" v="yes"/>
    <tag k="payment:cards" v="no"/>
    <tag k="payment:cash" v="no"/>
    <tag k="payment:membership_card" v="yes"/>
    <tag k="phone" v="+351 800 249 249"/>
    <tag k="ref" v="OER-00068"/>
    <tag k="ref:EU:EVSE" v="PT*GLP*EOER*00068*01;PT*GLP*EOER*00068*02;PT*GLP*EOER*00068*03"/>
    <tag k="socket:chademo" v="1"/>
    <tag k="socket:chademo:current" v="120"/>
    <tag k="socket:chademo:output" v="50kW"/>
    <tag k="socket:chademo:voltage" v="500"/>
    <tag k="socket:type2_cable" v="1"/>
    <tag k="socket:type2_cable:current" v="63"/>
    <tag k="socket:type2_cable:output" v="43kW"/>
    <tag k="socket:type2_cable:voltage" v="400"/>
    <tag k="socket:type2_combo" v="1"/>
    <tag k="socket:type2_combo:current" v="125"/>
    <tag k="socket:type2_combo:output" v="50kW"/>
    <tag k="socket:type2_combo:voltage" v="500"/>
    <tag k="website" v="https://www.mobie.pt"/>
  </node>
</old>
<new>
  <node id="8223005911" visible="true" version="12" timestamp="2025-04-02T19:49:57Z" changeset="164437191" uid="347293" user="Alexmol"/>
</new>
</action>
<action type="create">
  <node id="8732194404" lat="39.4619840" lon="-8.4433840" version="11" timestamp="2024-01-04T14:25:00Z" changeset="145883615" uid="347293" user="Alexmol">
    <tag k="amenity" v="charging_station"/>
    <tag k="website" v="https://www.mobie.pt"/>
    <tag k="name" v="VNB-00002"/>
    <tag k="access" v="yes"/>
    <tag k="addr:country" v="PT"/>
    <tag k="authentication:membership_card" v="yes"/>
    <tag k="authentication:none" v="no"/>
    <tag k="capacity" v="2"/>
    <tag k="email" v="support.portugal@atlante.energy"/>
    <tag k="fee" v="yes"/>
    <tag k="maxstay" v="unlimited"/>
    <tag k="motorcar" v="yes"/>
    <tag k="network" v="Mobi.E"/>
    <tag k="old_operator" v="KLC"/>
    <tag k="old_ref" v="VNB-90002"/>
    <tag k="opening_hours" v="24/7"/>
    <tag k="operator" v="Atlante"/>
    <tag k="parking:fee" v="no"/>
    <tag k="payment:app" v="yes"/>
    <tag k="payment:cards" v="no"/>
    <tag k="payment:cash" v="no"/>
    <tag k="payment:membership_card" v="yes"/>
    <tag k="phone" v="+351 800 296 929"/>
    <tag k="ref" v="VNB-80002"/>
    <tag k="socket:type2" v="2"/>
    <tag k="socket:type2:current" v="32"/>
    <tag k="socket:type2:output" v="22kW"/>
    <tag k="socket:type2:voltage" v="400"/>
  </node>
</action>
<action type="delete">
<old>
  <node id="9043894688" lat="39.0535909" lon="-8.6682232" version="14" timestamp="2025-04-06T19:51:18Z" changeset="164606990" uid="347293" user="Alexmol">
    <tag k="access" v="yes"/>
    <tag k="addr:country" v="PT"/>
    <tag k="amenity" v="charging_station"/>
    <tag k="authentication:membership_card" v="yes"/>
    <tag k="authentication:none" v="no"/>
    <tag k="brand" v="Galp electric"/>
    <tag k="capacity" v="2"/>
    <tag k="email" v="mobilidade.electricacrc@galp.com"/>
    <tag k="fee" v="yes"/>
    <tag k="maxstay" v="unlimited"/>
    <tag k="motorcar" v="yes"/>
    <tag k="name" v="SMG-00003"/>
    <tag k="network" v="Mobi.E"/>
    <tag k="opening_hours" v="24/7"/>
    <tag k="operator" v="Galp Geste"/>
    <tag k="parking:fee" v="no"/>
    <tag k="payment:app" v="yes"/>
    <tag k="payment:cards" v="no"/>
    <tag k="payment:cash" v="no"/>
    <tag k="payment:membership_card" v="yes"/>
    <tag k="phone" v="+351 800 249 249"/>
    <tag k="ref" v="SMG-00003"/>
    <tag k="ref:EU:EVSE" v="PT*GLG*ESMG*00003*01;PT*GLG*ESMG*00003*02"/>
    <tag k="socket:type2" v="2"/>
    <tag k="socket:type2:current" v="32"/>
    <tag k="socket:type2:output" v="22kW"/>
    <tag k="socket:type2:voltage" v="400"/>
    <tag k="website" v="https://www.mobie.pt"/>
  </node>
</old>
<new>
  <node id="9043894688" visible="true" version="13" timestamp="2025-04-05T22:54:44Z" changeset="164570578" uid="347293" user="Alexmol"/>
</new>
</action>
<action type="create">
  <node id="9194542213" lat="37.0295546" lon="-7.9443276" version="7" timestamp="2025-01-03T16:38:23Z" changeset="160957067" uid="347293" user="Alexmol">
    <tag k="amenity" v="charging_station"/>
    <tag k="capacity" v="4"/>
    <tag k="website" v="https://www.mobie.pt"/>
    <tag k="name" v="FAR-00012/13/14/26 - F처rum Algarve"/>
    <tag k="ref" v="FAR-00012;FAR-00013;FAR-00014;FAR-00026"/>
    <tag k="socket:chademo" v="2"/>
    <tag k="socket:type2" v="2"/>
    <tag k="socket:type2:current" v="16"/>
    <tag k="socket:type2:output" v="11kW"/>
    <tag k="socket:type2:voltage" v="400"/>
    <tag k="socket:type2_combo" v="2"/>
    <tag k="access" v="yes"/>
    <tag k="addr:country" v="PT"/>
    <tag k="authentication:membership_card" v="yes"/>
    <tag k="authentication:none" v="no"/>
    <tag k="brand" v="Renewing"/>
    <tag k="fee" v="yes"/>
    <tag k="maxstay" v="unlimited"/>
    <tag k="motorcar" v="yes"/>
    <tag k="network" v="Mobi.E"/>
    <tag k="opening_hours" v="Mo-Su 10:00-23:00"/>
    <tag k="operator" v="Mota Engil II"/>
    <tag k="parking:fee" v="no"/>
    <tag k="payment:app" v="yes"/>
    <tag k="payment:cards" v="no"/>
    <tag k="payment:cash" v="no"/>
    <tag k="payment:membership_card" v="yes"/>
    <tag k="socket:chademo:current" v="60"/>
    <tag k="socket:chademo:output" v="25kW"/>
    <tag k="socket:chademo:voltage" v="500"/>
    <tag k="socket:type2_combo:current" v="60"/>
    <tag k="socket:type2_combo:output" v="25kW"/>
    <tag k="socket:type2_combo:voltage" v="1000"/>
  </node>
</action>
<action type="modify">
<old>
  <node id="10722216484" version="12" timestamp="2025-04-06T20:30:48Z" changeset="164608093" uid="347293" user="Alexmol"/>
</old>
<new>
  <node id="10722216484" lat="37.1913581" lon="-7.4300282" version="11" timestamp="2025-03-16T20:37:36Z" changeset="163705646" uid="347293" user="Alexmol">
    <tag k="amenity" v="charging_station"/>
    <tag k="capacity" v="4"/>
    <tag k="website" v="https://www.mobie.pt/"/>
    <tag k="name" v="VRS-00007/8"/>
    <tag k="old_ref" v="VRS-00005;VRS-00006"/>
    <tag k="ref" v="VRS-00007;VRS-00008"/>
    <tag k="socket:chademo" v="2"/>
    <tag k="socket:type2_cable" v="2"/>
    <tag k="socket:type2_combo" v="2"/>
    <tag k="access" v="yes"/>
    <tag k="authentication:membership_card" v="yes"/>
    <tag k="authentication:none" v="no"/>
    <tag k="email" v="support.portugal@atlante.energy"/>
    <tag k="fee" v="yes"/>
    <tag k="maxstay" v="unlimited"/>
    <tag k="motorcar" v="yes"/>
    <tag k="network" v="Mobi.E"/>
    <tag k="opening_hours" v="24/7"/>
    <tag k="operator" v="Atlante"/>
    <tag k="parking:fee" v="no"/>
    <tag k="payment:app" v="yes"/>
    <tag k="payment:cards" v="no"/>
    <tag k="payment:cash" v="no"/>
    <tag k="payment:membership_card" v="yes"/>
    <tag k="phone" v="+351 800 296 929"/>
    <tag k="socket:chademo:current" v="125"/>
    <tag k="socket:chademo:output" v="50kW"/>
    <tag k="socket:chademo:voltage" v="500"/>
    <tag k="socket:type2_cable:current" v="32"/>
    <tag k="socket:type2_cable:output" v="22kW"/>
    <tag k="socket:type2_cable:voltage" v="400"/>
    <tag k="socket:type2_combo:current" v="150"/>
    <tag k="socket:type2_combo:output" v="60kW"/>
    <tag k="socket:type2_combo:voltage" v="1000"/>
  </node>
</new>
</action>
<action type="create">
  <node id="11404287215" lat="40.6852869" lon="-7.9282870" version="4" timestamp="2024-07-17T19:35:44Z" changeset="154072889" uid="347293" user="Alexmol">
    <tag k="amenity" v="charging_station"/>
    <tag k="website" v="https://www.mobie.pt/"/>
    <tag k="name" v="VIS-00087 - Pingo Doce"/>
    <tag k="access" v="yes"/>
    <tag k="addr:country" v="PT"/>
    <tag k="authentication:membership_card" v="yes"/>
    <tag k="authentication:none" v="no"/>
    <tag k="capacity" v="2"/>
    <tag k="email" v="support.portugal@atlante.energy"/>
    <tag k="fee" v="yes"/>
    <tag k="maxstay" v="unlimited"/>
    <tag k="motorcar" v="yes"/>
    <tag k="network" v="Mobi.E"/>
    <tag k="opening_hours" v="24/7"/>
    <tag k="operator" v="Atlante"/>
    <tag k="parking:fee" v="no"/>
    <tag k="payment:app" v="yes"/>
    <tag k="payment:cards" v="no"/>
    <tag k="payment:cash" v="no"/>
    <tag k="payment:membership_card" v="yes"/>
    <tag k="phone" v="+351 800 296 929"/>
    <tag k="ref" v="VIS-00087"/>
    <tag k="socket:chademo" v="1"/>
    <tag k="socket:chademo:current" v="120"/>
    <tag k="socket:chademo:output" v="50kW"/>
    <tag k="socket:chademo:voltage" v="500"/>
    <tag k="socket:type2_cable" v="1"/>
    <tag k="socket:type2_cable:current" v="32"/>
    <tag k="socket:type2_cable:output" v="22kW"/>
    <tag k="socket:type2_cable:voltage" v="400"/>
    <tag k="socket:type2_combo" v="1"/>
    <tag k="socket:type2_combo:current" v="150"/>
    <tag k="socket:type2_combo:output" v="60kW"/>
    <tag k="socket:type2_combo:voltage" v="500"/>
  </node>
</action>
<action type="delete">
<old>
  <node id="11931765169" lat="40.2095883" lon="-8.4437113" version="4" timestamp="2025-04-06T00:36:12Z" changeset="164571965" uid="347293" user="Alexmol">
    <tag k="access" v="yes"/>
    <tag k="amenity" v="charging_station"/>
    <tag k="authentication:membership_card" v="yes"/>
    <tag k="authentication:none" v="no"/>
    <tag k="capacity" v="2"/>
    <tag k="fee" v="yes"/>
    <tag k="maxstay" v="unlimited"/>
    <tag k="motorcar" v="yes"/>
    <tag k="name" v="CBR-00119"/>
    <tag k="network" v="Mobi.E"/>
    <tag k="opening_hours" v="24/7"/>
    <tag k="operator" v="EDP"/>
    <tag k="parking:fee" v="no"/>
    <tag k="payment:app" v="yes"/>
    <tag k="payment:cards" v="no"/>
    <tag k="payment:cash" v="no"/>
    <tag k="payment:membership_card" v="yes"/>
    <tag k="ref" v="CBR-00119"/>
    <tag k="ref:EU:EVSE" v="PT*EDP*E*CBR*00119*01;PT*EDP*E*CBR*00119*02"/>
    <tag k="socket:type2" v="2"/>
    <tag k="socket:type2:current" v="32"/>
    <tag k="socket:type2:output" v="22kW"/>
    <tag k="socket:type2:voltage" v="400"/>
    <tag k="website" v="https://www.mobie.pt/"/>
  </node>
</old>
<new>
  <node id="11931765169" visible="true" version="3" timestamp="2025-03-30T10:17:05Z" changeset="164280675" uid="347293" user="Alexmol"/>
</new>
</action>
<action type="modify">
<old>
  <node id="11949726699" version="5" timestamp="2025-04-06T19:40:59Z" changeset="164606668" uid="347293" user="Alexmol"/>
</old>
<new>
  <node id="11949726699" lat="39.2637245" lon="-9.3335694" version="4" timestamp="2025-01-03T16:21:03Z" changeset="160956404" uid="347293" user="Alexmol">
    <tag k="amenity" v="charging_station"/>
    <tag k="website" v="https://www.mobie.pt/"/>
    <tag k="access" v="yes"/>
    <tag k="addr:country" v="PT"/>
    <tag k="authentication:membership_card" v="yes"/>
    <tag k="authentication:none" v="no"/>
    <tag k="brand" v="Galp electric"/>
    <tag k="capacity" v="2"/>
    <tag k="fee" v="yes"/>
    <tag k="maxstay" v="unlimited"/>
    <tag k="motorcar" v="yes"/>
    <tag k="name" v="LNH-00014"/>
    <tag k="network" v="Mobi.E"/>
    <tag k="opening_hours" v="24/7"/>
    <tag k="operator" v="Galp Power"/>
    <tag k="parking:fee" v="no"/>
    <tag k="payment:app" v="yes"/>
    <tag k="payment:cards" v="no"/>
    <tag k="payment:cash" v="no"/>
    <tag k="payment:membership_card" v="yes"/>
    <tag k="phone" v="+351 800 249 249"/>
    <tag k="ref" v="LNH-00014"/>
    <tag k="socket:type2_combo" v="2"/>
    <tag k="socket:type2_combo:current" v="250"/>
    <tag k="socket:type2_combo:output" v="120kW"/>
    <tag k="socket:type2_combo:voltage" v="950"/>
  </node>
</new>
</action>
<action type="create">
  <node id="12195761295" lat="37.1027381" lon="-8.1330963" version="3" timestamp="2025-01-03T16:21:03Z" changeset="160956404" uid="347293" user="Alexmol">
    <tag k="amenity" v="charging_station"/>
    <tag k="website" v="https://www.mobie.pt/"/>
    <tag k="access" v="yes"/>
    <tag k="addr:country" v="PT"/>
    <tag k="authentication:membership_card" v="yes"/>
    <tag k="authentication:none" v="no"/>
    <tag k="brand" v="Galp electric"/>
    <tag k="capacity" v="2"/>
    <tag k="fee" v="yes"/>
    <tag k="maxstay" v="unlimited"/>
    <tag k="motorcar" v="yes"/>
    <tag k="name" v="LLE-00201"/>
    <tag k="network" v="Mobi.E"/>
    <tag k="opening_hours" v="24/7"/>
    <tag k="operator" v="Galp Power"/>
    <tag k="parking:fee" v="no"/>
    <tag k="payment:app" v="yes"/>
    <tag k="payment:cards" v="no"/>
    <tag k="payment:cash" v="no"/>
    <tag k="payment:membership_card" v="yes"/>
    <tag k="ref" v="LLE-00201"/>
    <tag k="socket:chademo" v="1"/>
    <tag k="socket:chademo:current" v="125"/>
    <tag k="socket:chademo:output" v="50kW"/>
    <tag k="socket:chademo:voltage" v="500"/>
    <tag k="socket:type2_combo" v="1"/>
    <tag k="socket:type2_combo:current" v="125"/>
    <tag k="socket:type2_combo:output" v="120kW"/>
    <tag k="socket:type2_combo:voltage" v="1000"/>
  </node>
</action>
<action type="delete">
<old>
  <node id="12580190000" lat="38.7007342" lon="-8.9462762" version="2" timestamp="2025-04-06T00:36:34Z" changeset="164571969" uid="347293" user="Alexmol">
    <tag k="access" v="yes"/>
    <tag k="addr:country" v="PT"/>
    <tag k="amenity" v="charging_station"/>
    <tag k="authentication:membership_card" v="yes"/>
    <tag k="authentication:none" v="no"/>
    <tag k="brand" v="wowplug"/>
    <tag k="capacity" v="2"/>
    <tag k="fee" v="yes"/>
    <tag k="maxstay" v="unlimited"/>
    <tag k="motorcar" v="yes"/>
    <tag k="name" v="MTJ-00088"/>
    <tag k="network" v="Mobi.E"/>
    <tag k="opening_hours" v="24/7"/>
    <tag k="operator" v="True Kare"/>
    <tag k="parking:fee" v="no"/>
    <tag k="payment:app" v="yes"/>
    <tag k="payment:cards" v="no"/>
    <tag k="payment:cash" v="no"/>
    <tag k="payment:membership_card" v="yes"/>
    <tag k="ref" v="MTJ-00088"/>
    <tag k="ref:EU:EVSE" v="PT*TRK*E*MTJ*00088*01;PT*TRK*E*MTJ*00088*02"/>
    <tag k="socket:type2" v="2"/>
    <tag k="socket:type2:current" v="32"/>
    <tag k="socket:type2:output" v="22kW"/>
    <tag k="socket:type2:voltage" v="400"/>
    <tag k="website" v="https://www.mobie.pt/"/>
  </node>
</old>
<new>
  <node id="12580190000" visible="true" version="1" timestamp="2025-02-11T21:07:39Z" changeset="162407359" uid="347293" user="Alexmol"/>
</new>
</action>
<action type="delete">
<old>
  <node id="12580240752" lat="38.6990524" lon="-8.9482577" version="2" timestamp="2025-04-06T19:42:51Z" changeset="164606725" uid="347293" user="Alexmol">
    <tag k="access" v="yes"/>
    <tag k="addr:country" v="PT"/>
    <tag k="amenity" v="charging_station"/>
    <tag k="authentication:membership_card" v="yes"/>
    <tag k="authentication:none" v="no"/>
    <tag k="brand" v="wowplug"/>
    <tag k="capacity" v="2"/>
    <tag k="fee" v="yes"/>
    <tag k="maxstay" v="unlimited"/>
    <tag k="motorcar" v="yes"/>
    <tag k="name" v="MTJ-00091"/>
    <tag k="network" v="Mobi.E"/>
    <tag k="opening_hours" v="24/7"/>
    <tag k="operator" v="True Kare"/>
    <tag k="parking:fee" v="no"/>
    <tag k="payment:app" v="yes"/>
    <tag k="payment:cards" v="no"/>
    <tag k="payment:cash" v="no"/>
    <tag k="payment:membership_card" v="yes"/>
    <tag k="ref" v="MTJ-00091"/>
    <tag k="ref:EU:EVSE" v="PT*TRK*E*MTJ*00091*01;PT*TRK*E*MTJ*00091*02"/>
    <tag k="socket:type2" v="2"/>
    <tag k="socket:type2:current" v="32"/>
    <tag k="socket:type2:output" v="22kW"/>
    <tag k="socket:type2:voltage" v="400"/>
    <tag k="website" v="https://www.mobie.pt/"/>
  </node>
</old>
<new>
  <node id="12580240752" visible="true" version="1" timestamp="2025-02-11T21:12:42Z" changeset="162407505" uid="347293" user="Alexmol"/>
</new>
</action>
<action type="delete">
<old>
  <node id="12586055491" lat="38.7050503" lon="-9.3795579" version="2" timestamp="2025-04-06T00:36:34Z" changeset="164571969" uid="347293" user="Alexmol">
    <tag k="access" v="yes"/>
    <tag k="addr:country" v="PT"/>
    <tag k="amenity" v="charging_station"/>
    <tag k="authentication:membership_card" v="yes"/>
    <tag k="authentication:none" v="no"/>
    <tag k="brand" v="wowplug"/>
    <tag k="capacity" v="2"/>
    <tag k="fee" v="yes"/>
    <tag k="maxstay" v="unlimited"/>
    <tag k="motorcar" v="yes"/>
    <tag k="name" v="CSC-00246"/>
    <tag k="network" v="Mobi.E"/>
    <tag k="opening_hours" v="24/7"/>
    <tag k="operator" v="True Kare"/>
    <tag k="parking:fee" v="no"/>
    <tag k="payment:app" v="yes"/>
    <tag k="payment:cards" v="no"/>
    <tag k="payment:cash" v="no"/>
    <tag k="payment:membership_card" v="yes"/>
    <tag k="ref" v="CSC-00246"/>
    <tag k="ref:EU:EVSE" v="PT*TRK*E*CSC*00246*01;PT*TRK*E*CSC*00246*02"/>
    <tag k="socket:type2" v="2"/>
    <tag k="socket:type2:current" v="32"/>
    <tag k="socket:type2:output" v="22kW"/>
    <tag k="socket:type2:voltage" v="400"/>
    <tag k="website" v="https://www.mobie.pt/"/>
  </node>
</old>
<new>
  <node id="12586055491" visible="true" version="1" timestamp="2025-02-13T22:19:20Z" changeset="162483125" uid="347293" user="Alexmol"/>
</new>
</action>
<action type="delete">
<old>
  <node id="12586076462" lat="38.7084240" lon="-9.3560590" version="2" timestamp="2025-04-06T00:36:34Z" changeset="164571969" uid="347293" user="Alexmol">
    <tag k="access" v="yes"/>
    <tag k="addr:country" v="PT"/>
    <tag k="amenity" v="charging_station"/>
    <tag k="authentication:membership_card" v="yes"/>
    <tag k="authentication:none" v="no"/>
    <tag k="brand" v="wowplug"/>
    <tag k="capacity" v="2"/>
    <tag k="fee" v="yes"/>
    <tag k="maxstay" v="unlimited"/>
    <tag k="motorcar" v="yes"/>
    <tag k="name" v="CSC-00240"/>
    <tag k="network" v="Mobi.E"/>
    <tag k="opening_hours" v="24/7"/>
    <tag k="operator" v="True Kare"/>
    <tag k="parking:fee" v="no"/>
    <tag k="payment:app" v="yes"/>
    <tag k="payment:cards" v="no"/>
    <tag k="payment:cash" v="no"/>
    <tag k="payment:membership_card" v="yes"/>
    <tag k="ref" v="CSC-00240"/>
    <tag k="ref:EU:EVSE" v="PT*TRK*E*CSC*00240*01;PT*TRK*E*CSC*00240*02"/>
    <tag k="socket:type2" v="2"/>
    <tag k="socket:type2:current" v="32"/>
    <tag k="socket:type2:output" v="22kW"/>
    <tag k="socket:type2:voltage" v="400"/>
    <tag k="website" v="https://www.mobie.pt/"/>
  </node>
</old>
<new>
  <node id="12586076462" visible="true" version="1" timestamp="2025-02-13T21:53:35Z" changeset="162482412" uid="347293" user="Alexmol"/>
</new>
</action>
<action type="delete">
<old>
  <node id="12586090132" lat="38.6893921" lon="-9.3416742" version="2" timestamp="2025-04-06T00:36:34Z" changeset="164571969" uid="347293" user="Alexmol">
    <tag k="access" v="yes"/>
    <tag k="addr:country" v="PT"/>
    <tag k="amenity" v="charging_station"/>
    <tag k="authentication:membership_card" v="yes"/>
    <tag k="authentication:none" v="no"/>
    <tag k="brand" v="wowplug"/>
    <tag k="capacity" v="2"/>
    <tag k="fee" v="yes"/>
    <tag k="maxstay" v="unlimited"/>
    <tag k="motorcar" v="yes"/>
    <tag k="name" v="CSC-00239"/>
    <tag k="network" v="Mobi.E"/>
    <tag k="opening_hours" v="24/7"/>
    <tag k="operator" v="True Kare"/>
    <tag k="parking:fee" v="no"/>
    <tag k="payment:app" v="yes"/>
    <tag k="payment:cards" v="no"/>
    <tag k="payment:cash" v="no"/>
    <tag k="payment:membership_card" v="yes"/>
    <tag k="ref" v="CSC-00239"/>
    <tag k="ref:EU:EVSE" v="PT*TRK*E*CSC*00239*01;PT*TRK*E*CSC*00239*02"/>
    <tag k="socket:type2" v="2"/>
    <tag k="socket:type2:current" v="32"/>
    <tag k="socket:type2:output" v="22kW"/>
    <tag k="socket:type2:voltage" v="400"/>
    <tag k="website" v="https://www.mobie.pt/"/>
  </node>
</old>
<new>
  <node id="12586090132" visible="true" version="1" timestamp="2025-02-13T21:51:41Z" changeset="162482364" uid="347293" user="Alexmol"/>
</new>
</action>
<action type="delete">
<old>
  <node id="12586118180" lat="38.6976753" lon="-9.3518586" version="2" timestamp="2025-04-06T00:36:34Z" changeset="164571969" uid="347293" user="Alexmol">
    <tag k="access" v="yes"/>
    <tag k="addr:country" v="PT"/>
    <tag k="amenity" v="charging_station"/>
    <tag k="authentication:membership_card" v="yes"/>
    <tag k="authentication:none" v="no"/>
    <tag k="brand" v="wowplug"/>
    <tag k="capacity" v="2"/>
    <tag k="fee" v="yes"/>
    <tag k="maxstay" v="unlimited"/>
    <tag k="motorcar" v="yes"/>
    <tag k="name" v="CSC-00244"/>
    <tag k="network" v="Mobi.E"/>
    <tag k="opening_hours" v="24/7"/>
    <tag k="operator" v="True Kare"/>
    <tag k="parking:fee" v="no"/>
    <tag k="payment:app" v="yes"/>
    <tag k="payment:cards" v="no"/>
    <tag k="payment:cash" v="no"/>
    <tag k="payment:membership_card" v="yes"/>
    <tag k="ref" v="CSC-00244"/>
    <tag k="ref:EU:EVSE" v="PT*TRK*E*CSC*00244*01;PT*TRK*E*CSC*00244*02"/>
    <tag k="socket:type2" v="2"/>
    <tag k="socket:type2:current" v="32"/>
    <tag k="socket:type2:output" v="22kW"/>
    <tag k="socket:type2:voltage" v="400"/>
    <tag k="website" v="https://www.mobie.pt/"/>
  </node>
</old>
<new>
  <node id="12586118180" visible="true" version="1" timestamp="2025-02-13T22:15:39Z" changeset="162483020" uid="347293" user="Alexmol"/>
</new>
</action>
<action type="delete">
<old>
  <node id="12619121830" lat="41.3388706" lon="-8.4893071" version="2" timestamp="2025-04-06T00:35:01Z" changeset="164571956" uid="347293" user="Alexmol">
    <tag k="access" v="yes"/>
    <tag k="addr:country" v="PT"/>
    <tag k="amenity" v="charging_station"/>
    <tag k="authentication:membership_card" v="yes"/>
    <tag k="authentication:none" v="no"/>
    <tag k="brand" v="wowplug"/>
    <tag k="capacity" v="2"/>
    <tag k="fee" v="yes"/>
    <tag k="maxstay" v="unlimited"/>
    <tag k="motorcar" v="yes"/>
    <tag k="name" v="STS-00037"/>
    <tag k="network" v="Mobi.E"/>
    <tag k="opening_hours" v="24/7"/>
    <tag k="operator" v="True Kare"/>
    <tag k="parking:fee" v="no"/>
    <tag k="payment:app" v="yes"/>
    <tag k="payment:cards" v="no"/>
    <tag k="payment:cash" v="no"/>
    <tag k="payment:membership_card" v="yes"/>
    <tag k="ref" v="STS-00037"/>
    <tag k="ref:EU:EVSE" v="PT*TRK*E*STS*00037*01;PT*TRK*E*STS*00037*02"/>
    <tag k="socket:type2" v="2"/>
    <tag k="socket:type2:current" v="32"/>
    <tag k="socket:type2:output" v="22kW"/>
    <tag k="socket:type2:voltage" v="400"/>
    <tag k="website" v="https://www.mobie.pt/"/>
  </node>
</old>
<new>
  <node id="12619121830" visible="true" version="1" timestamp="2025-02-25T22:02:07Z" changeset="162950990" uid="347293" user="Alexmol"/>
</new>
</action>
<action type="delete">
<old>
  <node id="12619150541" lat="41.3580000" lon="-8.3657230" version="2" timestamp="2025-04-06T00:35:01Z" changeset="164571956" uid="347293" user="Alexmol">
    <tag k="access" v="yes"/>
    <tag k="addr:country" v="PT"/>
    <tag k="amenity" v="charging_station"/>
    <tag k="authentication:membership_card" v="yes"/>
    <tag k="authentication:none" v="no"/>
    <tag k="brand" v="wowplug"/>
    <tag k="capacity" v="2"/>
    <tag k="fee" v="yes"/>
    <tag k="maxstay" v="unlimited"/>
    <tag k="motorcar" v="yes"/>
    <tag k="name" v="STS-00039"/>
    <tag k="network" v="Mobi.E"/>
    <tag k="opening_hours" v="24/7"/>
    <tag k="operator" v="True Kare"/>
    <tag k="parking:fee" v="no"/>
    <tag k="payment:app" v="yes"/>
    <tag k="payment:cards" v="no"/>
    <tag k="payment:cash" v="no"/>
    <tag k="payment:membership_card" v="yes"/>
    <tag k="ref" v="STS-00039"/>
    <tag k="ref:EU:EVSE" v="PT*TRK*E*STS*00039*01;PT*TRK*E*STS*00039*02"/>
    <tag k="socket:type2" v="2"/>
    <tag k="socket:type2:current" v="32"/>
    <tag k="socket:type2:output" v="22kW"/>
    <tag k="socket:type2:voltage" v="400"/>
    <tag k="website" v="https://www.mobie.pt/"/>
  </node>
</old>
<new>
  <node id="12619150541" visible="true" version="1" timestamp="2025-02-25T22:15:39Z" changeset="162951307" uid="347293" user="Alexmol"/>
</new>
</action>
<action type="delete">
<old>
  <node id="12666433755" lat="40.4413000" lon="-8.4136000" version="2" timestamp="2025-04-06T00:36:02Z" changeset="164571964" uid="347293" user="Alexmol">
    <tag k="access" v="yes"/>
    <tag k="addr:country" v="PT"/>
    <tag k="amenity" v="charging_station"/>
    <tag k="authentication:membership_card" v="yes"/>
    <tag k="authentication:none" v="no"/>
    <tag k="capacity" v="2"/>
    <tag k="fee" v="yes"/>
    <tag k="maxstay" v="unlimited"/>
    <tag k="motorcar" v="yes"/>
    <tag k="name" v="AND-00021"/>
    <tag k="network" v="Mobi.E"/>
    <tag k="opening_hours" v="24/7"/>
    <tag k="operator" v="Alfa Energia"/>
    <tag k="parking:fee" v="no"/>
    <tag k="payment:app" v="yes"/>
    <tag k="payment:cards" v="no"/>
    <tag k="payment:cash" v="no"/>
    <tag k="payment:membership_card" v="yes"/>
    <tag k="ref" v="AND-00021"/>
    <tag k="ref:EU:EVSE" v="PT*ALF*E*AND*00021*01;PT*ALF*E*AND*00021*02"/>
    <tag k="socket:type2" v="2"/>
    <tag k="socket:type2:current" v="32"/>
    <tag k="socket:type2:output" v="22kW"/>
    <tag k="socket:type2:voltage" v="400"/>
    <tag k="website" v="https://www.mobie.pt/"/>
  </node>
</old>
<new>
  <node id="12666433755" visible="true" version="1" timestamp="2025-03-15T11:56:30Z" changeset="163647608" uid="347293" user="Alexmol"/>
</new>
</action>
<action type="delete">
<old>
  <node id="12687078679" lat="32.6461606" lon="-16.8568182" version="3" timestamp="2025-04-06T00:37:02Z" changeset="164571975" uid="347293" user="Alexmol">
    <tag k="access" v="yes"/>
    <tag k="addr:country" v="PT"/>
    <tag k="amenity" v="charging_station"/>
    <tag k="authentication:membership_card" v="yes"/>
    <tag k="authentication:none" v="no"/>
    <tag k="capacity" v="2"/>
    <tag k="fee" v="yes"/>
    <tag k="maxstay" v="unlimited"/>
    <tag k="motorcar" v="yes"/>
    <tag k="name" v="SCR-00023"/>
    <tag k="network" v="Mobi.E"/>
    <tag k="opening_hours" v="24/7"/>
    <tag k="operator" v="Emacom"/>
    <tag k="parking:fee" v="no"/>
    <tag k="payment:app" v="yes"/>
    <tag k="payment:cards" v="no"/>
    <tag k="payment:cash" v="no"/>
    <tag k="payment:membership_card" v="yes"/>
    <tag k="ref" v="SCR-00023"/>
    <tag k="ref:EU:EVSE" v="PT*EMA*E*SCR*00023*01;PT*EMA*E*SCR*00023*02;PT*EMA*E*SCR*00023*03"/>
    <tag k="socket:chademo" v="1"/>
    <tag k="socket:chademo:current" v="125"/>
    <tag k="socket:chademo:output" v="50kW"/>
    <tag k="socket:chademo:voltage" v="500"/>
    <tag k="socket:type2_cable" v="1"/>
    <tag k="socket:type2_cable:current" v="32"/>
    <tag k="socket:type2_cable:output" v="22kW"/>
    <tag k="socket:type2_cable:voltage" v="400"/>
    <tag k="socket:type2_combo" v="1"/>
    <tag k="socket:type2_combo:current" v="125"/>
    <tag k="socket:type2_combo:output" v="50kW"/>
    <tag k="socket:type2_combo:voltage" v="500"/>
    <tag k="website" v="https://www.mobie.pt"/>
  </node>
</old>
<new>
  <node id="12687078679" visible="true" version="2" timestamp="2025-03-30T10:57:52Z" changeset="164282145" uid="347293" user="Alexmol"/>
</new>
</action>
<action type="delete">
<old>
  <node id="12691482464" lat="38.7466200" lon="-9.3875180" version="2" timestamp="2025-04-06T19:44:21Z" changeset="164606769" uid="347293" user="Alexmol">
    <tag k="access" v="yes"/>
    <tag k="addr:country" v="PT"/>
    <tag k="amenity" v="charging_station"/>
    <tag k="authentication:membership_card" v="yes"/>
    <tag k="authentication:none" v="no"/>
    <tag k="brand" v="wowplug"/>
    <tag k="capacity" v="2"/>
    <tag k="fee" v="yes"/>
    <tag k="maxstay" v="unlimited"/>
    <tag k="motorcar" v="yes"/>
    <tag k="name" v="CSC-00277"/>
    <tag k="network" v="Mobi.E"/>
    <tag k="opening_hours" v="24/7"/>
    <tag k="operator" v="True Kare"/>
    <tag k="parking:fee" v="no"/>
    <tag k="payment:app" v="yes"/>
    <tag k="payment:cards" v="no"/>
    <tag k="payment:cash" v="no"/>
    <tag k="payment:membership_card" v="yes"/>
    <tag k="ref" v="CSC-00277"/>
    <tag k="ref:EU:EVSE" v="PT*TRK*E*CSC*00277*01;PT*TRK*E*CSC*00277*02"/>
    <tag k="socket:type2" v="2"/>
    <tag k="socket:type2:current" v="32"/>
    <tag k="socket:type2:output" v="22kW"/>
    <tag k="socket:type2:voltage" v="400"/>
    <tag k="website" v="https://www.mobie.pt/"/>
  </node>
</old>
<new>
  <node id="12691482464" visible="true" version="1" timestamp="2025-03-22T18:40:49Z" changeset="163960231" uid="347293" user="Alexmol"/>
</new>
</action>
<action type="delete">
<old>
  <node id="12691482466" lat="38.7325940" lon="-9.3881620" version="2" timestamp="2025-04-06T00:36:34Z" changeset="164571969" uid="347293" user="Alexmol">
    <tag k="access" v="yes"/>
    <tag k="addr:country" v="PT"/>
    <tag k="amenity" v="charging_station"/>
    <tag k="authentication:membership_card" v="yes"/>
    <tag k="authentication:none" v="no"/>
    <tag k="brand" v="wowplug"/>
    <tag k="capacity" v="2"/>
    <tag k="fee" v="yes"/>
    <tag k="maxstay" v="unlimited"/>
    <tag k="motorcar" v="yes"/>
    <tag k="name" v="CSC-00275"/>
    <tag k="network" v="Mobi.E"/>
    <tag k="opening_hours" v="24/7"/>
    <tag k="operator" v="True Kare"/>
    <tag k="parking:fee" v="no"/>
    <tag k="payment:app" v="yes"/>
    <tag k="payment:cards" v="no"/>
    <tag k="payment:cash" v="no"/>
    <tag k="payment:membership_card" v="yes"/>
    <tag k="ref" v="CSC-00275"/>
    <tag k="ref:EU:EVSE" v="PT*TRK*E*CSC*00275*01;PT*TRK*E*CSC*00275*02"/>
    <tag k="socket:type2" v="2"/>
    <tag k="socket:type2:current" v="32"/>
    <tag k="socket:type2:output" v="22kW"/>
    <tag k="socket:type2:voltage" v="400"/>
    <tag k="website" v="https://www.mobie.pt/"/>
  </node>
</old>
<new>
  <node id="12691482466" visible="true" version="1" timestamp="2025-03-22T18:40:49Z" changeset="163960231" uid="347293" user="Alexmol"/>
</new>
</action>
<action type="delete">
<old>
  <node id="12691482467" lat="38.7039100" lon="-9.4321640" version="2" timestamp="2025-04-06T00:36:34Z" changeset="164571969" uid="347293" user="Alexmol">
    <tag k="access" v="yes"/>
    <tag k="addr:country" v="PT"/>
    <tag k="amenity" v="charging_station"/>
    <tag k="authentication:membership_card" v="yes"/>
    <tag k="authentication:none" v="no"/>
    <tag k="brand" v="wowplug"/>
    <tag k="capacity" v="2"/>
    <tag k="fee" v="yes"/>
    <tag k="maxstay" v="unlimited"/>
    <tag k="motorcar" v="yes"/>
    <tag k="name" v="CSC-00274"/>
    <tag k="network" v="Mobi.E"/>
    <tag k="opening_hours" v="24/7"/>
    <tag k="operator" v="True Kare"/>
    <tag k="parking:fee" v="no"/>
    <tag k="payment:app" v="yes"/>
    <tag k="payment:cards" v="no"/>
    <tag k="payment:cash" v="no"/>
    <tag k="payment:membership_card" v="yes"/>
    <tag k="ref" v="CSC-00274"/>
    <tag k="ref:EU:EVSE" v="PT*TRK*E*CSC*00274*01;PT*TRK*E*CSC*00274*02"/>
    <tag k="socket:type2" v="2"/>
    <tag k="socket:type2:current" v="32"/>
    <tag k="socket:type2:output" v="22kW"/>
    <tag k="socket:type2:voltage" v="400"/>
    <tag k="website" v="https://www.mobie.pt/"/>
  </node>
</old>
<new>
  <node id="12691482467" visible="true" version="1" timestamp="2025-03-22T18:40:49Z" changeset="163960231" uid="347293" user="Alexmol"/>
</new>
</action>
<action type="delete">
<old>
  <node id="12707342293" lat="40.5034542" lon="-8.6144578" version="2" timestamp="2025-04-06T00:36:02Z" changeset="164571964" uid="347293" user="Alexmol">
    <tag k="access" v="yes"/>
    <tag k="amenity" v="charging_station"/>
    <tag k="authentication:membership_card" v="yes"/>
    <tag k="authentication:none" v="no"/>
    <tag k="capacity" v="2"/>
    <tag k="fee" v="yes"/>
    <tag k="maxstay" v="unlimited"/>
    <tag k="motorcar" v="yes"/>
    <tag k="name" v="OBR-00014"/>
    <tag k="network" v="Mobi.E"/>
    <tag k="opening_hours" v="24/7"/>
    <tag k="operator" v="Galp Power"/>
    <tag k="parking:fee" v="no"/>
    <tag k="payment:app" v="yes"/>
    <tag k="payment:cards" v="no"/>
    <tag k="payment:cash" v="no"/>
    <tag k="payment:membership_card" v="yes"/>
    <tag k="ref" v="OBR-00014"/>
    <tag k="ref:EU:EVSE" v="PT*GLP*EOBR*00014*01;PT*GLP*EOBR*00014*02;PT*GLP*EOBR*00014*03"/>
    <tag k="socket:chademo" v="1"/>
    <tag k="socket:chademo:current" v="125"/>
    <tag k="socket:chademo:output" v="50kW"/>
    <tag k="socket:chademo:voltage" v="500"/>
    <tag k="socket:type2_cable" v="1"/>
    <tag k="socket:type2_cable:current" v="32"/>
    <tag k="socket:type2_cable:output" v="22kW"/>
    <tag k="socket:type2_cable:voltage" v="400"/>
    <tag k="socket:type2_combo" v="1"/>
    <tag k="socket:type2_combo:current" v="150"/>
    <tag k="socket:type2_combo:output" v="60kW"/>
    <tag k="socket:type2_combo:voltage" v="500"/>
    <tag k="website" v="https://www.mobie.pt/"/>
  </node>
</old>
<new>
  <node id="12707342293" visible="true" version="1" timestamp="2025-03-28T11:44:50Z" changeset="164203878" uid="347293" user="Alexmol"/>
</new>
</action>
<action type="delete">
<old>
  <node id="12707369904" lat="40.4405289" lon="-8.1057475" version="3" timestamp="2025-04-06T00:36:02Z" changeset="164571964" uid="347293" user="Alexmol">
    <tag k="access" v="yes"/>
    <tag k="addr:country" v="PT"/>
    <tag k="amenity" v="charging_station"/>
    <tag k="authentication:membership_card" v="yes"/>
    <tag k="authentication:none" v="no"/>
    <tag k="capacity" v="2"/>
    <tag k="fee" v="yes"/>
    <tag k="fixme" v="Move to exact location"/>
    <tag k="maxstay" v="unlimited"/>
    <tag k="motorcar" v="yes"/>
    <tag k="name" v="SCD-00009"/>
    <tag k="network" v="Mobi.E"/>
    <tag k="opening_hours" v="24/7"/>
    <tag k="operator" v="PowerDot"/>
    <tag k="parking:fee" v="no"/>
    <tag k="payment:app" v="yes"/>
    <tag k="payment:cards" v="no"/>
    <tag k="payment:cash" v="no"/>
    <tag k="payment:membership_card" v="yes"/>
    <tag k="ref" v="SCD-00009"/>
    <tag k="ref:EU:EVSE" v="PT*HRZ*E*SCD*00009*01;PT*HRZ*E*SCD*00009*02"/>
    <tag k="socket:type2_combo" v="2"/>
    <tag k="socket:type2_combo:current" v="200"/>
    <tag k="socket:type2_combo:output" v="160kW"/>
    <tag k="socket:type2_combo:voltage" v="1000"/>
    <tag k="website" v="https://www.mobie.pt/"/>
  </node>
</old>
<new>
  <node id="12707369904" visible="true" version="2" timestamp="2025-04-01T16:36:02Z" changeset="164383794" uid="347293" user="Alexmol"/>
</new>
</action>
<action type="delete">
<old>
  <node id="12728638919" lat="41.2330800" lon="-8.5396530" version="2" timestamp="2025-04-06T00:35:49Z" changeset="164571962" uid="347293" user="Alexmol">
    <tag k="access" v="yes"/>
    <tag k="addr:country" v="PT"/>
    <tag k="amenity" v="charging_station"/>
    <tag k="authentication:membership_card" v="yes"/>
    <tag k="authentication:none" v="no"/>
    <tag k="capacity" v="2"/>
    <tag k="fee" v="yes"/>
    <tag k="maxstay" v="unlimited"/>
    <tag k="motorcar" v="yes"/>
    <tag k="name" v="VLG-00046"/>
    <tag k="network" v="Mobi.E"/>
    <tag k="opening_hours" v="24/7"/>
    <tag k="operator" v="Galp Power"/>
    <tag k="parking:fee" v="no"/>
    <tag k="payment:app" v="yes"/>
    <tag k="payment:cards" v="no"/>
    <tag k="payment:cash" v="no"/>
    <tag k="payment:membership_card" v="yes"/>
    <tag k="ref" v="VLG-00046"/>
    <tag k="ref:EU:EVSE" v="PT*GLP*EVLG*00046*01;PT*GLP*EVLG*00046*02"/>
    <tag k="socket:type2_combo" v="2"/>
    <tag k="socket:type2_combo:current" v="250"/>
    <tag k="socket:type2_combo:output" v="120kW"/>
    <tag k="socket:type2_combo:voltage" v="1000"/>
    <tag k="website" v="https://www.mobie.pt/"/>
  </node>
</old>
<new>
  <node id="12728638919" visible="true" version="1" timestamp="2025-04-04T11:30:04Z" changeset="164503554" uid="347293" user="Alexmol"/>
</new>
</action>
<action type="delete">
<old>
  <node id="12728644127" lat="41.2330548" lon="-8.5396087" version="2" timestamp="2025-04-06T00:35:49Z" changeset="164571962" uid="347293" user="Alexmol">
    <tag k="access" v="yes"/>
    <tag k="addr:country" v="PT"/>
    <tag k="amenity" v="charging_station"/>
    <tag k="authentication:membership_card" v="yes"/>
    <tag k="authentication:none" v="no"/>
    <tag k="capacity" v="2"/>
    <tag k="fee" v="yes"/>
    <tag k="maxstay" v="unlimited"/>
    <tag k="motorcar" v="yes"/>
    <tag k="name" v="VLG-00047"/>
    <tag k="network" v="Mobi.E"/>
    <tag k="opening_hours" v="24/7"/>
    <tag k="operator" v="Galp Power"/>
    <tag k="parking:fee" v="no"/>
    <tag k="payment:app" v="yes"/>
    <tag k="payment:cards" v="no"/>
    <tag k="payment:cash" v="no"/>
    <tag k="payment:membership_card" v="yes"/>
    <tag k="ref" v="VLG-00047"/>
    <tag k="ref:EU:EVSE" v="PT*GLP*EVLG*00047*01;PT*GLP*EVLG*00047*02"/>
    <tag k="socket:type2_combo" v="2"/>
    <tag k="socket:type2_combo:current" v="250"/>
    <tag k="socket:type2_combo:output" v="120kW"/>
    <tag k="socket:type2_combo:voltage" v="1000"/>
    <tag k="website" v="https://www.mobie.pt/"/>
  </node>
</old>
<new>
  <node id="12728644127" visible="true" version="1" timestamp="2025-04-04T11:36:18Z" changeset="164503823" uid="347293" user="Alexmol"/>
</new>
</action>
<action type="delete">
<old>
  <node id="12732047895" lat="38.6954327" lon="-9.4358095" version="2" timestamp="2025-04-06T19:48:48Z" changeset="164606911" uid="347293" user="Alexmol">
    <tag k="access" v="yes"/>
    <tag k="addr:country" v="PT"/>
    <tag k="amenity" v="charging_station"/>
    <tag k="authentication:membership_card" v="yes"/>
    <tag k="authentication:none" v="no"/>
    <tag k="capacity" v="2"/>
    <tag k="fee" v="yes"/>
    <tag k="maxstay" v="unlimited"/>
    <tag k="motorcar" v="yes"/>
    <tag k="name" v="CSC-00280"/>
    <tag k="network" v="Mobi.E"/>
    <tag k="opening_hours" v="24/7"/>
    <tag k="operator" v="Atlante"/>
    <tag k="parking:fee" v="no"/>
    <tag k="payment:app" v="yes"/>
    <tag k="payment:cards" v="yes"/>
    <tag k="payment:cash" v="no"/>
    <tag k="payment:membership_card" v="yes"/>
    <tag k="ref" v="CSC-00280"/>
    <tag k="ref:EU:EVSE" v="PT*ATL*ECSC*00280*1;PT*ATL*ECSC*00280*2"/>
    <tag k="socket:type2_combo" v="2"/>
    <tag k="socket:type2_combo:current" v="300"/>
    <tag k="socket:type2_combo:output" v="120kW"/>
    <tag k="socket:type2_combo:voltage" v="1000"/>
    <tag k="website" v="https://www.mobie.pt/"/>
  </node>
</old>
<new>
  <node id="12732047895" visible="true" version="1" timestamp="2025-04-05T22:10:30Z" changeset="164569798" uid="347293" user="Alexmol"/>
</new>
</action>

</osm>
