<?xml version="1.0" encoding="UTF-8"?>
<osm version="0.6" generator="Overpass API 0.7.62.7 375dc00a">
<note>The data included in this document is from www.openstreetmap.org. The data is made available under ODbL.</note>
<meta osm_base="2025-08-07T02:19:24Z" areas="2025-08-06T22:08:16Z"/>

<action type="modify">
<old>
  <node id="7190841643" version="20" timestamp="2025-08-06T20:37:58Z" changeset="170077925" uid="347293" user="Alexmol"/>
</old>
<new>
  <node id="7190841643" lat="37.1198317" lon="-8.5361610" version="19" timestamp="2025-07-26T13:12:40Z" changeset="169505935" uid="347293" user="Alexmol">
    <tag k="amenity" v="charging_station"/>
    <tag k="website" v="https://www.mobie.pt"/>
    <tag k="access" v="yes"/>
    <tag k="addr:city" v="Portimão"/>
    <tag k="addr:country" v="PT"/>
    <tag k="addr:street" v="Rua António Feu"/>
    <tag k="authentication:app" v="yes"/>
    <tag k="authentication:membership_card" v="yes"/>
    <tag k="authentication:none" v="no"/>
    <tag k="brand" v="Galp electric"/>
    <tag k="brand:wikidata" v="Q135275520"/>
    <tag k="capacity" v="2"/>
    <tag k="email" v="veiculoeletrico@galp.com"/>
    <tag k="fee" v="yes"/>
    <tag k="maxstay" v="unlimited"/>
    <tag k="motorcar" v="yes"/>
    <tag k="name" v="PTM-90001"/>
    <tag k="network" v="Mobi.E"/>
    <tag k="opening_hours" v="24/7"/>
    <tag k="operator" v="Galp Power"/>
    <tag k="operator:wikidata" v="Q135275372"/>
    <tag k="parking:fee" v="no"/>
    <tag k="payment:app" v="yes"/>
    <tag k="payment:cards" v="no"/>
    <tag k="payment:cash" v="no"/>
    <tag k="payment:membership_card" v="yes"/>
    <tag k="phone" v="+351 800 249 249"/>
    <tag k="ref" v="PTM-90001"/>
    <tag k="ref:EU:EVSE" v="PT*GLP*EPTM*90001*01;PT*GLP*EPTM*90001*02"/>
    <tag k="socket:type2" v="2"/>
    <tag k="socket:type2:current" v="32"/>
    <tag k="socket:type2:output" v="22 kW"/>
    <tag k="socket:type2:voltage" v="400"/>
  </node>
</new>
</action>
<action type="modify">
<old>
  <node id="8207446548" version="22" timestamp="2025-08-06T20:40:22Z" changeset="170077993" uid="347293" user="Alexmol"/>
</old>
<new>
  <node id="8207446548" lat="38.7948058" lon="-9.1676831" version="21" timestamp="2025-07-26T13:15:35Z" changeset="169506109" uid="347293" user="Alexmol">
    <tag k="amenity" v="charging_station"/>
    <tag k="website" v="https://www.mobie.pt"/>
    <tag k="access" v="yes"/>
    <tag k="addr:country" v="PT"/>
    <tag k="authentication:app" v="yes"/>
    <tag k="authentication:membership_card" v="yes"/>
    <tag k="authentication:none" v="no"/>
    <tag k="brand" v="Atlante"/>
    <tag k="brand:wikidata" v="Q126913632"/>
    <tag k="capacity" v="2"/>
    <tag k="email" v="support.portugal@atlante.energy"/>
    <tag k="fee" v="yes"/>
    <tag k="maxstay" v="unlimited"/>
    <tag k="motorcar" v="yes"/>
    <tag k="name" v="ODV-00042"/>
    <tag k="network" v="Mobi.E"/>
    <tag k="old_ref" v="ODV-00007;ODV-00020"/>
    <tag k="opening_hours" v="24/7"/>
    <tag k="operator" v="Atlante"/>
    <tag k="operator:wikidata" v="Q126913632"/>
    <tag k="parking:fee" v="no"/>
    <tag k="payment:app" v="yes"/>
    <tag k="payment:cards" v="yes"/>
    <tag k="payment:cash" v="no"/>
    <tag k="payment:membership_card" v="yes"/>
    <tag k="phone" v="+351 800 296 929;+351 234 246 050"/>
    <tag k="ref" v="ODV-00042"/>
    <tag k="ref:EU:EVSE" v="PT*ATL*EODV*00042*1;PT*ATL*EODV*00042*2"/>
    <tag k="socket:type2_combo" v="2"/>
    <tag k="socket:type2_combo:current" v="125"/>
    <tag k="socket:type2_combo:output" v="50 kW"/>
    <tag k="socket:type2_combo:voltage" v="500"/>
  </node>
</new>
</action>
<action type="delete">
<old>
  <node id="9091883670" lat="38.7152197" lon="-9.3002263" version="16" timestamp="2025-08-06T20:13:08Z" changeset="170077171" uid="347293" user="Alexmol">
    <tag k="access" v="yes"/>
    <tag k="addr:country" v="PT"/>
    <tag k="amenity" v="charging_station"/>
    <tag k="authentication:membership_card" v="yes"/>
    <tag k="authentication:none" v="no"/>
    <tag k="brand" v="Lidl"/>
    <tag k="brand:wikidata" v="Q151954"/>
    <tag k="capacity" v="2"/>
    <tag k="email" v="apoio.cliente@kmlowcost.com"/>
    <tag k="fee" v="yes"/>
    <tag k="maxstay" v="unlimited"/>
    <tag k="motorcar" v="yes"/>
    <tag k="name" v="OER-00215"/>
    <tag k="network" v="Mobi.E"/>
    <tag k="old_ref" v="OER-00067"/>
    <tag k="opening_hours" v="24/7"/>
    <tag k="operator" v="KLC Serviços"/>
    <tag k="operator:wikidata" v="Q127504745"/>
    <tag k="parking:fee" v="no"/>
    <tag k="payment:app" v="yes"/>
    <tag k="payment:cards" v="no"/>
    <tag k="payment:cash" v="no"/>
    <tag k="payment:membership_card" v="yes"/>
    <tag k="phone" v="+351 800 202 060"/>
    <tag k="ref" v="OER-00215"/>
    <tag k="socket:chademo" v="1"/>
    <tag k="socket:chademo:current" v="120"/>
    <tag k="socket:chademo:output" v="50 kW"/>
    <tag k="socket:chademo:voltage" v="500"/>
    <tag k="socket:type2_cable" v="1"/>
    <tag k="socket:type2_cable:current" v="63"/>
    <tag k="socket:type2_cable:output" v="43 kW"/>
    <tag k="socket:type2_cable:voltage" v="400"/>
    <tag k="socket:type2_combo" v="1"/>
    <tag k="socket:type2_combo:current" v="125"/>
    <tag k="socket:type2_combo:output" v="50 kW"/>
    <tag k="socket:type2_combo:voltage" v="500"/>
    <tag k="website" v="https://www.mobie.pt"/>
  </node>
</old>
<new>
  <node id="9091883670" visible="true" version="15" timestamp="2025-07-26T13:15:35Z" changeset="169506109" uid="347293" user="Alexmol"/>
</new>
</action>
<action type="delete">
<old>
  <node id="9720420623" lat="41.5558921" lon="-8.3764356" version="14" timestamp="2025-08-06T22:41:03Z" changeset="170081141" uid="347293" user="Alexmol">
    <tag k="access" v="yes"/>
    <tag k="addr:city" v="Braga"/>
    <tag k="addr:country" v="PT"/>
    <tag k="amenity" v="charging_station"/>
    <tag k="authentication:membership_card" v="yes"/>
    <tag k="authentication:none" v="no"/>
    <tag k="brand" v="MobiSmart"/>
    <tag k="capacity" v="1"/>
    <tag k="email" v="info@mobismart.pt;info@evce.pt"/>
    <tag k="fee" v="yes"/>
    <tag k="maxstay" v="unlimited"/>
    <tag k="motorcar" v="yes"/>
    <tag k="name" v="BRG-00106"/>
    <tag k="network" v="Mobi.E"/>
    <tag k="old_ref" v="BRG-00061"/>
    <tag k="opening_hours" v="24/7"/>
    <tag k="operator" v="EVCE"/>
    <tag k="parking:fee" v="yes"/>
    <tag k="payment:app" v="yes"/>
    <tag k="payment:cards" v="no"/>
    <tag k="payment:cash" v="no"/>
    <tag k="payment:membership_card" v="yes"/>
    <tag k="phone" v="+351 800 301 303"/>
    <tag k="socket:type2_cable" v="1"/>
    <tag k="socket:type2_cable:current" v="32"/>
    <tag k="socket:type2_cable:output" v="22 kW"/>
    <tag k="socket:type2_cable:voltage" v="400"/>
    <tag k="website" v="https://www.mobie.pt/"/>
  </node>
</old>
<new>
  <node id="9720420623" visible="true" version="13" timestamp="2025-07-26T13:21:33Z" changeset="169506501" uid="347293" user="Alexmol"/>
</new>
</action>
<action type="create">
  <node id="10759985336" lat="40.3014250" lon="-8.1669440" version="7" timestamp="2025-07-26T13:17:51Z" changeset="169506286" uid="347293" user="Alexmol">
    <tag k="amenity" v="charging_station"/>
    <tag k="website" v="https://www.mobie.pt/"/>
    <tag k="access" v="yes"/>
    <tag k="addr:country" v="PT"/>
    <tag k="authentication:app" v="yes"/>
    <tag k="authentication:membership_card" v="yes"/>
    <tag k="authentication:none" v="no"/>
    <tag k="brand" v="E-Plug"/>
    <tag k="capacity" v="2"/>
    <tag k="email" v="geral@eplug.pt"/>
    <tag k="fee" v="yes"/>
    <tag k="maxstay" v="unlimited"/>
    <tag k="motorcar" v="yes"/>
    <tag k="name" v="PCV-00002"/>
    <tag k="network" v="Mobi.E"/>
    <tag k="opening_hours" v="24/7"/>
    <tag k="operator" v="Plug"/>
    <tag k="parking:fee" v="no"/>
    <tag k="payment:app" v="yes"/>
    <tag k="payment:cards" v="no"/>
    <tag k="payment:cash" v="no"/>
    <tag k="payment:membership_card" v="yes"/>
    <tag k="ref" v="PCV-00002"/>
    <tag k="socket:type2" v="2"/>
    <tag k="socket:type2:current" v="32"/>
    <tag k="socket:type2:output" v="22 kW"/>
    <tag k="socket:type2:voltage" v="400"/>
  </node>
</action>
<action type="create">
  <node id="10982810123" lat="38.5602629" lon="-7.9138411" version="12" timestamp="2025-07-26T13:13:54Z" changeset="169506012" uid="347293" user="Alexmol">
    <tag k="amenity" v="charging_station"/>
    <tag k="website" v="https://www.mobie.pt"/>
    <tag k="name" v="EVR-00039 - Pingo Doce"/>
    <tag k="access" v="yes"/>
    <tag k="addr:country" v="PT"/>
    <tag k="authentication:app" v="yes"/>
    <tag k="authentication:membership_card" v="yes"/>
    <tag k="authentication:none" v="no"/>
    <tag k="brand" v="Atlante"/>
    <tag k="brand:wikidata" v="Q126913632"/>
    <tag k="capacity" v="2"/>
    <tag k="email" v="support.portugal@atlante.energy"/>
    <tag k="fee" v="yes"/>
    <tag k="maxstay" v="unlimited"/>
    <tag k="motorcar" v="yes"/>
    <tag k="network" v="Mobi.E"/>
    <tag k="old_ref" v="EVR-00030"/>
    <tag k="opening_hours" v="24/7"/>
    <tag k="operator" v="Atlante"/>
    <tag k="operator:wikidata" v="Q126913632"/>
    <tag k="parking:fee" v="no"/>
    <tag k="payment:app" v="yes"/>
    <tag k="payment:cards" v="no"/>
    <tag k="payment:cash" v="no"/>
    <tag k="payment:membership_card" v="yes"/>
    <tag k="phone" v="+351 800 296 929;+351 234 246 050"/>
    <tag k="ref" v="EVR-00039"/>
    <tag k="socket:chademo" v="1"/>
    <tag k="socket:chademo:current" v="125"/>
    <tag k="socket:chademo:output" v="30 kW"/>
    <tag k="socket:chademo:voltage" v="500"/>
    <tag k="socket:type2" v="1"/>
    <tag k="socket:type2:current" v="32"/>
    <tag k="socket:type2:output" v="22 kW"/>
    <tag k="socket:type2:voltage" v="400"/>
    <tag k="socket:type2_combo" v="1"/>
    <tag k="socket:type2_combo:current" v="125"/>
    <tag k="socket:type2_combo:output" v="30 kW"/>
    <tag k="socket:type2_combo:voltage" v="500"/>
  </node>
</action>
<action type="modify">
<old>
  <node id="12437725054" version="6" timestamp="2025-08-06T20:40:22Z" changeset="170077993" uid="347293" user="Alexmol"/>
</old>
<new>
  <node id="12437725054" lat="38.7947572" lon="-9.1676711" version="5" timestamp="2025-07-26T13:15:35Z" changeset="169506109" uid="347293" user="Alexmol">
    <tag k="amenity" v="charging_station"/>
    <tag k="website" v="https://www.mobie.pt"/>
    <tag k="access" v="yes"/>
    <tag k="addr:country" v="PT"/>
    <tag k="authentication:app" v="yes"/>
    <tag k="authentication:membership_card" v="yes"/>
    <tag k="authentication:none" v="no"/>
    <tag k="brand" v="Atlante"/>
    <tag k="brand:wikidata" v="Q126913632"/>
    <tag k="capacity" v="2"/>
    <tag k="email" v="support.portugal@atlante.energy"/>
    <tag k="fee" v="yes"/>
    <tag k="maxstay" v="unlimited"/>
    <tag k="motorcar" v="yes"/>
    <tag k="name" v="ODV-00043"/>
    <tag k="network" v="Mobi.E"/>
    <tag k="opening_hours" v="24/7"/>
    <tag k="operator" v="Atlante"/>
    <tag k="operator:wikidata" v="Q126913632"/>
    <tag k="parking:fee" v="no"/>
    <tag k="payment:app" v="yes"/>
    <tag k="payment:cards" v="no"/>
    <tag k="payment:cash" v="no"/>
    <tag k="payment:membership_card" v="yes"/>
    <tag k="phone" v="+351 800 296 929;+351 234 246 050"/>
    <tag k="ref" v="ODV-00043"/>
    <tag k="ref:EU:EVSE" v="PT*ATL*EODV*00043*1;PT*ATL*EODV*00043*2;PT*ATL*EODV*00043*3"/>
    <tag k="socket:chademo" v="1"/>
    <tag k="socket:chademo:current" v="125"/>
    <tag k="socket:chademo:output" v="50 kW"/>
    <tag k="socket:chademo:voltage" v="500"/>
    <tag k="socket:type2_cable" v="1"/>
    <tag k="socket:type2_cable:current" v="32"/>
    <tag k="socket:type2_cable:output" v="22 kW"/>
    <tag k="socket:type2_cable:voltage" v="400"/>
    <tag k="socket:type2_combo" v="1"/>
    <tag k="socket:type2_combo:current" v="150"/>
    <tag k="socket:type2_combo:output" v="60 kW"/>
    <tag k="socket:type2_combo:voltage" v="500"/>
  </node>
</new>
</action>
<action type="delete">
<old>
  <node id="12473691362" lat="41.3366328" lon="-8.5703382" version="7" timestamp="2025-08-06T20:03:36Z" changeset="170076871" uid="347293" user="Alexmol">
    <tag k="access" v="yes"/>
    <tag k="addr:country" v="PT"/>
    <tag k="amenity" v="charging_station"/>
    <tag k="authentication:app" v="yes"/>
    <tag k="authentication:membership_card" v="yes"/>
    <tag k="authentication:none" v="no"/>
    <tag k="brand" v="Powerdot"/>
    <tag k="brand:wikidata" v="Q123574541"/>
    <tag k="capacity" v="2"/>
    <tag k="email" v="ajuda@powerdot.pt"/>
    <tag k="fee" v="yes"/>
    <tag k="maxstay" v="unlimited"/>
    <tag k="motorcar" v="yes"/>
    <tag k="name" v="TRF-00013"/>
    <tag k="network" v="Mobi.E"/>
    <tag k="opening_hours" v="24/7"/>
    <tag k="operator" v="Powerdot"/>
    <tag k="operator:wikidata" v="Q123574541"/>
    <tag k="parking:fee" v="no"/>
    <tag k="payment:app" v="yes"/>
    <tag k="payment:cards" v="no"/>
    <tag k="payment:cash" v="no"/>
    <tag k="payment:membership_card" v="yes"/>
    <tag k="phone" v="+351 800 180 292"/>
    <tag k="ref" v="TRF-00013"/>
    <tag k="socket:chademo" v="1"/>
    <tag k="socket:chademo:current" v="120"/>
    <tag k="socket:chademo:output" v="50 kW"/>
    <tag k="socket:chademo:voltage" v="500"/>
    <tag k="socket:type2_cable" v="1"/>
    <tag k="socket:type2_cable:current" v="32"/>
    <tag k="socket:type2_cable:output" v="22 kW"/>
    <tag k="socket:type2_cable:voltage" v="400"/>
    <tag k="socket:type2_combo" v="1"/>
    <tag k="socket:type2_combo:current" v="125"/>
    <tag k="socket:type2_combo:output" v="50 kW"/>
    <tag k="socket:type2_combo:voltage" v="500"/>
    <tag k="website" v="https://www.mobie.pt/"/>
  </node>
</old>
<new>
  <node id="12473691362" visible="true" version="6" timestamp="2025-07-26T13:20:51Z" changeset="169506470" uid="347293" user="Alexmol"/>
</new>
</action>
<action type="delete">
<old>
  <node id="12670822844" lat="38.7743084" lon="-9.0965612" version="5" timestamp="2025-08-06T20:00:21Z" changeset="170076724" uid="347293" user="Alexmol">
    <tag k="access" v="yes"/>
    <tag k="addr:country" v="PT"/>
    <tag k="amenity" v="charging_station"/>
    <tag k="authentication:membership_card" v="yes"/>
    <tag k="authentication:none" v="no"/>
    <tag k="brand" v="wowplug"/>
    <tag k="capacity" v="2"/>
    <tag k="email" v="suporte@wowplug.com"/>
    <tag k="fee" v="yes"/>
    <tag k="indoor" v="yes"/>
    <tag k="level" v="-2"/>
    <tag k="location" v="underground"/>
    <tag k="maxstay" v="unlimited"/>
    <tag k="motorcar" v="yes"/>
    <tag k="name" v="LSB-00685"/>
    <tag k="network" v="Mobi.E"/>
    <tag k="old_operator" v="Ucharge"/>
    <tag k="old_ref" v="LSB-00188"/>
    <tag k="opening_hours" v="06:00-24:00"/>
    <tag k="operator" v="True Kare"/>
    <tag k="parking:fee" v="yes"/>
    <tag k="payment:app" v="yes"/>
    <tag k="payment:cards" v="no"/>
    <tag k="payment:cash" v="no"/>
    <tag k="payment:membership_card" v="yes"/>
    <tag k="ref" v="LSB-00685"/>
    <tag k="socket:type2" v="2"/>
    <tag k="socket:type2:current" v="32"/>
    <tag k="socket:type2:output" v="22 kW"/>
    <tag k="socket:type2:voltage" v="400"/>
    <tag k="website" v="https://www.mobie.pt"/>
  </node>
</old>
<new>
  <node id="12670822844" visible="true" version="4" timestamp="2025-07-26T13:15:35Z" changeset="169506109" uid="347293" user="Alexmol"/>
</new>
</action>
<action type="delete">
<old>
  <node id="12670822845" lat="38.7742739" lon="-9.0965666" version="5" timestamp="2025-08-06T20:00:21Z" changeset="170076724" uid="347293" user="Alexmol">
    <tag k="access" v="yes"/>
    <tag k="addr:country" v="PT"/>
    <tag k="amenity" v="charging_station"/>
    <tag k="authentication:membership_card" v="yes"/>
    <tag k="authentication:none" v="no"/>
    <tag k="brand" v="wowplug"/>
    <tag k="capacity" v="2"/>
    <tag k="email" v="suporte@wowplug.com"/>
    <tag k="fee" v="yes"/>
    <tag k="indoor" v="yes"/>
    <tag k="level" v="-2"/>
    <tag k="location" v="underground"/>
    <tag k="maxstay" v="unlimited"/>
    <tag k="motorcar" v="yes"/>
    <tag k="name" v="LSB-00684"/>
    <tag k="network" v="Mobi.E"/>
    <tag k="old_operator" v="Ucharge"/>
    <tag k="old_ref" v="LSB-00187"/>
    <tag k="opening_hours" v="06:00-24:00"/>
    <tag k="operator" v="True Kare"/>
    <tag k="parking:fee" v="yes"/>
    <tag k="payment:app" v="yes"/>
    <tag k="payment:cards" v="no"/>
    <tag k="payment:cash" v="no"/>
    <tag k="payment:membership_card" v="yes"/>
    <tag k="ref" v="LSB-00684"/>
    <tag k="socket:type2" v="2"/>
    <tag k="socket:type2:current" v="32"/>
    <tag k="socket:type2:output" v="22 kW"/>
    <tag k="socket:type2:voltage" v="400"/>
    <tag k="website" v="https://www.mobie.pt"/>
  </node>
</old>
<new>
  <node id="12670822845" visible="true" version="4" timestamp="2025-07-26T13:15:35Z" changeset="169506109" uid="347293" user="Alexmol"/>
</new>
</action>
<action type="delete">
<old>
  <node id="12928044753" lat="41.1419352" lon="-8.6050948" version="4" timestamp="2025-08-06T19:29:41Z" changeset="170075561" uid="347293" user="Alexmol">
    <tag k="access" v="yes"/>
    <tag k="addr:country" v="PT"/>
    <tag k="amenity" v="charging_station"/>
    <tag k="authentication:membership_card" v="yes"/>
    <tag k="authentication:none" v="no"/>
    <tag k="brand" v="Atlante"/>
    <tag k="brand:wikidata" v="Q126913632"/>
    <tag k="capacity" v="1"/>
    <tag k="email" v="support.portugal@atlante.energy"/>
    <tag k="fee" v="yes"/>
    <tag k="location" v="underground"/>
    <tag k="maxstay" v="unlimited"/>
    <tag k="motorcar" v="yes"/>
    <tag k="name" v="PRT-00298"/>
    <tag k="network" v="Mobi.E"/>
    <tag k="opening_hours" v="24/7"/>
    <tag k="operator" v="Atlante"/>
    <tag k="operator:wikidata" v="Q126913632"/>
    <tag k="parking:fee" v="no"/>
    <tag k="payment:app" v="yes"/>
    <tag k="payment:cards" v="yes"/>
    <tag k="payment:cash" v="no"/>
    <tag k="payment:membership_card" v="yes"/>
    <tag k="phone" v="+351 800 296 929;+351 234 246 050"/>
    <tag k="ref" v="PRT-00298"/>
    <tag k="ref:EU:EVSE" v="PT*ATL*EPRT*00298*1"/>
    <tag k="socket:type2" v="1"/>
    <tag k="socket:type2:current" v="32"/>
    <tag k="socket:type2:output" v="22 kW"/>
    <tag k="socket:type2:voltage" v="400"/>
    <tag k="website" v="https://www.mobie.pt/"/>
  </node>
</old>
<new>
  <node id="12928044753" visible="true" version="3" timestamp="2025-07-26T13:20:28Z" changeset="169506440" uid="347293" user="Alexmol"/>
</new>
</action>
<action type="delete">
<old>
  <node id="12930700034" lat="38.7111850" lon="-9.3261900" version="4" timestamp="2025-08-06T19:33:59Z" changeset="170075771" uid="347293" user="Alexmol">
    <tag k="access" v="yes"/>
    <tag k="addr:country" v="PT"/>
    <tag k="amenity" v="charging_station"/>
    <tag k="authentication:membership_card" v="yes"/>
    <tag k="authentication:none" v="no"/>
    <tag k="brand" v="wowplug"/>
    <tag k="capacity" v="2"/>
    <tag k="email" v="suporte@wowplug.com"/>
    <tag k="fee" v="yes"/>
    <tag k="maxstay" v="unlimited"/>
    <tag k="motorcar" v="yes"/>
    <tag k="name" v="CSC-00237"/>
    <tag k="network" v="Mobi.E"/>
    <tag k="opening_hours" v="24/7"/>
    <tag k="operator" v="True Kare"/>
    <tag k="parking:fee" v="no"/>
    <tag k="payment:app" v="yes"/>
    <tag k="payment:cards" v="no"/>
    <tag k="payment:cash" v="no"/>
    <tag k="payment:membership_card" v="yes"/>
    <tag k="ref" v="CSC-00237"/>
    <tag k="ref:EU:EVSE" v="PT*TRK*E*CSC*00237*01;PT*TRK*E*CSC*00237*02"/>
    <tag k="socket:type2" v="2"/>
    <tag k="socket:type2:current" v="32"/>
    <tag k="socket:type2:output" v="22 kW"/>
    <tag k="socket:type2:voltage" v="400"/>
    <tag k="website" v="https://www.mobie.pt/"/>
  </node>
</old>
<new>
  <node id="12930700034" visible="true" version="3" timestamp="2025-07-26T13:15:35Z" changeset="169506109" uid="347293" user="Alexmol"/>
</new>
</action>
<action type="delete">
<old>
  <node id="12959167087" lat="40.7876944" lon="-7.5920611" version="8" timestamp="2025-08-06T19:41:51Z" changeset="170076028" uid="347293" user="Alexmol">
    <tag k="access" v="yes"/>
    <tag k="addr:country" v="PT"/>
    <tag k="amenity" v="charging_station"/>
    <tag k="authentication:membership_card" v="yes"/>
    <tag k="authentication:none" v="no"/>
    <tag k="brand" v="Iberdrola bp pulse"/>
    <tag k="capacity" v="2"/>
    <tag k="charging_station:output" v="200 kW"/>
    <tag k="email" v="suporte@chargingtogether.pt"/>
    <tag k="fee" v="yes"/>
    <tag k="maxstay" v="unlimited"/>
    <tag k="motorcar" v="yes"/>
    <tag k="name" v="AGB-00003"/>
    <tag k="network" v="Mobi.E"/>
    <tag k="opening_hours" v="24/7"/>
    <tag k="operator" v="Charging Together"/>
    <tag k="parking:fee" v="no"/>
    <tag k="payment:app" v="yes"/>
    <tag k="payment:cards" v="yes"/>
    <tag k="payment:cash" v="no"/>
    <tag k="payment:membership_card" v="yes"/>
    <tag k="phone" v="+351 800 917 576"/>
    <tag k="ref" v="AGB-00003"/>
    <tag k="ref:EU:EVSE" v="PT*FCT*E*AGB*00003*01;PT*FCT*E*AGB*00003*02"/>
    <tag k="socket:type2_combo" v="2"/>
    <tag k="socket:type2_combo:current" v="600"/>
    <tag k="socket:type2_combo:output" v="200 kW"/>
    <tag k="socket:type2_combo:voltage" v="1000"/>
    <tag k="website" v="https://www.mobie.pt/"/>
  </node>
</old>
<new>
  <node id="12959167087" visible="true" version="6" timestamp="2025-07-26T13:18:19Z" changeset="169506302" uid="347293" user="Alexmol"/>
</new>
</action>
<action type="delete">
<old>
  <node id="12992192360" lat="38.7122866" lon="-9.4205380" version="4" timestamp="2025-08-06T19:22:53Z" changeset="170075267" uid="347293" user="Alexmol">
    <tag k="access" v="yes"/>
    <tag k="addr:country" v="PT"/>
    <tag k="amenity" v="charging_station"/>
    <tag k="authentication:membership_card" v="yes"/>
    <tag k="authentication:none" v="no"/>
    <tag k="brand" v="wowplug"/>
    <tag k="capacity" v="2"/>
    <tag k="email" v="suporte@wowplug.com"/>
    <tag k="fee" v="yes"/>
    <tag k="maxstay" v="unlimited"/>
    <tag k="motorcar" v="yes"/>
    <tag k="name" v="CSC-00309"/>
    <tag k="network" v="Mobi.E"/>
    <tag k="opening_hours" v="24/7"/>
    <tag k="operator" v="True Kare"/>
    <tag k="parking:fee" v="no"/>
    <tag k="payment:app" v="yes"/>
    <tag k="payment:cards" v="no"/>
    <tag k="payment:cash" v="no"/>
    <tag k="payment:membership_card" v="yes"/>
    <tag k="ref" v="CSC-00309"/>
    <tag k="ref:EU:EVSE" v="PT*TRK*E*CSC*00309*01;PT*TRK*E*CSC*00309*02"/>
    <tag k="socket:type2" v="2"/>
    <tag k="socket:type2:current" v="32"/>
    <tag k="socket:type2:output" v="22 kW"/>
    <tag k="socket:type2:voltage" v="400"/>
    <tag k="website" v="https://www.mobie.pt/"/>
  </node>
</old>
<new>
  <node id="12992192360" visible="true" version="3" timestamp="2025-07-26T13:15:35Z" changeset="169506109" uid="347293" user="Alexmol"/>
</new>
</action>
<action type="delete">
<old>
  <node id="13034883694" lat="38.7407530" lon="-9.3135330" version="2" timestamp="2025-08-06T20:14:25Z" changeset="170077205" uid="347293" user="Alexmol">
    <tag k="access" v="yes"/>
    <tag k="addr:country" v="PT"/>
    <tag k="amenity" v="charging_station"/>
    <tag k="authentication:app" v="yes"/>
    <tag k="authentication:membership_card" v="yes"/>
    <tag k="authentication:none" v="no"/>
    <tag k="brand" v="wowplug"/>
    <tag k="capacity" v="2"/>
    <tag k="email" v="suporte@wowplug.com"/>
    <tag k="fee" v="yes"/>
    <tag k="maxstay" v="unlimited"/>
    <tag k="motorcar" v="yes"/>
    <tag k="name" v="CSC-00402"/>
    <tag k="network" v="Mobi.E"/>
    <tag k="opening_hours" v="24/7"/>
    <tag k="operator" v="True Kare"/>
    <tag k="parking:fee" v="no"/>
    <tag k="payment:app" v="yes"/>
    <tag k="payment:cards" v="no"/>
    <tag k="payment:cash" v="no"/>
    <tag k="payment:membership_card" v="yes"/>
    <tag k="ref" v="CSC-00402"/>
    <tag k="ref:EU:EVSE" v="PT*TRK*E*CSC*00402*01;PT*TRK*E*CSC*00402*02"/>
    <tag k="socket:type2" v="2"/>
    <tag k="socket:type2:current" v="32"/>
    <tag k="socket:type2:output" v="22 kW"/>
    <tag k="socket:type2:voltage" v="400"/>
    <tag k="website" v="https://www.mobie.pt/"/>
  </node>
</old>
<new>
  <node id="13034883694" visible="true" version="1" timestamp="2025-07-29T20:26:58Z" changeset="169691721" uid="347293" user="Alexmol"/>
</new>
</action>
<action type="delete">
<old>
  <node id="13035115901" lat="38.7174760" lon="-9.4167020" version="2" timestamp="2025-08-06T20:01:43Z" changeset="170076779" uid="347293" user="Alexmol">
    <tag k="access" v="yes"/>
    <tag k="addr:country" v="PT"/>
    <tag k="amenity" v="charging_station"/>
    <tag k="authentication:app" v="yes"/>
    <tag k="authentication:membership_card" v="yes"/>
    <tag k="authentication:none" v="no"/>
    <tag k="brand" v="wowplug"/>
    <tag k="capacity" v="2"/>
    <tag k="email" v="suporte@wowplug.com"/>
    <tag k="fee" v="yes"/>
    <tag k="maxstay" v="unlimited"/>
    <tag k="motorcar" v="yes"/>
    <tag k="name" v="CSC-00314"/>
    <tag k="network" v="Mobi.E"/>
    <tag k="opening_hours" v="24/7"/>
    <tag k="operator" v="True Kare"/>
    <tag k="parking:fee" v="no"/>
    <tag k="payment:app" v="yes"/>
    <tag k="payment:cards" v="no"/>
    <tag k="payment:cash" v="no"/>
    <tag k="payment:membership_card" v="yes"/>
    <tag k="ref" v="CSC-00314"/>
    <tag k="ref:EU:EVSE" v="PT*TRK*E*CSC*00314*01;PT*TRK*E*CSC*00314*02"/>
    <tag k="socket:type2" v="2"/>
    <tag k="socket:type2:current" v="32"/>
    <tag k="socket:type2:output" v="22 kW"/>
    <tag k="socket:type2:voltage" v="400"/>
    <tag k="website" v="https://www.mobie.pt/"/>
  </node>
</old>
<new>
  <node id="13035115901" visible="true" version="1" timestamp="2025-07-29T20:26:58Z" changeset="169691721" uid="347293" user="Alexmol"/>
</new>
</action>
<action type="delete">
<old>
  <node id="13050861880" lat="41.0299116" lon="-7.7713740" version="2" timestamp="2025-08-06T20:16:11Z" changeset="170077276" uid="347293" user="Alexmol">
    <tag k="access" v="yes"/>
    <tag k="amenity" v="charging_station"/>
    <tag k="authentication:app" v="yes"/>
    <tag k="authentication:membership_card" v="yes"/>
    <tag k="authentication:none" v="no"/>
    <tag k="brand" v="Atlante"/>
    <tag k="brand:wikidata" v="Q126913632"/>
    <tag k="capacity" v="2"/>
    <tag k="fee" v="yes"/>
    <tag k="maxstay" v="unlimited"/>
    <tag k="motorcar" v="yes"/>
    <tag k="name" v="TRC-00002"/>
    <tag k="network" v="Mobi.E"/>
    <tag k="opening_hours" v="24/7"/>
    <tag k="operator" v="Atlante"/>
    <tag k="operator:wikidata" v="Q126913632"/>
    <tag k="parking:fee" v="no"/>
    <tag k="payment:app" v="yes"/>
    <tag k="payment:cards" v="yes"/>
    <tag k="payment:cash" v="no"/>
    <tag k="payment:membership_card" v="yes"/>
    <tag k="ref" v="TRC-00002"/>
    <tag k="ref:EU:EVSE" v="PT*ATL*ETRC*00002*1;PT*ATL*ETRC*00002*2"/>
    <tag k="socket:type2_combo" v="2"/>
    <tag k="socket:type2_combo:current" v="350"/>
    <tag k="socket:type2_combo:output" v="120 kW"/>
    <tag k="socket:type2_combo:voltage" v="1000"/>
    <tag k="website" v="https://www.mobie.pt/"/>
  </node>
</old>
<new>
  <node id="13050861880" visible="true" version="1" timestamp="2025-08-05T20:30:16Z" changeset="170027255" uid="347293" user="Alexmol"/>
</new>
</action>
<action type="delete">
<old>
  <node id="13055112894" lat="41.6588819" lon="-8.2709000" version="1" timestamp="2025-08-06T22:01:04Z" changeset="170080210" uid="347293" user="Alexmol">
    <tag k="access" v="customers"/>
    <tag k="addr:country" v="PT"/>
    <tag k="amenity" v="charging_station"/>
    <tag k="authentication:app" v="yes"/>
    <tag k="authentication:membership_card" v="yes"/>
    <tag k="authentication:none" v="no"/>
    <tag k="brand" v="edp Charge"/>
    <tag k="brand:wikidata" v="Q135275389"/>
    <tag k="capacity" v="1"/>
    <tag k="fee" v="yes"/>
    <tag k="maxstay" v="unlimited"/>
    <tag k="motorcar" v="yes"/>
    <tag k="network" v="Mobi.E"/>
    <tag k="opening_hours" v="24/7"/>
    <tag k="operator" v="EDP"/>
    <tag k="operator:wikidata" v="Q1341222"/>
    <tag k="parking:fee" v="no"/>
    <tag k="payment:app" v="yes"/>
    <tag k="payment:cards" v="no"/>
    <tag k="payment:cash" v="no"/>
    <tag k="payment:membership_card" v="yes"/>
    <tag k="phone" v="+351 800 222 222"/>
    <tag k="ref" v="AMR-00002"/>
    <tag k="ref:EU:EVSE" v="PT*EDP*EAMR*00002*1"/>
    <tag k="socket:type2" v="1"/>
    <tag k="socket:type2:current" v="32"/>
    <tag k="socket:type2:output" v="7.4 kW"/>
    <tag k="socket:type2:voltage" v="230"/>
    <tag k="website" v="https://www.mobie.pt"/>
  </node>
</old>
<new>
  <node id="13055112894" visible="false" version="0" timestamp="0000-00-00T00:00:00Z" changeset="0" uid="0" user=""/>
</new>
</action>
<action type="delete">
<old>
  <node id="13055186264" lat="41.6475708" lon="-8.1849714" version="1" timestamp="2025-08-06T22:35:25Z" changeset="170081020" uid="347293" user="Alexmol">
    <tag k="access" v="customers"/>
    <tag k="addr:country" v="PT"/>
    <tag k="amenity" v="charging_station"/>
    <tag k="authentication:app" v="yes"/>
    <tag k="authentication:membership_card" v="yes"/>
    <tag k="authentication:none" v="no"/>
    <tag k="brand" v="edp Charge"/>
    <tag k="brand:wikidata" v="Q135275389"/>
    <tag k="capacity" v="1"/>
    <tag k="fee" v="yes"/>
    <tag k="maxstay" v="unlimited"/>
    <tag k="motorcar" v="yes"/>
    <tag k="network" v="Mobi.E"/>
    <tag k="opening_hours" v="24/7"/>
    <tag k="operator" v="EDP"/>
    <tag k="operator:wikidata" v="Q1341222"/>
    <tag k="parking:fee" v="no"/>
    <tag k="payment:app" v="yes"/>
    <tag k="payment:cards" v="no"/>
    <tag k="payment:cash" v="no"/>
    <tag k="payment:membership_card" v="yes"/>
    <tag k="phone" v="+351 800 222 222"/>
    <tag k="ref" v="TBR-00003"/>
    <tag k="ref:EU:EVSE" v="PT*EDP*E*TBR*00003*1"/>
    <tag k="socket:type2" v="1"/>
    <tag k="socket:type2:current" v="32"/>
    <tag k="socket:type2:output" v="7.4 kW"/>
    <tag k="socket:type2:voltage" v="230"/>
    <tag k="website" v="https://www.mobie.pt"/>
  </node>
</old>
<new>
  <node id="13055186264" visible="false" version="0" timestamp="0000-00-00T00:00:00Z" changeset="0" uid="0" user=""/>
</new>
</action>

</osm>
