<?xml version="1.0" encoding="UTF-8"?>
<osm version="0.6" generator="Overpass API 0.7.62.7 375dc00a">
<note>The data included in this document is from www.openstreetmap.org. The data is made available under ODbL.</note>
<meta osm_base="2025-06-21T01:57:53Z" areas="2025-06-20T21:58:42Z"/>

<action type="create">
  <node id="8040874899" lat="39.4776408" lon="-8.6229050" version="11" timestamp="2023-10-08T14:47:02Z" changeset="142308392" uid="347293" user="Alexmol">
    <tag k="amenity" v="charging_station"/>
    <tag k="website" v="https://www.mobie.pt"/>
    <tag k="name" v="TNV-00003 - Repsol"/>
    <tag k="socket:type2_cable:current" v="63"/>
    <tag k="socket:type2_cable:output" v="43kW"/>
    <tag k="access" v="yes"/>
    <tag k="addr:country" v="PT"/>
    <tag k="authentication:membership_card" v="yes"/>
    <tag k="authentication:none" v="no"/>
    <tag k="capacity" v="2"/>
    <tag k="email" v="manutencaors@repsol.com"/>
    <tag k="fee" v="yes"/>
    <tag k="maxstay" v="unlimited"/>
    <tag k="motorcar" v="yes"/>
    <tag k="network" v="Mobi.E"/>
    <tag k="opening_hours" v="24/7"/>
    <tag k="operator" v="Repsol"/>
    <tag k="operator:wikidata" v="Q174747"/>
    <tag k="parking:fee" v="no"/>
    <tag k="payment:app" v="yes"/>
    <tag k="payment:cards" v="no"/>
    <tag k="payment:cash" v="no"/>
    <tag k="payment:membership_card" v="yes"/>
    <tag k="phone" v="+351 800 226 624"/>
    <tag k="ref" v="TNV-00003"/>
    <tag k="socket:chademo" v="1"/>
    <tag k="socket:chademo:current" v="120"/>
    <tag k="socket:chademo:output" v="50kW"/>
    <tag k="socket:chademo:voltage" v="500"/>
    <tag k="socket:type2_cable" v="1"/>
    <tag k="socket:type2_cable:voltage" v="400"/>
    <tag k="socket:type2_combo" v="1"/>
    <tag k="socket:type2_combo:current" v="125"/>
    <tag k="socket:type2_combo:output" v="50kW"/>
    <tag k="socket:type2_combo:voltage" v="500"/>
  </node>
</action>
<action type="create">
  <node id="8089528235" lat="39.4012764" lon="-9.1369276" version="10" timestamp="2022-05-14T12:09:25Z" changeset="120976521" uid="347293" user="Alexmol">
    <tag k="amenity" v="charging_station"/>
    <tag k="capacity" v="4"/>
    <tag k="website" v="https://www.mobie.pt"/>
    <tag k="name" v="CLD-00009/10 - La Vie Shopping"/>
    <tag k="ref" v="CLD-00009;CLD-00010"/>
    <tag k="socket:type2" v="4"/>
    <tag k="access" v="yes"/>
    <tag k="addr:country" v="PT"/>
    <tag k="authentication:membership_card" v="yes"/>
    <tag k="authentication:none" v="no"/>
    <tag k="email" v="ajuda@powerdot.pt"/>
    <tag k="fee" v="yes"/>
    <tag k="maxstay" v="unlimited"/>
    <tag k="motorcar" v="yes"/>
    <tag k="network" v="Mobi.E"/>
    <tag k="opening_hours" v="09:00-23:00"/>
    <tag k="operator" v="Powerdot"/>
    <tag k="parking:fee" v="no"/>
    <tag k="payment:app" v="yes"/>
    <tag k="payment:cards" v="no"/>
    <tag k="payment:cash" v="no"/>
    <tag k="payment:membership_card" v="yes"/>
    <tag k="phone" v="+351 800 180 292"/>
    <tag k="socket:type2:current" v="16"/>
    <tag k="socket:type2:output" v="11kW"/>
    <tag k="socket:type2:voltage" v="400"/>
  </node>
</action>
<action type="delete">
<old>
  <node id="8418602785" lat="41.1751966" lon="-8.5566948" version="18" timestamp="2025-06-20T15:13:11Z" changeset="167875342" uid="347293" user="Alexmol">
    <tag k="access" v="yes"/>
    <tag k="addr:city" v="Rio Tinto"/>
    <tag k="addr:country" v="PT"/>
    <tag k="addr:street" v="Rua da Boavista"/>
    <tag k="amenity" v="charging_station"/>
    <tag k="authentication:membership_card" v="yes"/>
    <tag k="authentication:none" v="no"/>
    <tag k="capacity" v="2"/>
    <tag k="fee" v="yes"/>
    <tag k="maxstay" v="unlimited"/>
    <tag k="motorcar" v="yes"/>
    <tag k="name" v="GDM-00042"/>
    <tag k="network" v="Mobi.E"/>
    <tag k="old_ref" v="GDM-00004"/>
    <tag k="opening_hours" v="24/7"/>
    <tag k="operator" v="KLC Serviços"/>
    <tag k="parking:fee" v="no"/>
    <tag k="payment:app" v="yes"/>
    <tag k="payment:cards" v="no"/>
    <tag k="payment:cash" v="no"/>
    <tag k="payment:membership_card" v="yes"/>
    <tag k="phone" v="+351 800 202 060"/>
    <tag k="ref" v="GDM-00042"/>
    <tag k="socket:chademo" v="1"/>
    <tag k="socket:chademo:current" v="120"/>
    <tag k="socket:chademo:output" v="50kW"/>
    <tag k="socket:chademo:voltage" v="500"/>
    <tag k="socket:type2_cable" v="1"/>
    <tag k="socket:type2_cable:current" v="63"/>
    <tag k="socket:type2_cable:output" v="43kW"/>
    <tag k="socket:type2_cable:voltage" v="400"/>
    <tag k="socket:type2_combo" v="1"/>
    <tag k="socket:type2_combo:current" v="125"/>
    <tag k="socket:type2_combo:output" v="50kW"/>
    <tag k="socket:type2_combo:voltage" v="500"/>
    <tag k="website" v="https://www.mobie.pt"/>
  </node>
</old>
<new>
  <node id="8418602785" visible="true" version="17" timestamp="2025-05-25T12:01:54Z" changeset="166731699" uid="347293" user="Alexmol"/>
</new>
</action>
<action type="delete">
<old>
  <node id="9341843748" lat="39.0799940" lon="-28.0081780" version="8" timestamp="2025-06-20T15:07:41Z" changeset="167875152" uid="347293" user="Alexmol">
    <tag k="access" v="yes"/>
    <tag k="addr:country" v="PT"/>
    <tag k="amenity" v="charging_station"/>
    <tag k="authentication:membership_card" v="yes"/>
    <tag k="authentication:none" v="no"/>
    <tag k="capacity" v="2"/>
    <tag k="fee" v="yes"/>
    <tag k="maxstay" v="unlimited"/>
    <tag k="motorcar" v="yes"/>
    <tag k="name" v="SCG-00002"/>
    <tag k="network" v="Mobi.E"/>
    <tag k="opening_hours" v="24/7"/>
    <tag k="operator" v="SEGMA"/>
    <tag k="parking:fee" v="no"/>
    <tag k="payment:app" v="yes"/>
    <tag k="payment:cards" v="no"/>
    <tag k="payment:cash" v="no"/>
    <tag k="payment:membership_card" v="yes"/>
    <tag k="ref" v="SCG-00002"/>
    <tag k="socket:type2" v="2"/>
    <tag k="socket:type2:current" v="32"/>
    <tag k="socket:type2:output" v="22kW"/>
    <tag k="socket:type2:voltage" v="400"/>
    <tag k="website" v="https://www.mobie.pt/"/>
  </node>
</old>
<new>
  <node id="9341843748" visible="true" version="7" timestamp="2025-03-05T23:20:09Z" changeset="163264956" uid="347293" user="Alexmol"/>
</new>
</action>
<action type="modify">
<old>
  <node id="9755551602" version="5" timestamp="2025-06-20T11:28:47Z" changeset="167865583" uid="347293" user="Alexmol"/>
</old>
<new>
  <node id="9755551602" lat="39.4776594" lon="-8.6228297" version="4" timestamp="2023-08-12T10:23:48Z" changeset="139781514" uid="347293" user="Alexmol">
    <tag k="amenity" v="charging_station"/>
    <tag k="capacity" v="4"/>
    <tag k="website" v="https://www.mobie.pt"/>
    <tag k="name" v="TNV-00007/8 - Repsol"/>
    <tag k="ref" v="TNV-00007;TNV-00008"/>
    <tag k="socket:chademo" v="2"/>
    <tag k="socket:type2_cable" v="2"/>
    <tag k="socket:type2_combo" v="2"/>
    <tag k="access" v="yes"/>
    <tag k="addr:country" v="PT"/>
    <tag k="authentication:membership_card" v="yes"/>
    <tag k="authentication:none" v="no"/>
    <tag k="email" v="manutencaors@repsol.com"/>
    <tag k="fee" v="yes"/>
    <tag k="maxstay" v="unlimited"/>
    <tag k="motorcar" v="yes"/>
    <tag k="network" v="Mobi.E"/>
    <tag k="opening_hours" v="24/7"/>
    <tag k="operator" v="Repsol"/>
    <tag k="operator:wikidata" v="Q174747"/>
    <tag k="parking:fee" v="no"/>
    <tag k="payment:app" v="yes"/>
    <tag k="payment:cards" v="no"/>
    <tag k="payment:cash" v="no"/>
    <tag k="payment:membership_card" v="yes"/>
    <tag k="phone" v="+351 800 226 624"/>
    <tag k="socket:chademo:current" v="80"/>
    <tag k="socket:chademo:output" v="30kW"/>
    <tag k="socket:chademo:voltage" v="500"/>
    <tag k="socket:type2_cable:current" v="32"/>
    <tag k="socket:type2_cable:output" v="22kW"/>
    <tag k="socket:type2_cable:voltage" v="400"/>
    <tag k="socket:type2_combo:current" v="80"/>
    <tag k="socket:type2_combo:output" v="30kW"/>
    <tag k="socket:type2_combo:voltage" v="500"/>
  </node>
</new>
</action>
<action type="delete">
<old>
  <node id="11813650082" lat="38.7497105" lon="-9.1843732" version="6" timestamp="2025-06-20T14:56:27Z" changeset="167874697" uid="347293" user="Alexmol">
    <tag k="access" v="yes"/>
    <tag k="addr:country" v="PT"/>
    <tag k="amenity" v="charging_station"/>
    <tag k="authentication:membership_card" v="yes"/>
    <tag k="authentication:none" v="no"/>
    <tag k="capacity" v="2"/>
    <tag k="fee" v="yes"/>
    <tag k="maxstay" v="unlimited"/>
    <tag k="motorcar" v="yes"/>
    <tag k="name" v="LSB-00831"/>
    <tag k="network" v="Mobi.E"/>
    <tag k="opening_hours" v="24/7"/>
    <tag k="operator" v="Hexagonal Ocean"/>
    <tag k="parking:fee" v="no"/>
    <tag k="payment:app" v="yes"/>
    <tag k="payment:cards" v="no"/>
    <tag k="payment:cash" v="no"/>
    <tag k="payment:membership_card" v="yes"/>
    <tag k="ref" v="LSB-00831"/>
    <tag k="ref:EU:EVSE" v="PT*HEX*E*LSB*00831*01;PT*HEX*E*LSB*00831*02"/>
    <tag k="socket:type2" v="2"/>
    <tag k="socket:type2:current" v="16"/>
    <tag k="socket:type2:output" v="11kW"/>
    <tag k="socket:type2:voltage" v="400"/>
    <tag k="website" v="https://www.mobie.pt"/>
  </node>
</old>
<new>
  <node id="11813650082" visible="true" version="4" timestamp="2025-05-25T08:58:13Z" changeset="166725070" uid="347293" user="Alexmol"/>
</new>
</action>
<action type="delete">
<old>
  <node id="11813650083" lat="38.7496180" lon="-9.1843855" version="6" timestamp="2025-06-20T14:56:27Z" changeset="167874697" uid="347293" user="Alexmol">
    <tag k="access" v="yes"/>
    <tag k="addr:country" v="PT"/>
    <tag k="amenity" v="charging_station"/>
    <tag k="authentication:membership_card" v="yes"/>
    <tag k="authentication:none" v="no"/>
    <tag k="capacity" v="2"/>
    <tag k="fee" v="yes"/>
    <tag k="maxstay" v="unlimited"/>
    <tag k="motorcar" v="yes"/>
    <tag k="name" v="LSB-00832"/>
    <tag k="network" v="Mobi.E"/>
    <tag k="opening_hours" v="24/7"/>
    <tag k="operator" v="Hexagonal Ocean"/>
    <tag k="parking:fee" v="no"/>
    <tag k="payment:app" v="yes"/>
    <tag k="payment:cards" v="no"/>
    <tag k="payment:cash" v="no"/>
    <tag k="payment:membership_card" v="yes"/>
    <tag k="ref" v="LSB-00832"/>
    <tag k="ref:EU:EVSE" v="PT*HEX*E*LSB*00832*01;PT*HEX*E*LSB*00832*02"/>
    <tag k="socket:type2" v="2"/>
    <tag k="socket:type2:current" v="16"/>
    <tag k="socket:type2:output" v="11kW"/>
    <tag k="socket:type2:voltage" v="400"/>
    <tag k="website" v="https://www.mobie.pt/"/>
  </node>
</old>
<new>
  <node id="11813650083" visible="true" version="4" timestamp="2025-05-25T08:58:13Z" changeset="166725070" uid="347293" user="Alexmol"/>
</new>
</action>
<action type="delete">
<old>
  <node id="12063966302" lat="39.2578419" lon="-8.0165668" version="6" timestamp="2025-06-20T15:05:46Z" changeset="167875075" uid="347293" user="Alexmol">
    <tag k="access" v="yes"/>
    <tag k="addr:country" v="PT"/>
    <tag k="amenity" v="charging_station"/>
    <tag k="authentication:membership_card" v="yes"/>
    <tag k="authentication:none" v="no"/>
    <tag k="capacity" v="2"/>
    <tag k="fee" v="yes"/>
    <tag k="maxstay" v="unlimited"/>
    <tag k="motorcar" v="yes"/>
    <tag k="name" v="PSR-00018"/>
    <tag k="network" v="Mobi.E"/>
    <tag k="old_operator" v="KLC Serviços"/>
    <tag k="old_ref" v="PSR-00011"/>
    <tag k="opening_hours" v="24/7"/>
    <tag k="parking:fee" v="no"/>
    <tag k="payment:app" v="yes"/>
    <tag k="payment:cards" v="no"/>
    <tag k="payment:cash" v="no"/>
    <tag k="payment:membership_card" v="yes"/>
    <tag k="ref" v="PSR-00018"/>
    <tag k="ref:EU:EVSE" v="PT*GLP*EPSR*00018*01;PT*GLP*EPSR*00018*02;PT*GLP*EPSR*00018*03"/>
    <tag k="socket:chademo" v="1"/>
    <tag k="socket:chademo:current" v="120"/>
    <tag k="socket:chademo:output" v="50kW"/>
    <tag k="socket:chademo:voltage" v="500"/>
    <tag k="socket:type2_cable" v="1"/>
    <tag k="socket:type2_cable:current" v="32"/>
    <tag k="socket:type2_cable:output" v="22kW"/>
    <tag k="socket:type2_cable:voltage" v="400"/>
    <tag k="socket:type2_combo" v="1"/>
    <tag k="socket:type2_combo:current" v="125"/>
    <tag k="socket:type2_combo:output" v="50kW"/>
    <tag k="socket:type2_combo:voltage" v="500"/>
    <tag k="website" v="https://www.mobie.pt/"/>
  </node>
</old>
<new>
  <node id="12063966302" visible="true" version="4" timestamp="2025-04-26T16:04:08Z" changeset="165472506" uid="347293" user="Alexmol"/>
</new>
</action>
<action type="delete">
<old>
  <node id="12297775352" lat="38.7133372" lon="-9.4246852" version="4" timestamp="2025-06-20T15:16:22Z" changeset="167875470" uid="347293" user="Alexmol">
    <tag k="access" v="yes"/>
    <tag k="addr:country" v="PT"/>
    <tag k="amenity" v="charging_station"/>
    <tag k="authentication:membership_card" v="yes"/>
    <tag k="authentication:none" v="no"/>
    <tag k="brand" v="wowplug"/>
    <tag k="capacity" v="2"/>
    <tag k="fee" v="yes"/>
    <tag k="maxstay" v="unlimited"/>
    <tag k="motorcar" v="yes"/>
    <tag k="name" v="CSC-00329"/>
    <tag k="network" v="Mobi.E"/>
    <tag k="opening_hours" v="24/7"/>
    <tag k="operator" v="True Kare"/>
    <tag k="parking:fee" v="no"/>
    <tag k="payment:app" v="yes"/>
    <tag k="payment:cards" v="no"/>
    <tag k="payment:cash" v="no"/>
    <tag k="payment:membership_card" v="yes"/>
    <tag k="ref" v="CSC-00329"/>
    <tag k="ref:EU:EVSE" v="PT*TRK*E*CSC*00329*01;PT*TRK*E*CSC*00329*02"/>
    <tag k="socket:type2" v="2"/>
    <tag k="socket:type2:current" v="32"/>
    <tag k="socket:type2:output" v="22kW"/>
    <tag k="socket:type2:voltage" v="400"/>
    <tag k="website" v="https://www.mobie.pt/"/>
  </node>
</old>
<new>
  <node id="12297775352" visible="true" version="2" timestamp="2025-01-03T16:41:36Z" changeset="160957195" uid="347293" user="Alexmol"/>
</new>
</action>
<action type="delete">
<old>
  <node id="12605345676" lat="40.9663933" lon="-8.5373160" version="6" timestamp="2025-06-20T15:04:37Z" changeset="167875030" uid="347293" user="Alexmol">
    <tag k="access" v="yes"/>
    <tag k="addr:country" v="PT"/>
    <tag k="amenity" v="charging_station"/>
    <tag k="authentication:membership_card" v="yes"/>
    <tag k="authentication:none" v="no"/>
    <tag k="capacity" v="2"/>
    <tag k="fee" v="yes"/>
    <tag k="maxstay" v="unlimited"/>
    <tag k="motorcar" v="yes"/>
    <tag k="name" v="VFR-00085"/>
    <tag k="network" v="Mobi.E"/>
    <tag k="opening_hours" v="24/7"/>
    <tag k="operator" v="Repsol"/>
    <tag k="operator:wikidata" v="Q174747"/>
    <tag k="parking:fee" v="no"/>
    <tag k="payment:app" v="yes"/>
    <tag k="payment:cards" v="no"/>
    <tag k="payment:cash" v="no"/>
    <tag k="payment:membership_card" v="yes"/>
    <tag k="ref" v="VFR-00085"/>
    <tag k="ref:EU:EVSE" v="PT*REP*E*VFR*00085*01;PT*REP*E*VFR*00085*02;PT*REP*E*VFR*00085*03"/>
    <tag k="socket:chademo" v="1"/>
    <tag k="socket:chademo:current" v="120"/>
    <tag k="socket:chademo:output" v="50kW"/>
    <tag k="socket:chademo:voltage" v="500"/>
    <tag k="socket:type2_cable" v="1"/>
    <tag k="socket:type2_cable:current" v="63"/>
    <tag k="socket:type2_cable:output" v="43kW"/>
    <tag k="socket:type2_cable:voltage" v="400"/>
    <tag k="socket:type2_combo" v="1"/>
    <tag k="socket:type2_combo:current" v="150"/>
    <tag k="socket:type2_combo:output" v="60kW"/>
    <tag k="socket:type2_combo:voltage" v="1000"/>
    <tag k="website" v="https://www.mobie.pt/"/>
  </node>
</old>
<new>
  <node id="12605345676" visible="true" version="4" timestamp="2025-05-18T10:33:05Z" changeset="166424242" uid="347293" user="Alexmol"/>
</new>
</action>
<action type="delete">
<old>
  <node id="12927861978" lat="40.2145800" lon="-8.4363130" version="2" timestamp="2025-06-20T10:03:50Z" changeset="167862101" uid="347293" user="Alexmol">
    <tag k="access" v="customers"/>
    <tag k="addr:country" v="PT"/>
    <tag k="amenity" v="charging_station"/>
    <tag k="authentication:membership_card" v="yes"/>
    <tag k="authentication:none" v="no"/>
    <tag k="capacity" v="2"/>
    <tag k="fee" v="yes"/>
    <tag k="location" v="underground"/>
    <tag k="maxstay" v="unlimited"/>
    <tag k="motorcar" v="yes"/>
    <tag k="network" v="Mobi.E"/>
    <tag k="opening_hours" v="24/7"/>
    <tag k="operator" v="EDP"/>
    <tag k="parking:fee" v="no"/>
    <tag k="payment:app" v="yes"/>
    <tag k="payment:cards" v="no"/>
    <tag k="payment:cash" v="no"/>
    <tag k="payment:membership_card" v="yes"/>
    <tag k="ref" v="CBR-00129"/>
    <tag k="ref:EU:EVSE" v="PT*EDP*ECBR*00129*1;PT*EDP*ECBR*00129*2"/>
    <tag k="socket:type2" v="2"/>
    <tag k="socket:type2:current" v="32"/>
    <tag k="socket:type2:output" v="22kW"/>
    <tag k="socket:type2:voltage" v="400"/>
    <tag k="website" v="https://www.mobie.pt/"/>
  </node>
</old>
<new>
  <node id="12927861978" visible="false" version="0" timestamp="0000-00-00T00:00:00Z" changeset="0" uid="0" user=""/>
</new>
</action>
<action type="delete">
<old>
  <node id="12927963202" lat="41.1244770" lon="-8.5970894" version="1" timestamp="2025-06-20T10:51:01Z" changeset="167863979" uid="347293" user="Alexmol">
    <tag k="access" v="yes"/>
    <tag k="addr:country" v="PT"/>
    <tag k="amenity" v="charging_station"/>
    <tag k="authentication:membership_card" v="yes"/>
    <tag k="authentication:none" v="no"/>
    <tag k="capacity" v="2"/>
    <tag k="email" v="comercial@iberdrola.pt"/>
    <tag k="fee" v="yes"/>
    <tag k="maxstay" v="unlimited"/>
    <tag k="motorcar" v="yes"/>
    <tag k="name" v="VNG-00204"/>
    <tag k="network" v="Mobi.E"/>
    <tag k="old_ref" v="VNG-00058"/>
    <tag k="opening_hours" v="09:00-21:30"/>
    <tag k="operator" v="Iberdrola"/>
    <tag k="operator:wikidata" v="Q1437502"/>
    <tag k="parking:fee" v="no"/>
    <tag k="payment:app" v="yes"/>
    <tag k="payment:cards" v="no"/>
    <tag k="payment:cash" v="no"/>
    <tag k="payment:membership_card" v="yes"/>
    <tag k="phone" v="+351 800 607 717"/>
    <tag k="ref" v="VNG-00204"/>
    <tag k="ref:EU:EVSE" v="PT*IBD*E*VNG*00204*01;PT*IBD*E*VNG*00204*02"/>
    <tag k="socket:type2" v="2"/>
    <tag k="socket:type2:current" v="22"/>
    <tag k="socket:type2:output" v="15kW"/>
    <tag k="socket:type2:voltage" v="400"/>
    <tag k="website" v="https://www.mobie.pt"/>
  </node>
</old>
<new>
  <node id="12927963202" visible="false" version="0" timestamp="0000-00-00T00:00:00Z" changeset="0" uid="0" user=""/>
</new>
</action>
<action type="delete">
<old>
  <node id="12929057515" lat="38.7042096" lon="-9.4058197" version="1" timestamp="2025-06-20T13:11:31Z" changeset="167870234" uid="347293" user="Alexmol">
    <tag k="access" v="customers"/>
    <tag k="addr:country" v="PT"/>
    <tag k="amenity" v="charging_station"/>
    <tag k="authentication:membership_card" v="yes"/>
    <tag k="authentication:none" v="no"/>
    <tag k="capacity" v="2"/>
    <tag k="fee" v="yes"/>
    <tag k="maxstay" v="unlimited"/>
    <tag k="motorcar" v="yes"/>
    <tag k="network" v="Mobi.E"/>
    <tag k="opening_hours" v="24/7"/>
    <tag k="operator" v="Iberdrola"/>
    <tag k="parking:fee" v="no"/>
    <tag k="payment:app" v="yes"/>
    <tag k="payment:cards" v="no"/>
    <tag k="payment:cash" v="no"/>
    <tag k="payment:membership_card" v="yes"/>
    <tag k="ref" v="CSC-00262"/>
    <tag k="ref:EU:EVSE" v="PT*IBD*E*CSC*00262*01;PT*IBD*E*CSC*00262*02"/>
    <tag k="socket:type2_cable" v="2"/>
    <tag k="socket:type2_cable:current" v="16"/>
    <tag k="socket:type2_cable:output" v="11kW"/>
    <tag k="socket:type2_cable:voltage" v="400"/>
    <tag k="website" v="https://www.mobie.pt/"/>
  </node>
</old>
<new>
  <node id="12929057515" visible="false" version="0" timestamp="0000-00-00T00:00:00Z" changeset="0" uid="0" user=""/>
</new>
</action>
<action type="delete">
<old>
  <node id="12929057516" lat="38.7041740" lon="-9.4058170" version="1" timestamp="2025-06-20T13:11:31Z" changeset="167870234" uid="347293" user="Alexmol">
    <tag k="access" v="customers"/>
    <tag k="addr:country" v="PT"/>
    <tag k="amenity" v="charging_station"/>
    <tag k="authentication:membership_card" v="yes"/>
    <tag k="authentication:none" v="no"/>
    <tag k="capacity" v="2"/>
    <tag k="fee" v="yes"/>
    <tag k="maxstay" v="unlimited"/>
    <tag k="motorcar" v="yes"/>
    <tag k="network" v="Mobi.E"/>
    <tag k="opening_hours" v="24/7"/>
    <tag k="operator" v="Iberdrola"/>
    <tag k="parking:fee" v="no"/>
    <tag k="payment:app" v="yes"/>
    <tag k="payment:cards" v="no"/>
    <tag k="payment:cash" v="no"/>
    <tag k="payment:membership_card" v="yes"/>
    <tag k="ref" v="CSC-00261"/>
    <tag k="ref:EU:EVSE" v="PT*IBD*E*CSC*00261*01;PT*IBD*E*CSC*00261*02"/>
    <tag k="socket:type2_cable" v="2"/>
    <tag k="socket:type2_cable:current" v="16"/>
    <tag k="socket:type2_cable:output" v="11kW"/>
    <tag k="socket:type2_cable:voltage" v="400"/>
    <tag k="website" v="https://www.mobie.pt/"/>
  </node>
</old>
<new>
  <node id="12929057516" visible="false" version="0" timestamp="0000-00-00T00:00:00Z" changeset="0" uid="0" user=""/>
</new>
</action>
<action type="delete">
<old>
  <node id="12929224400" lat="38.7479810" lon="-9.1877387" version="2" timestamp="2025-06-20T15:20:36Z" changeset="167875657" uid="347293" user="Alexmol">
    <tag k="access" v="yes"/>
    <tag k="addr:country" v="PT"/>
    <tag k="amenity" v="charging_station"/>
    <tag k="authentication:membership_card" v="yes"/>
    <tag k="authentication:none" v="no"/>
    <tag k="capacity" v="2"/>
    <tag k="fee" v="yes"/>
    <tag k="maxstay" v="unlimited"/>
    <tag k="motorcar" v="yes"/>
    <tag k="name" v="LSB-00834"/>
    <tag k="network" v="Mobi.E"/>
    <tag k="opening_hours" v="24/7"/>
    <tag k="operator" v="Hexagonal Ocean"/>
    <tag k="parking:fee" v="no"/>
    <tag k="payment:app" v="yes"/>
    <tag k="payment:cards" v="no"/>
    <tag k="payment:cash" v="no"/>
    <tag k="payment:membership_card" v="yes"/>
    <tag k="ref" v="LSB-00834"/>
    <tag k="ref:EU:EVSE" v="PT*HEX*E*LSB*00834*01;PT*HEX*E*LSB*00834*02"/>
    <tag k="socket:type2" v="2"/>
    <tag k="socket:type2:current" v="16"/>
    <tag k="socket:type2:output" v="11kW"/>
    <tag k="socket:type2:voltage" v="400"/>
    <tag k="website" v="https://www.mobie.pt/"/>
  </node>
</old>
<new>
  <node id="12929224400" visible="false" version="0" timestamp="0000-00-00T00:00:00Z" changeset="0" uid="0" user=""/>
</new>
</action>
<action type="delete">
<old>
  <node id="12929470301" lat="38.7479763" lon="-9.1876755" version="2" timestamp="2025-06-20T15:20:36Z" changeset="167875657" uid="347293" user="Alexmol">
    <tag k="access" v="yes"/>
    <tag k="addr:country" v="PT"/>
    <tag k="amenity" v="charging_station"/>
    <tag k="authentication:membership_card" v="yes"/>
    <tag k="authentication:none" v="no"/>
    <tag k="capacity" v="2"/>
    <tag k="fee" v="yes"/>
    <tag k="maxstay" v="unlimited"/>
    <tag k="motorcar" v="yes"/>
    <tag k="name" v="LSB-00833"/>
    <tag k="network" v="Mobi.E"/>
    <tag k="opening_hours" v="24/7"/>
    <tag k="operator" v="Hexagonal Ocean"/>
    <tag k="parking:fee" v="no"/>
    <tag k="payment:app" v="yes"/>
    <tag k="payment:cards" v="no"/>
    <tag k="payment:cash" v="no"/>
    <tag k="payment:membership_card" v="yes"/>
    <tag k="ref" v="LSB-00833"/>
    <tag k="ref:EU:EVSE" v="PT*HEX*E*LSB*00833*01;PT*HEX*E*LSB*00833*02"/>
    <tag k="socket:type2" v="2"/>
    <tag k="socket:type2:current" v="16"/>
    <tag k="socket:type2:output" v="11kW"/>
    <tag k="socket:type2:voltage" v="400"/>
    <tag k="website" v="https://www.mobie.pt/"/>
  </node>
</old>
<new>
  <node id="12929470301" visible="false" version="0" timestamp="0000-00-00T00:00:00Z" changeset="0" uid="0" user=""/>
</new>
</action>
<action type="delete">
<old>
  <node id="12930635801" lat="38.6998200" lon="-9.3228510" version="2" timestamp="2025-06-20T15:24:03Z" changeset="167875808" uid="347293" user="Alexmol">
    <tag k="access" v="yes"/>
    <tag k="addr:country" v="PT"/>
    <tag k="amenity" v="charging_station"/>
    <tag k="authentication:membership_card" v="yes"/>
    <tag k="authentication:none" v="no"/>
    <tag k="brand" v="wowplug"/>
    <tag k="capacity" v="2"/>
    <tag k="fee" v="yes"/>
    <tag k="maxstay" v="unlimited"/>
    <tag k="motorcar" v="yes"/>
    <tag k="name" v="CSC-00208"/>
    <tag k="network" v="Mobi.E"/>
    <tag k="opening_hours" v="24/7"/>
    <tag k="operator" v="True Kare"/>
    <tag k="parking:fee" v="no"/>
    <tag k="payment:app" v="yes"/>
    <tag k="payment:cards" v="no"/>
    <tag k="payment:cash" v="no"/>
    <tag k="payment:membership_card" v="yes"/>
    <tag k="ref" v="CSC-00208"/>
    <tag k="ref:EU:EVSE" v="PT*TRK*E*CSC*00208*01;PT*TRK*E*CSC*00208*02"/>
    <tag k="socket:type2" v="2"/>
    <tag k="socket:type2:current" v="32"/>
    <tag k="socket:type2:output" v="22kW"/>
    <tag k="socket:type2:voltage" v="400"/>
    <tag k="website" v="https://www.mobie.pt/"/>
  </node>
</old>
<new>
  <node id="12930635801" visible="false" version="0" timestamp="0000-00-00T00:00:00Z" changeset="0" uid="0" user=""/>
</new>
</action>
<action type="delete">
<old>
  <node id="12930700035" lat="38.6993060" lon="-9.3376060" version="2" timestamp="2025-06-20T15:14:44Z" changeset="167875414" uid="347293" user="Alexmol">
    <tag k="access" v="yes"/>
    <tag k="addr:country" v="PT"/>
    <tag k="amenity" v="charging_station"/>
    <tag k="authentication:membership_card" v="yes"/>
    <tag k="authentication:none" v="no"/>
    <tag k="brand" v="wowplug"/>
    <tag k="capacity" v="2"/>
    <tag k="fee" v="yes"/>
    <tag k="maxstay" v="unlimited"/>
    <tag k="motorcar" v="yes"/>
    <tag k="name" v="CSC-00209"/>
    <tag k="network" v="Mobi.E"/>
    <tag k="opening_hours" v="24/7"/>
    <tag k="operator" v="True Kare"/>
    <tag k="parking:fee" v="no"/>
    <tag k="payment:app" v="yes"/>
    <tag k="payment:cards" v="no"/>
    <tag k="payment:cash" v="no"/>
    <tag k="payment:membership_card" v="yes"/>
    <tag k="ref" v="CSC-00209"/>
    <tag k="ref:EU:EVSE" v="PT*TRK*E*CSC*00209*01;PT*TRK*E*CSC*00209*02"/>
    <tag k="socket:type2" v="2"/>
    <tag k="socket:type2:current" v="32"/>
    <tag k="socket:type2:output" v="22kW"/>
    <tag k="socket:type2:voltage" v="400"/>
    <tag k="website" v="https://www.mobie.pt/"/>
  </node>
</old>
<new>
  <node id="12930700035" visible="false" version="0" timestamp="0000-00-00T00:00:00Z" changeset="0" uid="0" user=""/>
</new>
</action>
<action type="delete">
<old>
  <node id="12931788108" lat="38.0175155" lon="-8.6904456" version="1" timestamp="2025-06-20T14:25:41Z" changeset="167873480" uid="347293" user="Alexmol">
    <tag k="access" v="customers"/>
    <tag k="addr:country" v="PT"/>
    <tag k="amenity" v="charging_station"/>
    <tag k="authentication:membership_card" v="yes"/>
    <tag k="authentication:none" v="no"/>
    <tag k="capacity" v="2"/>
    <tag k="fee" v="yes"/>
    <tag k="maxstay" v="unlimited"/>
    <tag k="motorcar" v="yes"/>
    <tag k="network" v="Mobi.E"/>
    <tag k="opening_hours" v="24/7"/>
    <tag k="operator" v="Galp Power"/>
    <tag k="parking:fee" v="no"/>
    <tag k="payment:app" v="yes"/>
    <tag k="payment:cards" v="no"/>
    <tag k="payment:cash" v="no"/>
    <tag k="payment:membership_card" v="yes"/>
    <tag k="ref" v="STC-00020"/>
    <tag k="ref:EU:EVSE" v="PT*GLP*ESTC*00020*01;PT*GLP*ESTC*00020*02"/>
    <tag k="socket:type2" v="2"/>
    <tag k="socket:type2:current" v="32"/>
    <tag k="socket:type2:output" v="22kW"/>
    <tag k="socket:type2:voltage" v="400"/>
    <tag k="website" v="https://www.mobie.pt/"/>
  </node>
</old>
<new>
  <node id="12931788108" visible="false" version="0" timestamp="0000-00-00T00:00:00Z" changeset="0" uid="0" user=""/>
</new>
</action>
<action type="delete">
<old>
  <node id="12935584108" lat="38.1132251" lon="-8.7927699" version="1" timestamp="2025-06-20T16:04:57Z" changeset="167877467" uid="347293" user="Alexmol">
    <tag k="access" v="customers"/>
    <tag k="addr:country" v="PT"/>
    <tag k="amenity" v="charging_station"/>
    <tag k="capacity" v="2"/>
    <tag k="maxstay" v="unlimited"/>
    <tag k="motorcar" v="yes"/>
    <tag k="name" v="Amarello Hotel"/>
    <tag k="no:network" v="yes"/>
    <tag k="operator" v="Amarello Hotel"/>
    <tag k="socket:type2" v="2"/>
    <tag k="socket:type2:current" v="32"/>
    <tag k="socket:type2:output" v="22kW"/>
    <tag k="socket:type2:voltage" v="400"/>
  </node>
</old>
<new>
  <node id="12935584108" visible="false" version="0" timestamp="0000-00-00T00:00:00Z" changeset="0" uid="0" user=""/>
</new>
</action>

</osm>
