<?xml version="1.0" encoding="UTF-8"?>
<osm version="0.6" generator="Overpass API 0.7.62.5 1bd436f1">
<note>The data included in this document is from www.openstreetmap.org. The data is made available under ODbL.</note>
<meta osm_base="2025-02-15T01:39:54Z" areas="2025-02-06T02:17:44Z"/>

<action type="create">
  <node id="4235747160" lat="40.5176799" lon="-8.0868132" version="10" timestamp="2025-01-29T21:32:25Z" changeset="161914831" uid="347293" user="Alexmol">
    <tag k="amenity" v="charging_station"/>
    <tag k="website" v="https://www.mobie.pt"/>
    <tag k="access" v="yes"/>
    <tag k="addr:country" v="PT"/>
    <tag k="authentication:membership_card" v="yes"/>
    <tag k="authentication:none" v="no"/>
    <tag k="capacity" v="2"/>
    <tag k="fee" v="yes"/>
    <tag k="fixme" v="Verificar se ainda existe e se está operacional"/>
    <tag k="maxstay" v="unlimited"/>
    <tag k="motorcar" v="yes"/>
    <tag k="name" v="TND-00002"/>
    <tag k="network" v="Mobi.E"/>
    <tag k="opening_hours" v="24/7"/>
    <tag k="operator" v="Mobi.E"/>
    <tag k="parking:fee" v="no"/>
    <tag k="payment:app" v="yes"/>
    <tag k="payment:cards" v="no"/>
    <tag k="payment:cash" v="no"/>
    <tag k="payment:membership_card" v="yes"/>
    <tag k="ref" v="TND-00002"/>
    <tag k="socket:type2" v="2"/>
    <tag k="socket:type2:current" v="16"/>
    <tag k="socket:type2:output" v="3.7kW"/>
    <tag k="socket:type2:voltage" v="230"/>
  </node>
</action>
<action type="modify">
<old>
  <node id="8416683217" version="12" timestamp="2025-02-14T20:05:32Z" changeset="162516660" uid="347293" user="Alexmol"/>
</old>
<new>
  <node id="8416683217" lat="38.0574751" lon="-8.7876409" version="11" timestamp="2024-01-09T20:37:22Z" changeset="146080038" uid="347293" user="Alexmol">
    <tag k="amenity" v="charging_station"/>
    <tag k="website" v="https://www.mobie.pt"/>
    <tag k="name" v="STC-00011 - Lidl"/>
    <tag k="access" v="yes"/>
    <tag k="addr:city" v="Vila Nova de Santo André"/>
    <tag k="addr:country" v="PT"/>
    <tag k="addr:street" v="Rua do Mercado"/>
    <tag k="authentication:membership_card" v="yes"/>
    <tag k="authentication:none" v="no"/>
    <tag k="capacity" v="2"/>
    <tag k="fee" v="yes"/>
    <tag k="maxstay" v="unlimited"/>
    <tag k="motorcar" v="yes"/>
    <tag k="network" v="Mobi.E"/>
    <tag k="old_ref" v="STC-00005"/>
    <tag k="opening_hours" v="24/7"/>
    <tag k="operator" v="KLC Serviços"/>
    <tag k="parking:fee" v="no"/>
    <tag k="payment:app" v="yes"/>
    <tag k="payment:cards" v="no"/>
    <tag k="payment:cash" v="no"/>
    <tag k="payment:membership_card" v="yes"/>
    <tag k="phone" v="+351 800 202 060"/>
    <tag k="ref" v="STC-00011"/>
    <tag k="socket:chademo" v="1"/>
    <tag k="socket:chademo:current" v="120"/>
    <tag k="socket:chademo:output" v="50kW"/>
    <tag k="socket:chademo:voltage" v="500"/>
    <tag k="socket:type2_cable" v="1"/>
    <tag k="socket:type2_cable:current" v="63"/>
    <tag k="socket:type2_cable:output" v="43kW"/>
    <tag k="socket:type2_cable:voltage" v="400"/>
    <tag k="socket:type2_combo" v="1"/>
    <tag k="socket:type2_combo:current" v="125"/>
    <tag k="socket:type2_combo:output" v="50kW"/>
    <tag k="socket:type2_combo:voltage" v="500"/>
  </node>
</new>
</action>
<action type="delete">
<old>
  <node id="8781157465" lat="38.7631898" lon="-9.3044816" version="15" timestamp="2025-02-14T20:12:32Z" changeset="162516862" uid="347293" user="Alexmol">
    <tag k="access" v="yes"/>
    <tag k="addr:city" v="Cacém"/>
    <tag k="addr:country" v="PT"/>
    <tag k="amenity" v="charging_station"/>
    <tag k="authentication:membership_card" v="yes"/>
    <tag k="authentication:none" v="no"/>
    <tag k="capacity" v="2"/>
    <tag k="fee" v="yes"/>
    <tag k="maxstay" v="unlimited"/>
    <tag k="motorcar" v="yes"/>
    <tag k="name" v="SNT-00131"/>
    <tag k="network" v="Mobi.E"/>
    <tag k="old_ref" v="SNT-00047"/>
    <tag k="opening_hours" v="24/7"/>
    <tag k="operator" v="KLC Serviços"/>
    <tag k="parking:fee" v="no"/>
    <tag k="payment:app" v="yes"/>
    <tag k="payment:cards" v="no"/>
    <tag k="payment:cash" v="no"/>
    <tag k="payment:membership_card" v="yes"/>
    <tag k="phone" v="+351 800 202 060"/>
    <tag k="ref" v="SNT-00131"/>
    <tag k="socket:chademo" v="1"/>
    <tag k="socket:chademo:current" v="120"/>
    <tag k="socket:chademo:output" v="50kW"/>
    <tag k="socket:chademo:voltage" v="500"/>
    <tag k="socket:type2_cable" v="1"/>
    <tag k="socket:type2_cable:current" v="32"/>
    <tag k="socket:type2_cable:output" v="22kW"/>
    <tag k="socket:type2_cable:voltage" v="400"/>
    <tag k="socket:type2_combo" v="1"/>
    <tag k="socket:type2_combo:current" v="125"/>
    <tag k="socket:type2_combo:output" v="50kW"/>
    <tag k="socket:type2_combo:voltage" v="500"/>
    <tag k="website" v="https://www.mobie.pt"/>
  </node>
</old>
<new>
  <node id="8781157465" visible="true" version="14" timestamp="2024-09-21T10:27:39Z" changeset="156905305" uid="347293" user="Alexmol"/>
</new>
</action>
<action type="create">
  <node id="11374157465" lat="41.0078257" lon="-8.6449199" version="1" timestamp="2023-11-24T18:52:25Z" changeset="144418600" uid="11113526" user="lalolan">
    <tag k="operator" v="Powerdot"/>
    <tag k="fixme" v="adicionar detalhes"/>
    <tag k="amenity" v="charging_station"/>
  </node>
</action>
<action type="create">
  <node id="11910670632" lat="39.1970523" lon="-8.7501622" version="2" timestamp="2024-06-28T23:58:28Z" changeset="153313819" uid="347293" user="Alexmol">
    <tag k="access" v="customers"/>
    <tag k="addr:country" v="PT"/>
    <tag k="amenity" v="charging_station"/>
    <tag k="capacity" v="2"/>
    <tag k="fixme" v="Confirmar se o posto original Porsche não foi substituido pelo Iberdrola"/>
    <tag k="maxstay" v="unlimited"/>
    <tag k="motorcar" v="yes"/>
    <tag k="name" v="Refúgio da Quinta Nere Maitia"/>
    <tag k="network" v="Porsche"/>
    <tag k="operator" v="Porsche"/>
    <tag k="socket:type2_cable" v="2"/>
    <tag k="socket:type2_cable:current" v="16"/>
    <tag k="socket:type2_cable:output" v="11kW"/>
    <tag k="socket:type2_cable:voltage" v="400"/>
  </node>
</action>
<action type="delete">
<old>
  <node id="12546933558" lat="39.2416816" lon="-9.3057466" version="4" timestamp="2025-02-14T20:17:05Z" changeset="162517000" uid="347293" user="Alexmol">
    <tag k="access" v="yes"/>
    <tag k="addr:country" v="PT"/>
    <tag k="amenity" v="charging_station"/>
    <tag k="authentication:membership_card" v="yes"/>
    <tag k="authentication:none" v="no"/>
    <tag k="capacity" v="2"/>
    <tag k="fee" v="yes"/>
    <tag k="maxstay" v="unlimited"/>
    <tag k="motorcar" v="yes"/>
    <tag k="name" v="LNH-00018"/>
    <tag k="network" v="Mobi.E"/>
    <tag k="opening_hours" v="24/7"/>
    <tag k="operator" v="Galp Power"/>
    <tag k="parking:fee" v="no"/>
    <tag k="payment:app" v="yes"/>
    <tag k="payment:cards" v="no"/>
    <tag k="payment:cash" v="no"/>
    <tag k="payment:membership_card" v="yes"/>
    <tag k="ref" v="LNH-00018"/>
    <tag k="ref:EU:EVSE" v="PT*GLP*ELNH*00018*01;PT*GLP*ELNH*00018*02"/>
    <tag k="socket:type2_combo" v="2"/>
    <tag k="socket:type2_combo:current" v="200"/>
    <tag k="socket:type2_combo:output" v="120kW"/>
    <tag k="socket:type2_combo:voltage" v="1000"/>
    <tag k="website" v="https://www.mobie.pt/"/>
  </node>
</old>
<new>
  <node id="12546933558" visible="true" version="3" timestamp="2025-02-02T21:12:32Z" changeset="162063309" uid="347293" user="Alexmol"/>
</new>
</action>
<action type="delete">
<old>
  <node id="12554873103" lat="32.6493524" lon="-16.9039310" version="2" timestamp="2025-02-14T20:09:02Z" changeset="162516777" uid="347293" user="Alexmol">
    <tag k="access" v="yes"/>
    <tag k="addr:country" v="PT"/>
    <tag k="amenity" v="charging_station"/>
    <tag k="authentication:membership_card" v="yes"/>
    <tag k="authentication:none" v="no"/>
    <tag k="capacity" v="1"/>
    <tag k="email" v="ajuda@powerdot.pt"/>
    <tag k="fee" v="yes"/>
    <tag k="location" v="underground"/>
    <tag k="maxstay" v="unlimited"/>
    <tag k="motorcar" v="yes"/>
    <tag k="name" v="FUN-00030"/>
    <tag k="network" v="Mobi.E"/>
    <tag k="opening_hours" v="06:30-00:30"/>
    <tag k="operator" v="Powerdot"/>
    <tag k="parking:fee" v="yes"/>
    <tag k="payment:app" v="yes"/>
    <tag k="payment:cards" v="no"/>
    <tag k="payment:cash" v="no"/>
    <tag k="payment:membership_card" v="yes"/>
    <tag k="phone" v="+351 800 180 292"/>
    <tag k="ref" v="FUN-00030"/>
    <tag k="socket:type2" v="1"/>
    <tag k="socket:type2:current" v="32"/>
    <tag k="socket:type2:output" v="22kW"/>
    <tag k="socket:type2:voltage" v="400"/>
    <tag k="website" v="https://www.mobie.pt/"/>
  </node>
</old>
<new>
  <node id="12554873103" visible="true" version="1" timestamp="2025-02-03T22:32:16Z" changeset="162104606" uid="347293" user="Alexmol"/>
</new>
</action>
<action type="delete">
<old>
  <node id="12586210106" lat="41.3372200" lon="-8.7334270" version="2" timestamp="2025-02-14T20:18:44Z" changeset="162517042" uid="347293" user="Alexmol">
    <tag k="access" v="yes"/>
    <tag k="addr:country" v="PT"/>
    <tag k="amenity" v="charging_station"/>
    <tag k="authentication:membership_card" v="yes"/>
    <tag k="authentication:none" v="no"/>
    <tag k="capacity" v="2"/>
    <tag k="fee" v="yes"/>
    <tag k="maxstay" v="unlimited"/>
    <tag k="motorcar" v="yes"/>
    <tag k="name" v="VCD-00057"/>
    <tag k="network" v="Mobi.E"/>
    <tag k="opening_hours" v="24/7"/>
    <tag k="operator" v="Galp Power"/>
    <tag k="parking:fee" v="no"/>
    <tag k="payment:app" v="yes"/>
    <tag k="payment:cards" v="no"/>
    <tag k="payment:cash" v="no"/>
    <tag k="payment:membership_card" v="yes"/>
    <tag k="ref" v="VCD-00057"/>
    <tag k="ref:EU:EVSE" v="PT*GLP*EVCD*00057*01;PT*GLP*EVCD*00057*02"/>
    <tag k="socket:type2_combo" v="2"/>
    <tag k="socket:type2_combo:current" v="250"/>
    <tag k="socket:type2_combo:output" v="120kW"/>
    <tag k="socket:type2_combo:voltage" v="1000"/>
    <tag k="website" v="https://www.mobie.pt/"/>
  </node>
</old>
<new>
  <node id="12586210106" visible="true" version="1" timestamp="2025-02-13T23:42:15Z" changeset="162484837" uid="347293" user="Alexmol"/>
</new>
</action>
<action type="delete">
<old>
  <node id="12586221679" lat="39.6075155" lon="-8.3962242" version="2" timestamp="2025-02-14T20:07:20Z" changeset="162516721" uid="347293" user="Alexmol">
    <tag k="access" v="yes"/>
    <tag k="addr:country" v="PT"/>
    <tag k="amenity" v="charging_station"/>
    <tag k="authentication:membership_card" v="yes"/>
    <tag k="authentication:none" v="no"/>
    <tag k="capacity" v="1"/>
    <tag k="fee" v="yes"/>
    <tag k="maxstay" v="unlimited"/>
    <tag k="motorcar" v="yes"/>
    <tag k="name" v="TMR-00046"/>
    <tag k="network" v="Mobi.E"/>
    <tag k="opening_hours" v="24/7"/>
    <tag k="operator" v="PowerDot"/>
    <tag k="parking:fee" v="no"/>
    <tag k="payment:app" v="yes"/>
    <tag k="payment:cards" v="no"/>
    <tag k="payment:cash" v="no"/>
    <tag k="payment:membership_card" v="yes"/>
    <tag k="ref" v="TMR-00046"/>
    <tag k="ref:EU:EVSE" v="PT*HRZ*E*TMR*00046*01"/>
    <tag k="socket:type2" v="1"/>
    <tag k="socket:type2:current" v="16"/>
    <tag k="socket:type2:output" v="11kW"/>
    <tag k="socket:type2:voltage" v="400"/>
    <tag k="website" v="https://www.mobie.pt/"/>
  </node>
</old>
<new>
  <node id="12586221679" visible="true" version="1" timestamp="2025-02-13T23:39:00Z" changeset="162484787" uid="347293" user="Alexmol"/>
</new>
</action>
<action type="delete">
<old>
  <node id="12587937864" lat="38.3918659" lon="-8.5139276" version="2" timestamp="2025-02-14T16:57:35Z" changeset="162510720" uid="14617702" user="Đuro Jiří">
    <tag k="amenity" v="charging_station"/>
    <tag k="brand" v="Tesla Supercharger"/>
    <tag k="brand:wikidata" v="Q17089620"/>
    <tag k="capacity" v="1"/>
    <tag k="name" v="Tesla Supercharger"/>
    <tag k="operator" v="Tesla, Inc."/>
    <tag k="operator:wikidata" v="Q478214"/>
    <tag k="short_name" v="Tesla"/>
  </node>
</old>
<new>
  <node id="12587937864" visible="false" version="0" timestamp="0000-00-00T00:00:00Z" changeset="0" uid="0" user=""/>
</new>
</action>
<action type="delete">
<old>
  <node id="12587940781" lat="38.3917419" lon="-8.5139037" version="2" timestamp="2025-02-14T16:57:35Z" changeset="162510720" uid="14617702" user="Đuro Jiří">
    <tag k="amenity" v="charging_station"/>
    <tag k="brand" v="Tesla Supercharger"/>
    <tag k="brand:wikidata" v="Q17089620"/>
    <tag k="capacity" v="1"/>
    <tag k="name" v="Tesla Supercharger"/>
    <tag k="operator" v="Tesla, Inc."/>
    <tag k="operator:wikidata" v="Q478214"/>
    <tag k="short_name" v="Tesla"/>
  </node>
</old>
<new>
  <node id="12587940781" visible="false" version="0" timestamp="0000-00-00T00:00:00Z" changeset="0" uid="0" user=""/>
</new>
</action>
<action type="delete">
<old>
  <node id="12587960886" lat="38.3917756" lon="-8.5137593" version="2" timestamp="2025-02-14T16:57:36Z" changeset="162510720" uid="14617702" user="Đuro Jiří">
    <tag k="amenity" v="charging_station"/>
    <tag k="brand" v="Tesla Supercharger"/>
    <tag k="brand:wikidata" v="Q17089620"/>
    <tag k="capacity" v="1"/>
    <tag k="name" v="Tesla Supercharger"/>
    <tag k="operator" v="Tesla, Inc."/>
    <tag k="operator:wikidata" v="Q478214"/>
    <tag k="short_name" v="Tesla"/>
  </node>
</old>
<new>
  <node id="12587960886" visible="false" version="0" timestamp="0000-00-00T00:00:00Z" changeset="0" uid="0" user=""/>
</new>
</action>
<action type="delete">
<old>
  <node id="12587962812" lat="38.3917722" lon="-8.5137920" version="2" timestamp="2025-02-14T16:57:36Z" changeset="162510720" uid="14617702" user="Đuro Jiří">
    <tag k="amenity" v="charging_station"/>
    <tag k="brand" v="Tesla Supercharger"/>
    <tag k="brand:wikidata" v="Q17089620"/>
    <tag k="capacity" v="1"/>
    <tag k="name" v="Tesla Supercharger"/>
    <tag k="operator" v="Tesla, Inc."/>
    <tag k="operator:wikidata" v="Q478214"/>
    <tag k="short_name" v="Tesla"/>
  </node>
</old>
<new>
  <node id="12587962812" visible="false" version="0" timestamp="0000-00-00T00:00:00Z" changeset="0" uid="0" user=""/>
</new>
</action>
<action type="delete">
<old>
  <node id="12587962813" lat="38.3919047" lon="-8.5137437" version="2" timestamp="2025-02-14T16:57:33Z" changeset="162510720" uid="14617702" user="Đuro Jiří">
    <tag k="amenity" v="charging_station"/>
    <tag k="brand" v="Tesla Supercharger"/>
    <tag k="brand:wikidata" v="Q17089620"/>
    <tag k="capacity" v="1"/>
    <tag k="name" v="Tesla Supercharger"/>
    <tag k="operator" v="Tesla, Inc."/>
    <tag k="operator:wikidata" v="Q478214"/>
    <tag k="short_name" v="Tesla"/>
  </node>
</old>
<new>
  <node id="12587962813" visible="false" version="0" timestamp="0000-00-00T00:00:00Z" changeset="0" uid="0" user=""/>
</new>
</action>
<action type="delete">
<old>
  <node id="12587967049" lat="38.3918962" lon="-8.5138414" version="2" timestamp="2025-02-14T16:57:33Z" changeset="162510720" uid="14617702" user="Đuro Jiří">
    <tag k="amenity" v="charging_station"/>
    <tag k="brand" v="Tesla Supercharger"/>
    <tag k="brand:wikidata" v="Q17089620"/>
    <tag k="capacity" v="1"/>
    <tag k="name" v="Tesla Supercharger"/>
    <tag k="operator" v="Tesla, Inc."/>
    <tag k="operator:wikidata" v="Q478214"/>
    <tag k="short_name" v="Tesla"/>
  </node>
</old>
<new>
  <node id="12587967049" visible="false" version="0" timestamp="0000-00-00T00:00:00Z" changeset="0" uid="0" user=""/>
</new>
</action>
<action type="delete">
<old>
  <node id="12587983213" lat="38.3917741" lon="-8.5139145" version="2" timestamp="2025-02-14T16:57:34Z" changeset="162510720" uid="14617702" user="Đuro Jiří">
    <tag k="amenity" v="charging_station"/>
    <tag k="brand" v="Tesla Supercharger"/>
    <tag k="brand:wikidata" v="Q17089620"/>
    <tag k="capacity" v="1"/>
    <tag k="name" v="Tesla Supercharger"/>
    <tag k="operator" v="Tesla, Inc."/>
    <tag k="operator:wikidata" v="Q478214"/>
    <tag k="short_name" v="Tesla"/>
  </node>
</old>
<new>
  <node id="12587983213" visible="false" version="0" timestamp="0000-00-00T00:00:00Z" changeset="0" uid="0" user=""/>
</new>
</action>
<action type="delete">
<old>
  <node id="12587992282" lat="38.3917677" lon="-8.5138250" version="2" timestamp="2025-02-14T16:57:37Z" changeset="162510720" uid="14617702" user="Đuro Jiří">
    <tag k="amenity" v="charging_station"/>
    <tag k="brand" v="Tesla Supercharger"/>
    <tag k="brand:wikidata" v="Q17089620"/>
    <tag k="capacity" v="1"/>
    <tag k="name" v="Tesla Supercharger"/>
    <tag k="operator" v="Tesla, Inc."/>
    <tag k="operator:wikidata" v="Q478214"/>
    <tag k="short_name" v="Tesla"/>
  </node>
</old>
<new>
  <node id="12587992282" visible="false" version="0" timestamp="0000-00-00T00:00:00Z" changeset="0" uid="0" user=""/>
</new>
</action>
<action type="delete">
<old>
  <node id="12587998521" lat="38.3918913" lon="-8.5138778" version="2" timestamp="2025-02-14T16:57:34Z" changeset="162510720" uid="14617702" user="Đuro Jiří">
    <tag k="amenity" v="charging_station"/>
    <tag k="brand" v="Tesla Supercharger"/>
    <tag k="brand:wikidata" v="Q17089620"/>
    <tag k="capacity" v="1"/>
    <tag k="name" v="Tesla Supercharger"/>
    <tag k="operator" v="Tesla, Inc."/>
    <tag k="operator:wikidata" v="Q478214"/>
    <tag k="short_name" v="Tesla"/>
  </node>
</old>
<new>
  <node id="12587998521" visible="false" version="0" timestamp="0000-00-00T00:00:00Z" changeset="0" uid="0" user=""/>
</new>
</action>
<action type="delete">
<old>
  <node id="12587999612" lat="38.3919007" lon="-8.5137788" version="2" timestamp="2025-02-14T16:57:34Z" changeset="162510720" uid="14617702" user="Đuro Jiří">
    <tag k="amenity" v="charging_station"/>
    <tag k="brand" v="Tesla Supercharger"/>
    <tag k="brand:wikidata" v="Q17089620"/>
    <tag k="capacity" v="1"/>
    <tag k="name" v="Tesla Supercharger"/>
    <tag k="operator" v="Tesla, Inc."/>
    <tag k="operator:wikidata" v="Q478214"/>
    <tag k="short_name" v="Tesla"/>
  </node>
</old>
<new>
  <node id="12587999612" visible="false" version="0" timestamp="0000-00-00T00:00:00Z" changeset="0" uid="0" user=""/>
</new>
</action>
<action type="delete">
<old>
  <node id="12588009711" lat="38.3917663" lon="-8.5138571" version="2" timestamp="2025-02-14T16:57:36Z" changeset="162510720" uid="14617702" user="Đuro Jiří">
    <tag k="amenity" v="charging_station"/>
    <tag k="brand" v="Tesla Supercharger"/>
    <tag k="brand:wikidata" v="Q17089620"/>
    <tag k="capacity" v="1"/>
    <tag k="name" v="Tesla Supercharger"/>
    <tag k="operator" v="Tesla, Inc."/>
    <tag k="operator:wikidata" v="Q478214"/>
    <tag k="short_name" v="Tesla"/>
  </node>
</old>
<new>
  <node id="12588009711" visible="false" version="0" timestamp="0000-00-00T00:00:00Z" changeset="0" uid="0" user=""/>
</new>
</action>
<action type="delete">
<old>
  <node id="12588009712" lat="38.3918988" lon="-8.5138092" version="2" timestamp="2025-02-14T16:57:33Z" changeset="162510720" uid="14617702" user="Đuro Jiří">
    <tag k="amenity" v="charging_station"/>
    <tag k="brand" v="Tesla Supercharger"/>
    <tag k="brand:wikidata" v="Q17089620"/>
    <tag k="capacity" v="1"/>
    <tag k="name" v="Tesla Supercharger"/>
    <tag k="operator" v="Tesla, Inc."/>
    <tag k="operator:wikidata" v="Q478214"/>
    <tag k="short_name" v="Tesla"/>
  </node>
</old>
<new>
  <node id="12588009712" visible="false" version="0" timestamp="0000-00-00T00:00:00Z" changeset="0" uid="0" user=""/>
</new>
</action>
<action type="delete">
<old>
  <node id="12588013926" lat="38.3918247" lon="-8.5139212" version="2" timestamp="2025-02-14T16:57:35Z" changeset="162510720" uid="14617702" user="Đuro Jiří">
    <tag k="amenity" v="charging_station"/>
    <tag k="brand" v="Tesla Supercharger"/>
    <tag k="brand:wikidata" v="Q17089620"/>
    <tag k="capacity" v="1"/>
    <tag k="name" v="Tesla Supercharger"/>
    <tag k="operator" v="Tesla, Inc."/>
    <tag k="operator:wikidata" v="Q478214"/>
    <tag k="short_name" v="Tesla"/>
  </node>
</old>
<new>
  <node id="12588013926" visible="false" version="0" timestamp="0000-00-00T00:00:00Z" changeset="0" uid="0" user=""/>
</new>
</action>
<action type="delete">
<old>
  <node id="12588014108" lat="38.3917805" lon="-8.5137206" version="2" timestamp="2025-02-14T16:57:37Z" changeset="162510720" uid="14617702" user="Đuro Jiří">
    <tag k="amenity" v="charging_station"/>
    <tag k="brand" v="Tesla Supercharger"/>
    <tag k="brand:wikidata" v="Q17089620"/>
    <tag k="capacity" v="1"/>
    <tag k="name" v="Tesla Supercharger"/>
    <tag k="operator" v="Tesla, Inc."/>
    <tag k="operator:wikidata" v="Q478214"/>
    <tag k="short_name" v="Tesla"/>
  </node>
</old>
<new>
  <node id="12588014108" visible="false" version="0" timestamp="0000-00-00T00:00:00Z" changeset="0" uid="0" user=""/>
</new>
</action>
<action type="delete">
<old>
  <node id="12588297571" lat="40.5883487" lon="-8.6840715" version="1" timestamp="2025-02-14T20:04:30Z" changeset="162516627" uid="347293" user="Alexmol">
    <tag k="access" v="customers"/>
    <tag k="addr:country" v="PT"/>
    <tag k="amenity" v="charging_station"/>
    <tag k="authentication:membership_card" v="yes"/>
    <tag k="authentication:none" v="no"/>
    <tag k="brand" v="Galp electric"/>
    <tag k="capacity" v="1"/>
    <tag k="email" v="mobilidade.electricacrc@galp.com"/>
    <tag k="fee" v="yes"/>
    <tag k="maxstay" v="unlimited"/>
    <tag k="motorcar" v="yes"/>
    <tag k="network" v="Mobi.E"/>
    <tag k="opening_hours" v="24/7"/>
    <tag k="operator" v="Galp Power"/>
    <tag k="parking:fee" v="yes"/>
    <tag k="payment:app" v="yes"/>
    <tag k="payment:cards" v="no"/>
    <tag k="payment:cash" v="no"/>
    <tag k="payment:membership_card" v="yes"/>
    <tag k="phone" v="+351 800 249 249"/>
    <tag k="ref" v="ILH-00008"/>
    <tag k="ref:EU:EVSE" v="PT*GLP*EILH*00008*01"/>
    <tag k="socket:type2" v="1"/>
    <tag k="socket:type2:current" v="16"/>
    <tag k="socket:type2:output" v="11kW"/>
    <tag k="socket:type2:voltage" v="400"/>
    <tag k="website" v="https://www.mobie.pt/"/>
  </node>
</old>
<new>
  <node id="12588297571" visible="false" version="0" timestamp="0000-00-00T00:00:00Z" changeset="0" uid="0" user=""/>
</new>
</action>
<action type="delete">
<old>
  <node id="12588297572" lat="40.5883960" lon="-8.6840688" version="1" timestamp="2025-02-14T20:04:30Z" changeset="162516627" uid="347293" user="Alexmol">
    <tag k="access" v="customers"/>
    <tag k="addr:country" v="PT"/>
    <tag k="amenity" v="charging_station"/>
    <tag k="authentication:membership_card" v="yes"/>
    <tag k="authentication:none" v="no"/>
    <tag k="brand" v="Galp electric"/>
    <tag k="capacity" v="1"/>
    <tag k="email" v="mobilidade.electricacrc@galp.com"/>
    <tag k="fee" v="yes"/>
    <tag k="maxstay" v="unlimited"/>
    <tag k="motorcar" v="yes"/>
    <tag k="network" v="Mobi.E"/>
    <tag k="opening_hours" v="24/7"/>
    <tag k="operator" v="Galp Power"/>
    <tag k="parking:fee" v="yes"/>
    <tag k="payment:app" v="yes"/>
    <tag k="payment:cards" v="no"/>
    <tag k="payment:cash" v="no"/>
    <tag k="payment:membership_card" v="yes"/>
    <tag k="phone" v="+351 800 249 249"/>
    <tag k="ref" v="ILH-00005"/>
    <tag k="ref:EU:EVSE" v="PT*GLP*EILH*00005*01"/>
    <tag k="socket:type2" v="1"/>
    <tag k="socket:type2:current" v="16"/>
    <tag k="socket:type2:output" v="11kW"/>
    <tag k="socket:type2:voltage" v="400"/>
    <tag k="website" v="https://www.mobie.pt/"/>
  </node>
</old>
<new>
  <node id="12588297572" visible="false" version="0" timestamp="0000-00-00T00:00:00Z" changeset="0" uid="0" user=""/>
</new>
</action>
<action type="delete">
<old>
  <node id="12588297573" lat="40.5883803" lon="-8.6840697" version="1" timestamp="2025-02-14T20:04:30Z" changeset="162516627" uid="347293" user="Alexmol">
    <tag k="access" v="customers"/>
    <tag k="addr:country" v="PT"/>
    <tag k="amenity" v="charging_station"/>
    <tag k="authentication:membership_card" v="yes"/>
    <tag k="authentication:none" v="no"/>
    <tag k="brand" v="Galp electric"/>
    <tag k="capacity" v="1"/>
    <tag k="email" v="mobilidade.electricacrc@galp.com"/>
    <tag k="fee" v="yes"/>
    <tag k="maxstay" v="unlimited"/>
    <tag k="motorcar" v="yes"/>
    <tag k="network" v="Mobi.E"/>
    <tag k="opening_hours" v="24/7"/>
    <tag k="operator" v="Galp Power"/>
    <tag k="parking:fee" v="yes"/>
    <tag k="payment:app" v="yes"/>
    <tag k="payment:cards" v="no"/>
    <tag k="payment:cash" v="no"/>
    <tag k="payment:membership_card" v="yes"/>
    <tag k="phone" v="+351 800 249 249"/>
    <tag k="ref" v="ILH-00006"/>
    <tag k="ref:EU:EVSE" v="PT*GLP*EILH*00006*01"/>
    <tag k="socket:type2" v="1"/>
    <tag k="socket:type2:current" v="16"/>
    <tag k="socket:type2:output" v="11kW"/>
    <tag k="socket:type2:voltage" v="400"/>
    <tag k="website" v="https://www.mobie.pt/"/>
  </node>
</old>
<new>
  <node id="12588297573" visible="false" version="0" timestamp="0000-00-00T00:00:00Z" changeset="0" uid="0" user=""/>
</new>
</action>
<action type="delete">
<old>
  <node id="12588337113" lat="40.4427717" lon="-8.4391006" version="1" timestamp="2025-02-14T19:57:16Z" changeset="162516406" uid="347293" user="Alexmol">
    <tag k="access" v="yes"/>
    <tag k="addr:country" v="PT"/>
    <tag k="amenity" v="charging_station"/>
    <tag k="authentication:membership_card" v="yes"/>
    <tag k="authentication:none" v="no"/>
    <tag k="brand" v="Galp electric"/>
    <tag k="capacity" v="2"/>
    <tag k="fee" v="yes"/>
    <tag k="maxstay" v="unlimited"/>
    <tag k="motorcar" v="yes"/>
    <tag k="name" v="AND-00009"/>
    <tag k="network" v="Mobi.E"/>
    <tag k="opening_hours" v="24/7"/>
    <tag k="operator" v="Galp Power"/>
    <tag k="parking:fee" v="no"/>
    <tag k="payment:app" v="yes"/>
    <tag k="payment:cards" v="no"/>
    <tag k="payment:cash" v="no"/>
    <tag k="payment:membership_card" v="yes"/>
    <tag k="ref" v="AND-00009"/>
    <tag k="ref:EU:EVSE" v="PT*GLP*EAND*00009*01;PT*GLP*EAND*00009*02"/>
    <tag k="socket:type2_combo" v="2"/>
    <tag k="socket:type2_combo:current" v="120"/>
    <tag k="socket:type2_combo:output" v="50kW"/>
    <tag k="socket:type2_combo:voltage" v="500"/>
    <tag k="website" v="https://www.mobie.pt/"/>
  </node>
</old>
<new>
  <node id="12588337113" visible="false" version="0" timestamp="0000-00-00T00:00:00Z" changeset="0" uid="0" user=""/>
</new>
</action>
<action type="delete">
<old>
  <node id="12588387799" lat="41.6329971" lon="-7.5738770" version="1" timestamp="2025-02-14T20:41:20Z" changeset="162517729" uid="347293" user="Alexmol">
    <tag k="access" v="customers"/>
    <tag k="addr:country" v="PT"/>
    <tag k="amenity" v="charging_station"/>
    <tag k="authentication:membership_card" v="yes"/>
    <tag k="authentication:none" v="no"/>
    <tag k="capacity" v="2"/>
    <tag k="fee" v="yes"/>
    <tag k="fixme" v="Move to exact location"/>
    <tag k="maxstay" v="unlimited"/>
    <tag k="motorcar" v="yes"/>
    <tag k="network" v="Mobi.E"/>
    <tag k="opening_hours" v="24/7"/>
    <tag k="operator" v="Iberdrola"/>
    <tag k="parking:fee" v="no"/>
    <tag k="payment:app" v="yes"/>
    <tag k="payment:cards" v="no"/>
    <tag k="payment:cash" v="no"/>
    <tag k="payment:membership_card" v="yes"/>
    <tag k="ref" v="MOBI-CHV-00002"/>
    <tag k="ref:EU:EVSE" v="PT*IBD*E*MOBI*CHV*00002*01;PT*IBD*E*MOBI*CHV*00002*02"/>
    <tag k="socket:type2_cable" v="2"/>
    <tag k="socket:type2_cable:current" v="32"/>
    <tag k="socket:type2_cable:output" v="22kW"/>
    <tag k="socket:type2_cable:voltage" v="400"/>
    <tag k="website" v="https://www.mobie.pt/"/>
  </node>
</old>
<new>
  <node id="12588387799" visible="false" version="0" timestamp="0000-00-00T00:00:00Z" changeset="0" uid="0" user=""/>
</new>
</action>
<action type="delete">
<old>
  <node id="12588467516" lat="38.7810171" lon="-9.3532625" version="1" timestamp="2025-02-14T21:47:15Z" changeset="162519699" uid="347293" user="Alexmol">
    <tag k="access" v="customers"/>
    <tag k="addr:country" v="PT"/>
    <tag k="amenity" v="charging_station"/>
    <tag k="authentication:membership_card" v="yes"/>
    <tag k="authentication:none" v="no"/>
    <tag k="brand" v="Galp electric"/>
    <tag k="capacity" v="2"/>
    <tag k="email" v="mobilidade.electricacrc@galp.com"/>
    <tag k="fee" v="yes"/>
    <tag k="maxstay" v="unlimited"/>
    <tag k="motorcar" v="yes"/>
    <tag k="network" v="Mobi.E"/>
    <tag k="opening_hours" v="24/7"/>
    <tag k="operator" v="Galp Power"/>
    <tag k="parking:fee" v="no"/>
    <tag k="payment:app" v="yes"/>
    <tag k="payment:cards" v="no"/>
    <tag k="payment:cash" v="no"/>
    <tag k="payment:membership_card" v="yes"/>
    <tag k="phone" v="+351 800 249 249"/>
    <tag k="ref" v="SNT-00035"/>
    <tag k="socket:type2" v="2"/>
    <tag k="socket:type2:current" v="32"/>
    <tag k="socket:type2:output" v="7.4kW"/>
    <tag k="socket:type2:voltage" v="230"/>
    <tag k="website" v="https://www.mobie.pt"/>
  </node>
</old>
<new>
  <node id="12588467516" visible="false" version="0" timestamp="0000-00-00T00:00:00Z" changeset="0" uid="0" user=""/>
</new>
</action>

</osm>
