<?xml version="1.0" encoding="UTF-8"?>
<osm version="0.6" generator="Overpass API 0.7.62.7 375dc00a">
<note>The data included in this document is from www.openstreetmap.org. The data is made available under ODbL.</note>
<meta osm_base="2025-07-26T02:05:33Z" areas="2025-07-25T22:37:10Z"/>

<action type="delete">
<old>
  <node id="8010968151" lat="38.7251237" lon="-9.1121486" version="20" timestamp="2025-07-25T18:24:18Z" changeset="169469918" uid="347293" user="Alexmol">
    <tag k="access" v="yes"/>
    <tag k="addr:city" v="Lisboa"/>
    <tag k="addr:country" v="PT"/>
    <tag k="amenity" v="charging_station"/>
    <tag k="authentication:membership_card" v="yes"/>
    <tag k="authentication:none" v="no"/>
    <tag k="brand" v="Lidl"/>
    <tag k="brand:wikidata" v="Q151954"/>
    <tag k="capacity" v="2"/>
    <tag k="email" v="veiculoeletrico@galp.com"/>
    <tag k="fee" v="yes"/>
    <tag k="maxstay" v="unlimited"/>
    <tag k="motorcar" v="yes"/>
    <tag k="name" v="LSB-00979"/>
    <tag k="network" v="Mobi.E"/>
    <tag k="old_operator" v="KLC Serviços"/>
    <tag k="old_ref" v="LSB-00303;LSB-00676"/>
    <tag k="opening_hours" v="24/7"/>
    <tag k="operator" v="Galp Power"/>
    <tag k="operator:wikidata" v="Q135275372"/>
    <tag k="parking:fee" v="no"/>
    <tag k="payment:app" v="yes"/>
    <tag k="payment:cards" v="no"/>
    <tag k="payment:cash" v="no"/>
    <tag k="payment:membership_card" v="yes"/>
    <tag k="phone" v="+351 800 249 249"/>
    <tag k="ref" v="LSB-00979"/>
    <tag k="socket:chademo" v="1"/>
    <tag k="socket:chademo:current" v="120"/>
    <tag k="socket:chademo:output" v="50kW"/>
    <tag k="socket:chademo:voltage" v="500"/>
    <tag k="socket:type2_cable" v="1"/>
    <tag k="socket:type2_cable:current" v="63"/>
    <tag k="socket:type2_cable:output" v="43kW"/>
    <tag k="socket:type2_cable:voltage" v="400"/>
    <tag k="socket:type2_combo" v="1"/>
    <tag k="socket:type2_combo:current" v="125"/>
    <tag k="socket:type2_combo:output" v="50kW"/>
    <tag k="socket:type2_combo:voltage" v="500"/>
    <tag k="website" v="https://www.mobie.pt"/>
  </node>
</old>
<new>
  <node id="8010968151" visible="true" version="18" timestamp="2025-07-13T11:44:23Z" changeset="168869498" uid="347293" user="Alexmol"/>
</new>
</action>
<action type="delete">
<old>
  <node id="8418656993" lat="41.0460499" lon="-8.5642150" version="18" timestamp="2025-07-25T14:03:49Z" changeset="169456610" uid="347293" user="Alexmol">
    <tag k="access" v="yes"/>
    <tag k="addr:city" v="Pedroso"/>
    <tag k="addr:country" v="PT"/>
    <tag k="addr:street" v="Largo das Alminhas das Barrancas"/>
    <tag k="amenity" v="charging_station"/>
    <tag k="authentication:membership_card" v="yes"/>
    <tag k="authentication:none" v="no"/>
    <tag k="brand" v="Lidl"/>
    <tag k="brand:wikidata" v="Q151954"/>
    <tag k="capacity" v="2"/>
    <tag k="email" v="apoio.cliente@kmlowcost.com"/>
    <tag k="fee" v="yes"/>
    <tag k="maxstay" v="unlimited"/>
    <tag k="motorcar" v="yes"/>
    <tag k="name" v="VNG-00152"/>
    <tag k="network" v="Mobi.E"/>
    <tag k="old_ref" v="VNG-00047"/>
    <tag k="opening_hours" v="24/7"/>
    <tag k="operator" v="KLC Serviços"/>
    <tag k="operator:wikidata" v="Q127504745"/>
    <tag k="parking:fee" v="no"/>
    <tag k="payment:app" v="yes"/>
    <tag k="payment:cards" v="no"/>
    <tag k="payment:cash" v="no"/>
    <tag k="payment:membership_card" v="yes"/>
    <tag k="phone" v="+351 800 202 060"/>
    <tag k="ref" v="VNG-00152"/>
    <tag k="socket:chademo" v="1"/>
    <tag k="socket:chademo:current" v="120"/>
    <tag k="socket:chademo:output" v="50kW"/>
    <tag k="socket:chademo:voltage" v="500"/>
    <tag k="socket:type2_cable" v="1"/>
    <tag k="socket:type2_cable:current" v="63"/>
    <tag k="socket:type2_cable:output" v="43kW"/>
    <tag k="socket:type2_cable:voltage" v="400"/>
    <tag k="socket:type2_combo" v="1"/>
    <tag k="socket:type2_combo:current" v="125"/>
    <tag k="socket:type2_combo:output" v="50kW"/>
    <tag k="socket:type2_combo:voltage" v="500"/>
    <tag k="website" v="https://www.mobie.pt"/>
  </node>
</old>
<new>
  <node id="8418656993" visible="true" version="17" timestamp="2025-07-13T11:44:23Z" changeset="168869498" uid="347293" user="Alexmol"/>
</new>
</action>
<action type="modify">
<old>
  <node id="8701692592" version="19" timestamp="2025-07-25T13:52:26Z" changeset="169456019" uid="347293" user="Alexmol"/>
</old>
<new>
  <node id="8701692592" lat="37.1205040" lon="-7.6554318" version="18" timestamp="2025-07-13T12:02:50Z" changeset="168870123" uid="347293" user="Alexmol">
    <tag k="amenity" v="charging_station"/>
    <tag k="website" v="https://www.mobie.pt"/>
    <tag k="access" v="yes"/>
    <tag k="addr:city" v="Tavira"/>
    <tag k="addr:country" v="PT"/>
    <tag k="addr:street" v="Largo de Santo Amaro"/>
    <tag k="authentication:app" v="yes"/>
    <tag k="authentication:membership_card" v="yes"/>
    <tag k="authentication:none" v="no"/>
    <tag k="brand" v="Lidl"/>
    <tag k="brand:wikidata" v="Q151954"/>
    <tag k="capacity" v="2"/>
    <tag k="email" v="apoio.cliente@kmlowcost.com"/>
    <tag k="fee" v="yes"/>
    <tag k="maxstay" v="unlimited"/>
    <tag k="motorcar" v="yes"/>
    <tag k="name" v="TVR-00023"/>
    <tag k="network" v="Mobi.E"/>
    <tag k="old_ref" v="TVR-00011"/>
    <tag k="opening_hours" v="24/7"/>
    <tag k="operator" v="KLC Serviços"/>
    <tag k="operator:wikidata" v="Q127504745"/>
    <tag k="parking:fee" v="no"/>
    <tag k="payment:app" v="yes"/>
    <tag k="payment:cards" v="no"/>
    <tag k="payment:cash" v="no"/>
    <tag k="payment:membership_card" v="yes"/>
    <tag k="phone" v="+351 800 202 060"/>
    <tag k="ref" v="TVR-00023"/>
    <tag k="socket:chademo" v="1"/>
    <tag k="socket:chademo:current" v="120"/>
    <tag k="socket:chademo:output" v="50kW"/>
    <tag k="socket:chademo:voltage" v="500"/>
    <tag k="socket:type2_cable" v="1"/>
    <tag k="socket:type2_cable:current" v="63"/>
    <tag k="socket:type2_cable:output" v="43kW"/>
    <tag k="socket:type2_cable:voltage" v="400"/>
    <tag k="socket:type2_combo" v="1"/>
    <tag k="socket:type2_combo:current" v="125"/>
    <tag k="socket:type2_combo:output" v="50kW"/>
    <tag k="socket:type2_combo:voltage" v="500"/>
  </node>
</new>
</action>
<action type="delete">
<old>
  <node id="8989497393" lat="38.8710336" lon="-9.0853958" version="18" timestamp="2025-07-25T13:47:40Z" changeset="169455764" uid="347293" user="Alexmol">
    <tag k="access" v="yes"/>
    <tag k="addr:country" v="PT"/>
    <tag k="amenity" v="charging_station"/>
    <tag k="authentication:app" v="yes"/>
    <tag k="authentication:membership_card" v="yes"/>
    <tag k="authentication:none" v="no"/>
    <tag k="brand" v="Lidl"/>
    <tag k="brand:wikidata" v="Q151954"/>
    <tag k="capacity" v="2"/>
    <tag k="email" v="veiculoeletrico@galp.com"/>
    <tag k="fee" v="yes"/>
    <tag k="maxstay" v="unlimited"/>
    <tag k="motorcar" v="yes"/>
    <tag k="name" v="VFX-00096"/>
    <tag k="network" v="Mobi.E"/>
    <tag k="old_operator" v="KLC Serviços"/>
    <tag k="old_ref" v="VFX-00019;VFX-00049"/>
    <tag k="opening_hours" v="24/7"/>
    <tag k="operator" v="Galp Power"/>
    <tag k="operator:wikidata" v="Q135275372"/>
    <tag k="parking:fee" v="no"/>
    <tag k="payment:app" v="yes"/>
    <tag k="payment:cards" v="no"/>
    <tag k="payment:cash" v="no"/>
    <tag k="payment:membership_card" v="yes"/>
    <tag k="phone" v="+351 800 249 249"/>
    <tag k="ref" v="VFX-00096"/>
    <tag k="ref:EU:EVSE" v="PT*GLP*EVFX*00096*01;PT*GLP*EVFX*00096*02;PT*GLP*EVFX*00096*03"/>
    <tag k="socket:chademo" v="1"/>
    <tag k="socket:chademo:current" v="120"/>
    <tag k="socket:chademo:output" v="50kW"/>
    <tag k="socket:chademo:voltage" v="500"/>
    <tag k="socket:type2_cable" v="1"/>
    <tag k="socket:type2_cable:current" v="63"/>
    <tag k="socket:type2_cable:output" v="43kW"/>
    <tag k="socket:type2_cable:voltage" v="400"/>
    <tag k="socket:type2_combo" v="1"/>
    <tag k="socket:type2_combo:current" v="125"/>
    <tag k="socket:type2_combo:output" v="50kW"/>
    <tag k="socket:type2_combo:voltage" v="500"/>
    <tag k="website" v="https://www.mobie.pt"/>
  </node>
</old>
<new>
  <node id="8989497393" visible="true" version="17" timestamp="2025-07-24T23:03:40Z" changeset="169425081" uid="347293" user="Alexmol"/>
</new>
</action>
<action type="delete">
<old>
  <node id="12101523358" lat="38.9683938" lon="-9.1972612" version="5" timestamp="2025-07-25T18:39:15Z" changeset="169470530" uid="347293" user="Alexmol">
    <tag k="access" v="yes"/>
    <tag k="addr:country" v="PT"/>
    <tag k="amenity" v="charging_station"/>
    <tag k="authentication:membership_card" v="yes"/>
    <tag k="authentication:none" v="no"/>
    <tag k="capacity" v="2"/>
    <tag k="fee" v="yes"/>
    <tag k="maxstay" v="unlimited"/>
    <tag k="motorcar" v="yes"/>
    <tag k="name" v="SMA-00003"/>
    <tag k="network" v="Mobi.E"/>
    <tag k="opening_hours" v="24/7"/>
    <tag k="operator" v="Galp"/>
    <tag k="parking:fee" v="no"/>
    <tag k="payment:app" v="yes"/>
    <tag k="payment:cards" v="no"/>
    <tag k="payment:cash" v="no"/>
    <tag k="payment:membership_card" v="yes"/>
    <tag k="ref" v="SMA-00003"/>
    <tag k="ref:EU:EVSE" v="PT*GLP*ESMA*00003*01;PT*GLP*ESMA*00003*02"/>
    <tag k="socket:type2_combo" v="2"/>
    <tag k="socket:type2_combo:current" v="150"/>
    <tag k="socket:type2_combo:output" v="60kW"/>
    <tag k="socket:type2_combo:voltage" v="1000"/>
    <tag k="website" v="https://www.mobie.pt/"/>
  </node>
</old>
<new>
  <node id="12101523358" visible="true" version="4" timestamp="2025-07-08T11:51:31Z" changeset="168646078" uid="347293" user="Alexmol"/>
</new>
</action>
<action type="delete">
<old>
  <node id="13012276801" lat="39.7541184" lon="-8.8550103" version="2" timestamp="2025-07-25T14:06:06Z" changeset="169456752" uid="347293" user="Alexmol">
    <tag k="access" v="yes"/>
    <tag k="amenity" v="charging_station"/>
    <tag k="authentication:app" v="yes"/>
    <tag k="authentication:membership_card" v="yes"/>
    <tag k="authentication:none" v="no"/>
    <tag k="capacity" v="1"/>
    <tag k="fee" v="yes"/>
    <tag k="maxstay" v="unlimited"/>
    <tag k="motorcar" v="yes"/>
    <tag k="name" v="LRA-00160"/>
    <tag k="network" v="Mobi.E"/>
    <tag k="opening_hours" v="24/7"/>
    <tag k="operator" v="CME"/>
    <tag k="parking:fee" v="no"/>
    <tag k="payment:app" v="yes"/>
    <tag k="payment:cards" v="no"/>
    <tag k="payment:cash" v="no"/>
    <tag k="payment:membership_card" v="yes"/>
    <tag k="ref" v="LRA-00160"/>
    <tag k="ref:EU:EVSE" v="PT*CME*E*LRA*00160*01"/>
    <tag k="socket:type2" v="1"/>
    <tag k="socket:type2:current" v="16"/>
    <tag k="socket:type2:output" v="11kW"/>
    <tag k="socket:type2:voltage" v="400"/>
    <tag k="website" v="https://www.mobie.pt/"/>
  </node>
</old>
<new>
  <node id="13012276801" visible="true" version="1" timestamp="2025-07-19T21:00:57Z" changeset="169170740" uid="347293" user="Alexmol"/>
</new>
</action>
<action type="delete">
<old>
  <node id="13021803205" lat="40.5377211" lon="-7.2399147" version="2" timestamp="2025-07-25T14:00:33Z" changeset="169456441" uid="347293" user="Alexmol">
    <tag k="access" v="yes"/>
    <tag k="amenity" v="charging_station"/>
    <tag k="authentication:app" v="yes"/>
    <tag k="authentication:membership_card" v="yes"/>
    <tag k="authentication:none" v="no"/>
    <tag k="brand" v="acciona"/>
    <tag k="brand:wikidata" v="Q339142"/>
    <tag k="capacity" v="2"/>
    <tag k="fee" v="yes"/>
    <tag k="maxstay" v="unlimited"/>
    <tag k="motorcar" v="yes"/>
    <tag k="name" v="GRD-00044"/>
    <tag k="network" v="Mobi.E"/>
    <tag k="opening_hours" v="24/7"/>
    <tag k="operator" v="Acciona"/>
    <tag k="operator:wikidata" v="Q339142"/>
    <tag k="parking:fee" v="no"/>
    <tag k="payment:app" v="yes"/>
    <tag k="payment:cards" v="no"/>
    <tag k="payment:cash" v="no"/>
    <tag k="payment:membership_card" v="yes"/>
    <tag k="ref" v="GRD-00044"/>
    <tag k="ref:EU:EVSE" v="PT*ACC*E*GRD*00044*01;PT*ACC*E*GRD*00044*02;PT*ACC*E*GRD*00044*03"/>
    <tag k="socket:chademo" v="1"/>
    <tag k="socket:chademo:current" v="200"/>
    <tag k="socket:chademo:output" v="80kW"/>
    <tag k="socket:chademo:voltage" v="500"/>
    <tag k="socket:type2" v="1"/>
    <tag k="socket:type2:current" v="32"/>
    <tag k="socket:type2:output" v="22kW"/>
    <tag k="socket:type2:voltage" v="400"/>
    <tag k="socket:type2_combo" v="1"/>
    <tag k="socket:type2_combo:current" v="250"/>
    <tag k="socket:type2_combo:output" v="100kW"/>
    <tag k="socket:type2_combo:voltage" v="1000"/>
    <tag k="website" v="https://www.mobie.pt/"/>
  </node>
</old>
<new>
  <node id="13021803205" visible="true" version="1" timestamp="2025-07-24T22:49:03Z" changeset="169424807" uid="347293" user="Alexmol"/>
</new>
</action>
<action type="delete">
<old>
  <node id="13022968245" lat="40.6263389" lon="-7.4026863" version="1" timestamp="2025-07-25T13:58:12Z" changeset="169456313" uid="347293" user="Alexmol">
    <tag k="access" v="yes"/>
    <tag k="addr:country" v="PT"/>
    <tag k="amenity" v="charging_station"/>
    <tag k="authentication:app" v="yes"/>
    <tag k="authentication:membership_card" v="yes"/>
    <tag k="authentication:none" v="no"/>
    <tag k="brand" v="KLC"/>
    <tag k="brand:wikidata" v="Q127504745"/>
    <tag k="capacity" v="1"/>
    <tag k="description" v="No parque de estacionamento. Se estiver fechado pedir na recepção para abrir."/>
    <tag k="email" v="apoio.cliente@kmlowcost.com"/>
    <tag k="fee" v="yes"/>
    <tag k="location" v="underground"/>
    <tag k="maxstay" v="unlimited"/>
    <tag k="motorcar" v="yes"/>
    <tag k="name" v="CLB-00010"/>
    <tag k="network" v="Mobi.E"/>
    <tag k="old_operator" v="KLC"/>
    <tag k="old_ref" v="CLB-00004;CLB-00005;CLB-00006"/>
    <tag k="opening_hours" v="24/7"/>
    <tag k="operator" v="KLC Serviços"/>
    <tag k="operator:wikidata" v="Q127504745"/>
    <tag k="parking:fee" v="no"/>
    <tag k="payment:app" v="yes"/>
    <tag k="payment:cards" v="no"/>
    <tag k="payment:cash" v="no"/>
    <tag k="payment:membership_card" v="yes"/>
    <tag k="phone" v="+351 800 202 060"/>
    <tag k="ref" v="CLB-00010"/>
    <tag k="socket:type2" v="1"/>
    <tag k="socket:type2:current" v="32"/>
    <tag k="socket:type2:output" v="7.4kW"/>
    <tag k="socket:type2:voltage" v="230"/>
    <tag k="website" v="https://www.mobie.pt"/>
  </node>
</old>
<new>
  <node id="13022968245" visible="false" version="0" timestamp="0000-00-00T00:00:00Z" changeset="0" uid="0" user=""/>
</new>
</action>

</osm>
