<?xml version="1.0" encoding="UTF-8"?>
<osm version="0.6" generator="Overpass API 0.7.62.4 2390de5a">
<note>The data included in this document is from www.openstreetmap.org. The data is made available under ODbL.</note>
<meta osm_base="2025-01-01T01:49:28Z" areas="2025-01-01T00:30:00Z"/>

<action type="create">
  <node id="8207593197" lat="38.7430655" lon="-9.2339713" version="7" timestamp="2024-12-29T18:58:17Z" changeset="160764232" uid="347293" user="Alexmol">
    <tag k="amenity" v="charging_station"/>
    <tag k="capacity" v="10"/>
    <tag k="website" v="https://plugcharge.continente.pt/"/>
    <tag k="socket:type2_combo:voltage" v="500"/>
    <tag k="name" v="Continente Amadora Piso 0"/>
    <tag k="operator" v="Sonae"/>
    <tag k="socket:chademo" v="2"/>
    <tag k="socket:type2" v="8"/>
    <tag k="socket:type2:current" v="32"/>
    <tag k="socket:type2:output" v="22kW"/>
    <tag k="socket:type2:voltage" v="400"/>
    <tag k="socket:type2_combo" v="2"/>
    <tag k="access" v="yes"/>
    <tag k="addr:city" v="Amadora"/>
    <tag k="addr:country" v="PT"/>
    <tag k="authentication:app" v="yes"/>
    <tag k="authentication:none" v="no"/>
    <tag k="fee" v="yes"/>
    <tag k="level" v="0"/>
    <tag k="motorcar" v="yes"/>
    <tag k="network" v="Continente Plug&amp;Charge"/>
    <tag k="opening_hours" v="Mo-Su 09:00-22:00"/>
    <tag k="parking:fee" v="no"/>
    <tag k="socket:chademo:current" v="120"/>
    <tag k="socket:chademo:output" v="50kW"/>
    <tag k="socket:chademo:voltage" v="500"/>
    <tag k="socket:type2_combo:current" v="125"/>
    <tag k="socket:type2_combo:output" v="50kW"/>
  </node>
</action>
<action type="create">
  <node id="8228979572" lat="41.1821776" lon="-8.6589302" version="9" timestamp="2024-06-20T21:35:22Z" changeset="152967500" uid="347293" user="Alexmol">
    <tag k="access" v="yes"/>
    <tag k="addr:city" v="Matosinhos"/>
    <tag k="addr:country" v="PT"/>
    <tag k="amenity" v="charging_station"/>
    <tag k="authentication:app" v="yes"/>
    <tag k="authentication:none" v="no"/>
    <tag k="brand" v="Continente"/>
    <tag k="capacity" v="18"/>
    <tag k="covered" v="yes"/>
    <tag k="fee" v="yes"/>
    <tag k="motorcar" v="yes"/>
    <tag k="name" v="Continente Matosinhos"/>
    <tag k="network" v="Continente Plug&amp;Charge"/>
    <tag k="opening_hours" v="Mo-Su 09:00-21:00"/>
    <tag k="operator" v="Sonae"/>
    <tag k="parking:fee" v="no"/>
    <tag k="socket:chademo" v="2"/>
    <tag k="socket:chademo:current" v="120"/>
    <tag k="socket:chademo:output" v="50kW"/>
    <tag k="socket:chademo:voltage" v="500"/>
    <tag k="socket:type2" v="16"/>
    <tag k="socket:type2:current" v="32"/>
    <tag k="socket:type2:output" v="22kW"/>
    <tag k="socket:type2:voltage" v="400"/>
    <tag k="socket:type2_combo" v="2"/>
    <tag k="socket:type2_combo:current" v="125"/>
    <tag k="socket:type2_combo:output" v="50kW"/>
    <tag k="socket:type2_combo:voltage" v="500"/>
    <tag k="website" v="https://plugcharge.continente.pt/"/>
  </node>
</action>
<action type="create">
  <node id="8280884329" lat="39.3746613" lon="-9.1399705" version="4" timestamp="2023-03-24T20:27:08Z" changeset="134083596" uid="347293" user="Alexmol">
    <tag k="access" v="customers"/>
    <tag k="addr:country" v="PT"/>
    <tag k="amenity" v="charging_station"/>
    <tag k="authentication:membership_card" v="yes"/>
    <tag k="authentication:none" v="no"/>
    <tag k="capacity" v="16"/>
    <tag k="fee" v="no"/>
    <tag k="motorcar" v="yes"/>
    <tag k="name" v="Recheio Óbidos"/>
    <tag k="no:network" v="yes"/>
    <tag k="operator" v="Recheio Óbidos"/>
    <tag k="parking:fee" v="no"/>
    <tag k="socket:type2" v="16"/>
    <tag k="socket:type2:current" v="32"/>
    <tag k="socket:type2:output" v="22kW"/>
    <tag k="socket:type2:voltage" v="400"/>
    <tag k="website" v="https://www.mobie.pt/"/>
  </node>
</action>
<action type="create">
  <node id="8461610962" lat="38.5511834" lon="-7.9092181" version="7" timestamp="2022-05-14T12:09:25Z" changeset="120976521" uid="347293" user="Alexmol">
    <tag k="access" v="private"/>
    <tag k="addr:country" v="PT"/>
    <tag k="amenity" v="charging_station"/>
    <tag k="authentication:membership_card" v="yes"/>
    <tag k="authentication:none" v="no"/>
    <tag k="capacity" v="1"/>
    <tag k="email" v="electric@prioenergy.com"/>
    <tag k="fee" v="yes"/>
    <tag k="maxstay" v="unlimited"/>
    <tag k="motorcar" v="yes"/>
    <tag k="name" v="EVR-00010"/>
    <tag k="network" v="Mobi.E"/>
    <tag k="note" v="Inexistente. Obras ainda não se iniciaram."/>
    <tag k="opening_hours" v="24/7"/>
    <tag k="operator" v="Prio.E"/>
    <tag k="parking:fee" v="no"/>
    <tag k="payment:app" v="yes"/>
    <tag k="payment:cards" v="no"/>
    <tag k="payment:cash" v="no"/>
    <tag k="payment:membership_card" v="yes"/>
    <tag k="phone" v="+351 800 450 111"/>
    <tag k="ref" v="EVR-00010"/>
    <tag k="socket:type2" v="1"/>
    <tag k="socket:type2:current" v="32"/>
    <tag k="socket:type2:output" v="7.2kW"/>
    <tag k="socket:type2:voltage" v="230"/>
    <tag k="website" v="https://www.mobie.pt"/>
  </node>
</action>
<action type="create">
  <node id="8512876811" lat="38.7544590" lon="-9.0958600" version="8" timestamp="2022-05-14T12:09:25Z" changeset="120976521" uid="347293" user="Alexmol">
    <tag k="amenity" v="charging_station"/>
    <tag k="capacity" v="12"/>
    <tag k="website" v="https://www.mobie.pt"/>
    <tag k="name" v="LSB-00358/359/360/361/362/363"/>
    <tag k="ref" v="LSB-00358;LSB-00359;LSB-00360;LSB-00361;LSB-00362;LSB-00363"/>
    <tag k="socket:chademo" v="6"/>
    <tag k="socket:type2_cable" v="6"/>
    <tag k="socket:type2_combo" v="6"/>
    <tag k="access" v="yes"/>
    <tag k="addr:city" v="Lisboa"/>
    <tag k="addr:country" v="PT"/>
    <tag k="authentication:membership_card" v="yes"/>
    <tag k="authentication:none" v="no"/>
    <tag k="email" v="opc@emel.pt"/>
    <tag k="fee" v="yes"/>
    <tag k="maxstay" v="unlimited"/>
    <tag k="motorcar" v="yes"/>
    <tag k="network" v="Mobi.E"/>
    <tag k="opening_hours" v="24/7"/>
    <tag k="operator" v="EMEL"/>
    <tag k="parking:fee" v="no"/>
    <tag k="payment:app" v="yes"/>
    <tag k="payment:cards" v="no"/>
    <tag k="payment:cash" v="no"/>
    <tag k="payment:membership_card" v="yes"/>
    <tag k="phone" v="+351 800 910 255"/>
    <tag k="socket:chademo:current" v="120"/>
    <tag k="socket:chademo:output" v="50kW"/>
    <tag k="socket:chademo:voltage" v="500"/>
    <tag k="socket:type2_cable:current" v="63"/>
    <tag k="socket:type2_cable:output" v="43kW"/>
    <tag k="socket:type2_cable:voltage" v="400"/>
    <tag k="socket:type2_combo:current" v="125"/>
    <tag k="socket:type2_combo:output" v="50kW"/>
    <tag k="socket:type2_combo:voltage" v="500"/>
  </node>
</action>
<action type="create">
  <node id="10022775154" lat="37.1323882" lon="-7.6101948" version="2" timestamp="2023-03-24T20:27:08Z" changeset="134083596" uid="347293" user="Alexmol">
    <tag k="addr:country" v="PT"/>
    <tag k="amenity" v="charging_station"/>
    <tag k="capacity" v="9"/>
    <tag k="socket:type2:voltage" v="400"/>
    <tag k="name" v="Cabanas Beach &amp; Nature"/>
    <tag k="socket:type2" v="9"/>
    <tag k="access" v="customers"/>
    <tag k="fee" v="yes"/>
    <tag k="maxstay" v="unlimited"/>
    <tag k="motorcar" v="yes"/>
    <tag k="no:network" v="yes"/>
    <tag k="operator" v="Cabanas Beach &amp; Nature"/>
    <tag k="socket:type2:current" v="32"/>
    <tag k="socket:type2:output" v="22kW"/>
  </node>
</action>
<action type="create">
  <node id="10022775155" lat="37.1323503" lon="-7.6101833" version="2" timestamp="2023-03-24T20:27:08Z" changeset="134083596" uid="347293" user="Alexmol">
    <tag k="amenity" v="charging_station"/>
    <tag k="capacity" v="3"/>
    <tag k="socket:type2_cable:voltage" v="400"/>
    <tag k="name" v="Cabanas Beach &amp; Nature"/>
    <tag k="socket:type2_cable" v="3"/>
    <tag k="access" v="customers"/>
    <tag k="addr:country" v="PT"/>
    <tag k="fee" v="yes"/>
    <tag k="maxstay" v="unlimited"/>
    <tag k="motorcar" v="yes"/>
    <tag k="no:network" v="yes"/>
    <tag k="operator" v="Cabanas Beach &amp; Nature"/>
    <tag k="socket:type2_cable:current" v="16"/>
    <tag k="socket:type2_cable:output" v="11kW"/>
  </node>
</action>
<action type="create">
  <node id="10109931962" lat="38.8165180" lon="-9.1479850" version="8" timestamp="2024-05-17T09:57:25Z" changeset="151445486" uid="347293" user="Alexmol">
    <tag k="amenity" v="charging_station"/>
    <tag k="capacity" v="4"/>
    <tag k="website" v="https://www.mobie.pt/"/>
    <tag k="socket:type2_combo:voltage" v="1000"/>
    <tag k="name" v="LRS-00077/78"/>
    <tag k="ref" v="LRS-00077;LRS-00078"/>
    <tag k="access" v="yes"/>
    <tag k="addr:country" v="PT"/>
    <tag k="authentication:membership_card" v="yes"/>
    <tag k="authentication:none" v="no"/>
    <tag k="email" v="mobilidade.electricacrc@galp.com"/>
    <tag k="fee" v="yes"/>
    <tag k="maxstay" v="unlimited"/>
    <tag k="motorcar" v="yes"/>
    <tag k="network" v="Mobi.E"/>
    <tag k="opening_hours" v="24/7"/>
    <tag k="operator" v="Galp Power"/>
    <tag k="parking:fee" v="no"/>
    <tag k="payment:app" v="yes"/>
    <tag k="payment:cards" v="no"/>
    <tag k="payment:cash" v="no"/>
    <tag k="payment:membership_card" v="yes"/>
    <tag k="phone" v="+351 800 249 249"/>
    <tag k="socket:chademo" v="1"/>
    <tag k="socket:chademo:current" v="125"/>
    <tag k="socket:chademo:output" v="50kW"/>
    <tag k="socket:chademo:voltage" v="500"/>
    <tag k="socket:type2_combo" v="1"/>
    <tag k="socket:type2_combo:current" v="125"/>
    <tag k="socket:type2_combo:output" v="60kW"/>
  </node>
</action>
<action type="create">
  <node id="10109931964" lat="37.0968989" lon="-7.9962966" version="11" timestamp="2024-06-24T12:11:48Z" changeset="153109519" uid="347293" user="Alexmol">
    <tag k="amenity" v="charging_station"/>
    <tag k="website" v="https://www.mobie.pt/"/>
    <tag k="socket:type2_combo:voltage" v="1000"/>
    <tag k="socket:type2_combo:output" v="60kW"/>
    <tag k="name" v="LLE-00099 - IKEA"/>
    <tag k="access" v="yes"/>
    <tag k="addr:country" v="PT"/>
    <tag k="authentication:membership_card" v="yes"/>
    <tag k="authentication:none" v="no"/>
    <tag k="capacity" v="2"/>
    <tag k="email" v="mobilidade.electricacrc@galp.com"/>
    <tag k="fee" v="yes"/>
    <tag k="maxstay" v="unlimited"/>
    <tag k="motorcar" v="yes"/>
    <tag k="network" v="Mobi.E"/>
    <tag k="opening_hours" v="24/7"/>
    <tag k="operator" v="Galp Power"/>
    <tag k="parking:fee" v="no"/>
    <tag k="payment:app" v="yes"/>
    <tag k="payment:cards" v="no"/>
    <tag k="payment:cash" v="no"/>
    <tag k="payment:membership_card" v="yes"/>
    <tag k="phone" v="+351 800 249 249"/>
    <tag k="ref" v="LLE-00099"/>
    <tag k="socket:chademo" v="1"/>
    <tag k="socket:chademo:current" v="125"/>
    <tag k="socket:chademo:output" v="50kW"/>
    <tag k="socket:chademo:voltage" v="500"/>
    <tag k="socket:type2_combo" v="1"/>
    <tag k="socket:type2_combo:current" v="125"/>
  </node>
</action>
<action type="create">
  <node id="10218080759" lat="38.8168242" lon="-9.1479968" version="4" timestamp="2024-02-08T22:28:20Z" changeset="147235468" uid="347293" user="Alexmol">
    <tag k="amenity" v="charging_station"/>
    <tag k="capacity" v="10"/>
    <tag k="website" v="https://www.mobie.pt/"/>
    <tag k="socket:type2:voltage" v="230"/>
    <tag k="name" v="LRS-00085/86/87/88/89"/>
    <tag k="ref" v="LRS-00085;LRS-00086;LRS-00087;LRS-00088;LRS-00089"/>
    <tag k="socket:type2" v="10"/>
    <tag k="access" v="yes"/>
    <tag k="addr:country" v="PT"/>
    <tag k="authentication:membership_card" v="yes"/>
    <tag k="authentication:none" v="no"/>
    <tag k="email" v="mobilidade.electricacrc@galp.com"/>
    <tag k="fee" v="yes"/>
    <tag k="maxstay" v="unlimited"/>
    <tag k="motorcar" v="yes"/>
    <tag k="network" v="Mobi.E"/>
    <tag k="opening_hours" v="24/7"/>
    <tag k="operator" v="Galp Power"/>
    <tag k="parking:fee" v="no"/>
    <tag k="payment:app" v="yes"/>
    <tag k="payment:cards" v="no"/>
    <tag k="payment:cash" v="no"/>
    <tag k="payment:membership_card" v="yes"/>
    <tag k="phone" v="+351 800 249 249"/>
    <tag k="socket:type2:current" v="32"/>
    <tag k="socket:type2:output" v="7.4kW"/>
  </node>
</action>
<action type="create">
  <node id="10218080760" lat="38.8166888" lon="-9.1480021" version="4" timestamp="2024-02-08T22:28:20Z" changeset="147235468" uid="347293" user="Alexmol">
    <tag k="amenity" v="charging_station"/>
    <tag k="capacity" v="12"/>
    <tag k="website" v="https://www.mobie.pt/"/>
    <tag k="socket:type2:voltage" v="400"/>
    <tag k="name" v="LRS-00079/80/81/82/83/84"/>
    <tag k="ref" v="LRS-00079;LRS-00080;LRS-00081;LRS-00082;LRS-00083;LRS-00084"/>
    <tag k="socket:type2" v="12"/>
    <tag k="access" v="yes"/>
    <tag k="addr:country" v="PT"/>
    <tag k="authentication:membership_card" v="yes"/>
    <tag k="authentication:none" v="no"/>
    <tag k="email" v="mobilidade.electricacrc@galp.com"/>
    <tag k="fee" v="yes"/>
    <tag k="maxstay" v="unlimited"/>
    <tag k="motorcar" v="yes"/>
    <tag k="network" v="Mobi.E"/>
    <tag k="opening_hours" v="24/7"/>
    <tag k="operator" v="Galp Power"/>
    <tag k="parking:fee" v="no"/>
    <tag k="payment:app" v="yes"/>
    <tag k="payment:cards" v="no"/>
    <tag k="payment:cash" v="no"/>
    <tag k="payment:membership_card" v="yes"/>
    <tag k="phone" v="+351 800 249 249"/>
    <tag k="socket:type2:current" v="32"/>
    <tag k="socket:type2:output" v="22kW"/>
  </node>
</action>
<action type="create">
  <node id="11599714898" lat="38.8167266" lon="-9.1480017" version="2" timestamp="2024-06-29T11:08:11Z" changeset="153327421" uid="347293" user="Alexmol">
    <tag k="amenity" v="charging_station"/>
    <tag k="capacity" v="12"/>
    <tag k="website" v="https://www.mobie.pt/"/>
    <tag k="socket:type2:voltage" v="400"/>
    <tag k="name" v="LRS-00115/116/117/118/119/120"/>
    <tag k="ref" v="LRS-00115;LRS-00116;LRS-00117;LRS-00118;LRS-00119;LRS-00120"/>
    <tag k="socket:type2" v="12"/>
    <tag k="access" v="yes"/>
    <tag k="addr:country" v="PT"/>
    <tag k="authentication:membership_card" v="yes"/>
    <tag k="authentication:none" v="no"/>
    <tag k="email" v="mobilidade.electricacrc@galp.com"/>
    <tag k="fee" v="yes"/>
    <tag k="maxstay" v="unlimited"/>
    <tag k="motorcar" v="yes"/>
    <tag k="network" v="Mobi.E"/>
    <tag k="opening_hours" v="24/7"/>
    <tag k="operator" v="Galp Power"/>
    <tag k="parking:fee" v="no"/>
    <tag k="payment:app" v="yes"/>
    <tag k="payment:cards" v="no"/>
    <tag k="payment:cash" v="no"/>
    <tag k="payment:membership_card" v="yes"/>
    <tag k="phone" v="+351 800 249 249"/>
    <tag k="socket:type2:current" v="32"/>
    <tag k="socket:type2:output" v="22kW"/>
  </node>
</action>
<action type="create">
  <node id="12006341708" lat="37.0970048" lon="-7.9964322" version="1" timestamp="2024-06-24T12:11:48Z" changeset="153109519" uid="347293" user="Alexmol">
    <tag k="amenity" v="charging_station"/>
    <tag k="website" v="https://www.mobie.pt/"/>
    <tag k="socket:type2:voltage" v="230"/>
    <tag k="socket:type2:output" v="7.4kW"/>
    <tag k="name" v="LLE-00105"/>
    <tag k="opening_hours" v="24/7"/>
    <tag k="access" v="yes"/>
    <tag k="addr:country" v="PT"/>
    <tag k="authentication:membership_card" v="yes"/>
    <tag k="authentication:none" v="no"/>
    <tag k="capacity" v="2"/>
    <tag k="email" v="mobilidade.electricacrc@galp.com"/>
    <tag k="fee" v="yes"/>
    <tag k="maxstay" v="unlimited"/>
    <tag k="motorcar" v="yes"/>
    <tag k="network" v="Mobi.E"/>
    <tag k="operator" v="Galp Power"/>
    <tag k="parking:fee" v="yes"/>
    <tag k="payment:app" v="yes"/>
    <tag k="payment:cards" v="no"/>
    <tag k="payment:cash" v="no"/>
    <tag k="payment:membership_card" v="yes"/>
    <tag k="phone" v="+351 800 249 249"/>
    <tag k="ref" v="LLE-00105"/>
    <tag k="socket:type2" v="2"/>
    <tag k="socket:type2:current" v="32"/>
  </node>
</action>
<action type="create">
  <node id="12006341709" lat="37.0969513" lon="-7.9963678" version="1" timestamp="2024-06-24T12:11:48Z" changeset="153109519" uid="347293" user="Alexmol">
    <tag k="amenity" v="charging_station"/>
    <tag k="capacity" v="10"/>
    <tag k="website" v="https://www.mobie.pt/"/>
    <tag k="socket:type2:voltage" v="400"/>
    <tag k="socket:type2:output" v="22kW"/>
    <tag k="name" v="LLE-00100..104"/>
    <tag k="opening_hours" v="24/7"/>
    <tag k="ref" v="LLE-00100; LLE-00101; LLE-00102; LLE-00103; LLE-00104"/>
    <tag k="socket:type2" v="10"/>
    <tag k="access" v="yes"/>
    <tag k="addr:country" v="PT"/>
    <tag k="authentication:membership_card" v="yes"/>
    <tag k="authentication:none" v="no"/>
    <tag k="email" v="mobilidade.electricacrc@galp.com"/>
    <tag k="fee" v="yes"/>
    <tag k="maxstay" v="unlimited"/>
    <tag k="motorcar" v="yes"/>
    <tag k="network" v="Mobi.E"/>
    <tag k="operator" v="Galp Power"/>
    <tag k="parking:fee" v="yes"/>
    <tag k="payment:app" v="yes"/>
    <tag k="payment:cards" v="no"/>
    <tag k="payment:cash" v="no"/>
    <tag k="payment:membership_card" v="yes"/>
    <tag k="phone" v="+351 800 249 249"/>
    <tag k="socket:type2:current" v="32"/>
  </node>
</action>
<action type="modify">
<old>
  <node id="12029888508" version="2" timestamp="2024-12-31T14:44:06Z" changeset="160835995" uid="347293" user="Alexmol"/>
</old>
<new>
  <node id="12029888508" lat="41.2042967" lon="-8.7114695" version="1" timestamp="2024-07-02T20:24:29Z" changeset="153475511" uid="347293" user="Alexmol">
    <tag k="amenity" v="charging_station"/>
    <tag k="capacity" v="14"/>
    <tag k="website" v="https://www.mobie.pt/"/>
    <tag k="name" v="MOBI-MTS-00060…67"/>
    <tag k="ref" v="MOBI-MTS-00060;MOBI-MTS-00061;MOBI-MTS-00062;MOBI-MTS-00063;MOBI-MTS-00064;MOBI-MTS-00065;MOBI-MTS-00066;MOBI-MTS-00067"/>
    <tag k="socket:type2" v="14"/>
    <tag k="access" v="private"/>
    <tag k="addr:country" v="PT"/>
    <tag k="authentication:membership_card" v="yes"/>
    <tag k="authentication:none" v="no"/>
    <tag k="fee" v="yes"/>
    <tag k="maxstay" v="unlimited"/>
    <tag k="motorcar" v="yes"/>
    <tag k="network" v="Mobi.E"/>
    <tag k="opening_hours" v="24/7"/>
    <tag k="operator" v="Galp Power"/>
    <tag k="parking:fee" v="no"/>
    <tag k="payment:app" v="yes"/>
    <tag k="payment:cards" v="no"/>
    <tag k="payment:cash" v="no"/>
    <tag k="payment:membership_card" v="yes"/>
    <tag k="socket:type2:current" v="32"/>
    <tag k="socket:type2:output" v="22kW"/>
    <tag k="socket:type2:voltage" v="400"/>
  </node>
</new>
</action>
<action type="modify">
<old>
  <node id="12029888509" version="2" timestamp="2024-12-31T14:44:06Z" changeset="160835995" uid="347293" user="Alexmol"/>
</old>
<new>
  <node id="12029888509" lat="41.2043019" lon="-8.7115550" version="1" timestamp="2024-07-02T20:24:29Z" changeset="153475511" uid="347293" user="Alexmol">
    <tag k="amenity" v="charging_station"/>
    <tag k="capacity" v="3"/>
    <tag k="website" v="https://www.mobie.pt/"/>
    <tag k="name" v="MOBI-MTS-00059"/>
    <tag k="access" v="private"/>
    <tag k="addr:country" v="PT"/>
    <tag k="authentication:membership_card" v="yes"/>
    <tag k="authentication:none" v="no"/>
    <tag k="fee" v="yes"/>
    <tag k="maxstay" v="unlimited"/>
    <tag k="motorcar" v="yes"/>
    <tag k="network" v="Mobi.E"/>
    <tag k="opening_hours" v="24/7"/>
    <tag k="operator" v="Galp Power"/>
    <tag k="parking:fee" v="no"/>
    <tag k="payment:app" v="yes"/>
    <tag k="payment:cards" v="no"/>
    <tag k="payment:cash" v="no"/>
    <tag k="payment:membership_card" v="yes"/>
    <tag k="ref" v="MOBI-MTS-00059"/>
    <tag k="socket:chademo" v="1"/>
    <tag k="socket:chademo:current" v="125"/>
    <tag k="socket:chademo:output" v="50kW"/>
    <tag k="socket:chademo:voltage" v="500"/>
    <tag k="socket:type2_combo" v="2"/>
    <tag k="socket:type2_combo:current" v="200"/>
    <tag k="socket:type2_combo:output" v="120kW"/>
    <tag k="socket:type2_combo:voltage" v="1000"/>
  </node>
</new>
</action>
<action type="modify">
<old>
  <node id="12319572026" version="5" timestamp="2024-12-31T13:56:51Z" changeset="160833813" uid="347293" user="Alexmol"/>
</old>
<new>
  <node id="12319572026" lat="41.1634031" lon="-8.6666983" version="4" timestamp="2024-11-15T14:35:05Z" changeset="159173404" uid="347293" user="Alexmol">
    <tag k="amenity" v="charging_station"/>
    <tag k="capacity" v="19"/>
    <tag k="fixme" v="Move to exact location"/>
    <tag k="website" v="https://www.mobie.pt/"/>
    <tag k="name" v="PRT-00263…281"/>
    <tag k="ref" v="PRT-00263; PRT-00264; PRT-00265; PRT-00266 ;PRT-00267 ;PRT-00268;PRT-00269;PRT-00270;PRT-00271;PRT-00272;PRT-00273;PRT-00274;PRT-00275;PRT-00276;PRT-00277;PRT-00278;PRT-00279;PRT-00280;PRT-00281"/>
    <tag k="socket:type2" v="19"/>
    <tag k="access" v="yes"/>
    <tag k="addr:country" v="PT"/>
    <tag k="authentication:membership_card" v="yes"/>
    <tag k="authentication:none" v="no"/>
    <tag k="fee" v="yes"/>
    <tag k="location" v="underground"/>
    <tag k="maxstay" v="unlimited"/>
    <tag k="motorcar" v="yes"/>
    <tag k="network" v="Mobi.E"/>
    <tag k="opening_hours" v="24/7"/>
    <tag k="operator" v="Maksu Services"/>
    <tag k="parking:fee" v="yes"/>
    <tag k="payment:app" v="yes"/>
    <tag k="payment:cards" v="no"/>
    <tag k="payment:cash" v="no"/>
    <tag k="payment:membership_card" v="yes"/>
    <tag k="socket:type2:current" v="32"/>
    <tag k="socket:type2:output" v="22kW"/>
    <tag k="socket:type2:voltage" v="400"/>
  </node>
</new>
</action>
<action type="create">
  <node id="12396758435" lat="37.1499435" lon="-7.8932277" version="3" timestamp="2024-12-29T16:25:16Z" changeset="160757389" uid="8242461" user="Alex_Mapper">
    <tag k="socket:type2_combo:current" v="200"/>
    <tag k="amenity" v="charging_station"/>
    <tag k="website" v="https://www.mobie.pt/"/>
    <tag k="name" v="SBA-00009"/>
    <tag k="access" v="yes"/>
    <tag k="addr:country" v="PT"/>
    <tag k="authentication:membership_card" v="yes"/>
    <tag k="authentication:none" v="no"/>
    <tag k="capacity" v="2"/>
    <tag k="fee" v="yes"/>
    <tag k="maxstay" v="unlimited"/>
    <tag k="motorcar" v="yes"/>
    <tag k="network" v="Mobi.E"/>
    <tag k="opening_hours" v="24/7"/>
    <tag k="operator" v="EDP"/>
    <tag k="parking:fee" v="no"/>
    <tag k="payment:app" v="yes"/>
    <tag k="payment:cards" v="no"/>
    <tag k="payment:cash" v="no"/>
    <tag k="payment:membership_card" v="yes"/>
    <tag k="ref" v="SBA-00009"/>
    <tag k="ref:EU:EVSE" v="PT*EDP*E*SBA*00009*01;PT*EDP*E*SBA*00009*02"/>
    <tag k="socket:type2_combo" v="2"/>
    <tag k="socket:type2_combo:output" v="120kW"/>
    <tag k="socket:type2_combo:voltage" v="1000"/>
  </node>
</action>
<action type="create">
  <node id="12396758436" lat="37.1499911" lon="-7.8932332" version="4" timestamp="2024-12-29T16:25:16Z" changeset="160757389" uid="8242461" user="Alex_Mapper">
    <tag k="capacity" v="3"/>
    <tag k="amenity" v="charging_station"/>
    <tag k="website" v="https://www.mobie.pt"/>
    <tag k="name" v="SBA-00008"/>
    <tag k="access" v="yes"/>
    <tag k="addr:country" v="PT"/>
    <tag k="authentication:membership_card" v="yes"/>
    <tag k="authentication:none" v="no"/>
    <tag k="fee" v="yes"/>
    <tag k="maxstay" v="unlimited"/>
    <tag k="motorcar" v="yes"/>
    <tag k="network" v="Mobi.E"/>
    <tag k="opening_hours" v="24/7"/>
    <tag k="operator" v="EDP"/>
    <tag k="parking:fee" v="no"/>
    <tag k="payment:app" v="yes"/>
    <tag k="payment:cards" v="no"/>
    <tag k="payment:cash" v="no"/>
    <tag k="payment:membership_card" v="yes"/>
    <tag k="ref" v="SBA-00008"/>
    <tag k="ref:EU:EVSE" v="PT*EDP*E*SBA*00008*01;PT*EDP*E*SBA*00008*02;PT*EDP*E*SBA*00008*03"/>
    <tag k="socket:type2" v="1"/>
    <tag k="socket:type2:current" v="32"/>
    <tag k="socket:type2:output" v="22kW"/>
    <tag k="socket:type2:voltage" v="400"/>
    <tag k="socket:type2_combo" v="2"/>
    <tag k="socket:type2_combo:current" v="200"/>
    <tag k="socket:type2_combo:output" v="60kW"/>
    <tag k="socket:type2_combo:voltage" v="1000"/>
  </node>
</action>
<action type="create">
  <node id="12427180089" lat="38.7563281" lon="-9.1066126" version="5" timestamp="2024-12-30T13:31:15Z" changeset="160792403" uid="347293" user="Alexmol">
    <tag k="access" v="customers"/>
    <tag k="addr:country" v="PT"/>
    <tag k="amenity" v="charging_station"/>
    <tag k="authentication:membership_card" v="yes"/>
    <tag k="authentication:none" v="no"/>
    <tag k="capacity" v="14"/>
    <tag k="fee" v="yes"/>
    <tag k="maxstay" v="unlimited"/>
    <tag k="motorcar" v="yes"/>
    <tag k="name" v="LSB-00847"/>
    <tag k="network" v="Mobi.E"/>
    <tag k="opening_hours" v="Mo-Fr 08:30-19:00;Sa 10:00-13:00"/>
    <tag k="operator" v="Moon"/>
    <tag k="parking:fee" v="no"/>
    <tag k="payment:app" v="yes"/>
    <tag k="payment:cards" v="no"/>
    <tag k="payment:cash" v="no"/>
    <tag k="payment:membership_card" v="yes"/>
    <tag k="ref" v="LSB-00847"/>
    <tag k="ref:EU:EVSE" v="PT*MOO*E13011*001*1;PT*MOO*E13011*001*2;PT*MOO*E13011*002*1;PT*MOO*E13011*003*1;PT*MOO*E13011*004*1;PT*MOO*E13011*005*1;PT*MOO*E13011*006*1;PT*MOO*E13011*007*1;PT*MOO*E13011*008*1;PT*MOO*E13011*009*1;PT*MOO*E13011*010*1;PT*MOO*E13011*011*1"/>
    <tag k="socket:chademo" v="1"/>
    <tag k="socket:chademo:current" v="120"/>
    <tag k="socket:chademo:output" v="50kW"/>
    <tag k="socket:chademo:voltage" v="500"/>
    <tag k="socket:type2_cable" v="6"/>
    <tag k="socket:type2_cable:current" v="32"/>
    <tag k="socket:type2_cable:output" v="22kW"/>
    <tag k="socket:type2_cable:voltage" v="400"/>
    <tag k="socket:type2_combo" v="7"/>
    <tag k="socket:type2_combo:current" v="190"/>
    <tag k="socket:type2_combo:output" v="75kW"/>
    <tag k="socket:type2_combo:voltage" v="500"/>
    <tag k="website" v="https://www.mobie.pt/"/>
  </node>
</action>
<action type="create">
  <node id="12461333899" lat="38.7429400" lon="-9.2339069" version="1" timestamp="2024-12-29T18:58:17Z" changeset="160764232" uid="347293" user="Alexmol">
    <tag k="website" v="https://plugcharge.continente.pt/"/>
    <tag k="amenity" v="charging_station"/>
    <tag k="capacity" v="20"/>
    <tag k="socket:type2_combo:voltage" v="500"/>
    <tag k="name" v="Continente Amadora Piso 1"/>
    <tag k="operator" v="Sonae"/>
    <tag k="socket:type2" v="18"/>
    <tag k="socket:type2:current" v="32"/>
    <tag k="socket:type2:output" v="22kW"/>
    <tag k="socket:type2:voltage" v="400"/>
    <tag k="access" v="yes"/>
    <tag k="addr:city" v="Amadora"/>
    <tag k="addr:country" v="PT"/>
    <tag k="authentication:app" v="yes"/>
    <tag k="authentication:none" v="no"/>
    <tag k="fee" v="yes"/>
    <tag k="level" v="1"/>
    <tag k="motorcar" v="yes"/>
    <tag k="network" v="Continente Plug&amp;Charge"/>
    <tag k="opening_hours" v="Mo-Su 09:00-22:00"/>
    <tag k="parking:fee" v="no"/>
    <tag k="socket:type2_combo" v="2"/>
    <tag k="socket:type2_combo:current" v="125"/>
    <tag k="socket:type2_combo:output" v="50kW"/>
  </node>
</action>

</osm>
