<?xml version="1.0" encoding="UTF-8"?>
<osm version="0.6" generator="Overpass API 0.7.62.5 1bd436f1">
<note>The data included in this document is from www.openstreetmap.org. The data is made available under ODbL.</note>
<meta osm_base="2025-03-04T01:45:57Z" areas="2025-02-06T02:17:44Z"/>

<action type="create">
  <node id="8388553060" lat="41.2341311" lon="-8.6224785" version="11" timestamp="2024-09-25T21:12:26Z" changeset="157102031" uid="347293" user="Alexmol">
    <tag k="amenity" v="charging_station"/>
    <tag k="capacity" v="8"/>
    <tag k="website" v="https://www.mobie.pt"/>
    <tag k="name" v="MAI-00007/08/09/10"/>
    <tag k="ref" v="MAI-00007;MAI-00008;MAI-00009;MAI-00010"/>
    <tag k="socket:type2" v="8"/>
    <tag k="access" v="yes"/>
    <tag k="addr:country" v="PT"/>
    <tag k="authentication:membership_card" v="yes"/>
    <tag k="authentication:none" v="no"/>
    <tag k="email" v="mobilidade-eletrica@edp.pt"/>
    <tag k="fee" v="yes"/>
    <tag k="maxstay" v="unlimited"/>
    <tag k="motorcar" v="yes"/>
    <tag k="network" v="Mobi.E"/>
    <tag k="opening_hours" v="24/7"/>
    <tag k="operator" v="EDP"/>
    <tag k="operator:wikidata" v="Q1341222"/>
    <tag k="parking:fee" v="no"/>
    <tag k="payment:app" v="yes"/>
    <tag k="payment:cards" v="no"/>
    <tag k="payment:cash" v="no"/>
    <tag k="payment:membership_card" v="yes"/>
    <tag k="phone" v="+351 800 222 222"/>
    <tag k="socket:type2:current" v="32"/>
    <tag k="socket:type2:output" v="22kW"/>
    <tag k="socket:type2:voltage" v="400"/>
  </node>
</action>
<action type="delete">
<old>
  <node id="8522041990" lat="38.7066240" lon="-9.4331510" version="16" timestamp="2025-03-03T17:34:19Z" changeset="163171292" uid="347293" user="Alexmol">
    <tag k="access" v="yes"/>
    <tag k="addr:city" v="Cascais"/>
    <tag k="addr:country" v="PT"/>
    <tag k="amenity" v="charging_station"/>
    <tag k="authentication:membership_card" v="yes"/>
    <tag k="authentication:none" v="no"/>
    <tag k="brand" v="Galp electric"/>
    <tag k="capacity" v="1"/>
    <tag k="email" v="mobilidade.electricacrc@galp.com"/>
    <tag k="fee" v="yes"/>
    <tag k="maxstay" v="unlimited"/>
    <tag k="motorcar" v="yes"/>
    <tag k="name" v="CSC-00068"/>
    <tag k="network" v="Mobi.E"/>
    <tag k="opening_hours" v="24/7"/>
    <tag k="operator" v="Galp Power"/>
    <tag k="parking:fee" v="no"/>
    <tag k="payment:app" v="yes"/>
    <tag k="payment:cards" v="no"/>
    <tag k="payment:cash" v="no"/>
    <tag k="payment:membership_card" v="yes"/>
    <tag k="phone" v="+351 800 249 249"/>
    <tag k="ref" v="CSC-00068"/>
    <tag k="socket:chademo" v="1"/>
    <tag k="socket:chademo:current" v="120"/>
    <tag k="socket:chademo:output" v="50kW"/>
    <tag k="socket:chademo:voltage" v="500"/>
    <tag k="socket:type2_cable" v="1"/>
    <tag k="socket:type2_cable:current" v="63"/>
    <tag k="socket:type2_cable:output" v="43kW"/>
    <tag k="socket:type2_cable:voltage" v="400"/>
    <tag k="socket:type2_combo" v="1"/>
    <tag k="socket:type2_combo:current" v="125"/>
    <tag k="socket:type2_combo:output" v="50kW"/>
    <tag k="socket:type2_combo:voltage" v="500"/>
    <tag k="website" v="https://www.mobie.pt"/>
  </node>
</old>
<new>
  <node id="8522041990" visible="true" version="15" timestamp="2025-03-02T09:52:57Z" changeset="163114450" uid="347293" user="Alexmol"/>
</new>
</action>
<action type="create">
  <node id="9338579598" lat="40.6437791" lon="-7.9117983" version="7" timestamp="2024-05-17T09:57:25Z" changeset="151445486" uid="347293" user="Alexmol">
    <tag k="amenity" v="charging_station"/>
    <tag k="capacity" v="4"/>
    <tag k="website" v="https://www.mobie.pt/"/>
    <tag k="name" v="VIS-00021/22 - Palácio do Gelo"/>
    <tag k="ref" v="VIS-00021;VIS-00022"/>
    <tag k="socket:chademo" v="2"/>
    <tag k="socket:type2" v="2"/>
    <tag k="socket:type2_combo" v="2"/>
    <tag k="access" v="yes"/>
    <tag k="addr:country" v="PT"/>
    <tag k="authentication:membership_card" v="yes"/>
    <tag k="authentication:none" v="no"/>
    <tag k="fee" v="yes"/>
    <tag k="maxstay" v="unlimited"/>
    <tag k="motorcar" v="yes"/>
    <tag k="network" v="Mobi.E"/>
    <tag k="opening_hours" v="07:00-01:00"/>
    <tag k="operator" v="Visacasa"/>
    <tag k="parking:fee" v="yes"/>
    <tag k="payment:app" v="yes"/>
    <tag k="payment:cards" v="no"/>
    <tag k="payment:cash" v="no"/>
    <tag k="payment:membership_card" v="yes"/>
    <tag k="socket:chademo:current" v="125"/>
    <tag k="socket:chademo:output" v="50kW"/>
    <tag k="socket:chademo:voltage" v="500"/>
    <tag k="socket:type2:current" v="32"/>
    <tag k="socket:type2:output" v="22kW"/>
    <tag k="socket:type2:voltage" v="400"/>
    <tag k="socket:type2_combo:current" v="125"/>
    <tag k="socket:type2_combo:output" v="60kW"/>
    <tag k="socket:type2_combo:voltage" v="1000"/>
  </node>
</action>
<action type="create">
  <node id="9649768009" lat="41.2341759" lon="-8.6221354" version="9" timestamp="2024-09-25T21:12:26Z" changeset="157102031" uid="347293" user="Alexmol">
    <tag k="amenity" v="charging_station"/>
    <tag k="website" v="https://www.mobie.pt/"/>
    <tag k="name" v="MAI-00021"/>
    <tag k="access" v="yes"/>
    <tag k="addr:country" v="PT"/>
    <tag k="authentication:membership_card" v="yes"/>
    <tag k="authentication:none" v="no"/>
    <tag k="capacity" v="2"/>
    <tag k="email" v="mobilidade-eletrica@edp.pt"/>
    <tag k="fee" v="yes"/>
    <tag k="maxstay" v="unlimited"/>
    <tag k="motorcar" v="yes"/>
    <tag k="network" v="Mobi.E"/>
    <tag k="old_ref" v="MAI-00011"/>
    <tag k="opening_hours" v="24/7"/>
    <tag k="operator" v="EDP"/>
    <tag k="operator:wikidata" v="Q1341222"/>
    <tag k="parking:fee" v="no"/>
    <tag k="payment:app" v="yes"/>
    <tag k="payment:cards" v="no"/>
    <tag k="payment:cash" v="no"/>
    <tag k="payment:membership_card" v="yes"/>
    <tag k="phone" v="+351 800 222 222"/>
    <tag k="ref" v="MAI-00021"/>
    <tag k="socket:chademo" v="1"/>
    <tag k="socket:chademo:current" v="120"/>
    <tag k="socket:chademo:output" v="50kW"/>
    <tag k="socket:chademo:voltage" v="500"/>
    <tag k="socket:type2_cable" v="1"/>
    <tag k="socket:type2_cable:current" v="63"/>
    <tag k="socket:type2_cable:output" v="43kW"/>
    <tag k="socket:type2_cable:voltage" v="400"/>
    <tag k="socket:type2_combo" v="1"/>
    <tag k="socket:type2_combo:current" v="125"/>
    <tag k="socket:type2_combo:output" v="50kW"/>
    <tag k="socket:type2_combo:voltage" v="500"/>
  </node>
</action>
<action type="modify">
<old>
  <node id="9915432837" version="3" timestamp="2025-03-03T20:29:55Z" changeset="163176933" uid="347293" user="Alexmol"/>
</old>
<new>
  <node id="9915432837" lat="40.6437177" lon="-7.9118514" version="2" timestamp="2022-07-28T19:37:10Z" changeset="124200961" uid="347293" user="Alexmol">
    <tag k="amenity" v="charging_station"/>
    <tag k="capacity" v="8"/>
    <tag k="website" v="https://www.mobie.pt/"/>
    <tag k="name" v="VIS-00019/20/23/24 - Palácio do Gelo"/>
    <tag k="ref" v="VIS-00019;VIS-00020;VIS-00023;VIS-00024"/>
    <tag k="socket:type2" v="8"/>
    <tag k="access" v="yes"/>
    <tag k="addr:country" v="PT"/>
    <tag k="authentication:membership_card" v="yes"/>
    <tag k="authentication:none" v="no"/>
    <tag k="fee" v="yes"/>
    <tag k="maxstay" v="unlimited"/>
    <tag k="motorcar" v="yes"/>
    <tag k="network" v="Mobi.E"/>
    <tag k="opening_hours" v="07:00-01:00"/>
    <tag k="operator" v="Visacasa"/>
    <tag k="parking:fee" v="yes"/>
    <tag k="payment:app" v="yes"/>
    <tag k="payment:cards" v="no"/>
    <tag k="payment:cash" v="no"/>
    <tag k="payment:membership_card" v="yes"/>
    <tag k="socket:type2:current" v="32"/>
    <tag k="socket:type2:output" v="22kW"/>
    <tag k="socket:type2:voltage" v="400"/>
  </node>
</new>
</action>
<action type="create">
  <node id="10134101800" lat="41.2163683" lon="-8.6842793" version="3" timestamp="2023-08-12T10:23:48Z" changeset="139781514" uid="347293" user="Alexmol">
    <tag k="amenity" v="charging_station"/>
    <tag k="website" v="https://www.mobie.pt/"/>
    <tag k="name" v="MTS-00049 - Decathlon"/>
    <tag k="socket:type2:voltage" v="400"/>
    <tag k="access" v="yes"/>
    <tag k="addr:country" v="PT"/>
    <tag k="authentication:membership_card" v="yes"/>
    <tag k="authentication:none" v="no"/>
    <tag k="capacity" v="1"/>
    <tag k="email" v="ajuda@powerdot.pt"/>
    <tag k="fee" v="yes"/>
    <tag k="maxstay" v="unlimited"/>
    <tag k="motorcar" v="yes"/>
    <tag k="network" v="Mobi.E"/>
    <tag k="opening_hours" v="24/7"/>
    <tag k="operator" v="Powerdot"/>
    <tag k="parking:fee" v="no"/>
    <tag k="payment:app" v="yes"/>
    <tag k="payment:cards" v="no"/>
    <tag k="payment:cash" v="no"/>
    <tag k="payment:membership_card" v="yes"/>
    <tag k="phone" v="+351 800 180 292"/>
    <tag k="ref" v="MTS-00049"/>
    <tag k="socket:type2" v="1"/>
    <tag k="socket:type2:current" v="16"/>
    <tag k="socket:type2:output" v="11kW"/>
  </node>
</action>
<action type="create">
  <node id="10134101801" lat="41.2164490" lon="-8.6842820" version="4" timestamp="2024-05-17T09:57:25Z" changeset="151445486" uid="347293" user="Alexmol">
    <tag k="amenity" v="charging_station"/>
    <tag k="capacity" v="8"/>
    <tag k="website" v="https://www.mobie.pt/"/>
    <tag k="name" v="MTS-00051 - Decathlon"/>
    <tag k="socket:type2_combo:voltage" v="500"/>
    <tag k="socket:chademo" v="2"/>
    <tag k="socket:chademo:current" v="125"/>
    <tag k="socket:chademo:output" v="50kW"/>
    <tag k="socket:chademo:voltage" v="500"/>
    <tag k="socket:type2_combo" v="6"/>
    <tag k="access" v="yes"/>
    <tag k="addr:country" v="PT"/>
    <tag k="authentication:membership_card" v="yes"/>
    <tag k="authentication:none" v="no"/>
    <tag k="email" v="ajuda@powerdot.pt"/>
    <tag k="fee" v="yes"/>
    <tag k="maxstay" v="unlimited"/>
    <tag k="motorcar" v="yes"/>
    <tag k="network" v="Mobi.E"/>
    <tag k="opening_hours" v="24/7"/>
    <tag k="operator" v="Powerdot"/>
    <tag k="parking:fee" v="no"/>
    <tag k="payment:app" v="yes"/>
    <tag k="payment:cards" v="no"/>
    <tag k="payment:cash" v="no"/>
    <tag k="payment:membership_card" v="yes"/>
    <tag k="phone" v="+351 800 180 292"/>
    <tag k="ref" v="MTS-00051"/>
    <tag k="socket:type2_combo:current" v="300"/>
    <tag k="socket:type2_combo:output" v="120kW"/>
  </node>
</action>
<action type="create">
  <node id="10733683063" lat="40.6503784" lon="-8.6145423" version="7" timestamp="2024-12-27T16:47:29Z" changeset="160684482" uid="347293" user="Alexmol">
    <tag k="amenity" v="charging_station"/>
    <tag k="capacity" v="8"/>
    <tag k="website" v="https://www.mobie.pt/"/>
    <tag k="name" v="AVR-00071"/>
    <tag k="ref:EU:EVSE" v="PT*HRZ*E*AVR*00071*01;PT*HRZ*E*AVR*00071*02;PT*HRZ*E*AVR*00071*03;PT*HRZ*E*AVR*00071*04;PT*HRZ*E*AVR*00071*05;PT*HRZ*E*AVR*00071*06;PT*HRZ*E*AVR*00071*07;PT*HRZ*E*AVR*00071*08"/>
    <tag k="socket:chademo" v="1"/>
    <tag k="socket:chademo:current" v="120"/>
    <tag k="socket:chademo:output" v="50kW"/>
    <tag k="socket:chademo:voltage" v="500"/>
    <tag k="socket:type2_combo" v="7"/>
    <tag k="access" v="yes"/>
    <tag k="addr:country" v="PT"/>
    <tag k="authentication:membership_card" v="yes"/>
    <tag k="authentication:none" v="no"/>
    <tag k="email" v="ajuda@powerdot.pt"/>
    <tag k="fee" v="yes"/>
    <tag k="maxstay" v="unlimited"/>
    <tag k="motorcar" v="yes"/>
    <tag k="network" v="Mobi.E"/>
    <tag k="opening_hours" v="24/7"/>
    <tag k="operator" v="Powerdot"/>
    <tag k="parking:fee" v="no"/>
    <tag k="payment:app" v="yes"/>
    <tag k="payment:cards" v="no"/>
    <tag k="payment:cash" v="no"/>
    <tag k="payment:membership_card" v="yes"/>
    <tag k="phone" v="+351 800 180 292"/>
    <tag k="ref" v="AVR-00071"/>
    <tag k="socket:type2_combo:current" v="375"/>
    <tag k="socket:type2_combo:output" v="150kW"/>
    <tag k="socket:type2_combo:voltage" v="500"/>
  </node>
</action>
<action type="create">
  <node id="10788852177" lat="41.1743851" lon="-8.5662152" version="4" timestamp="2024-09-25T21:12:26Z" changeset="157102031" uid="347293" user="Alexmol">
    <tag k="amenity" v="charging_station"/>
    <tag k="website" v="https://www.mobie.pt/"/>
    <tag k="socket:type2_combo:voltage" v="500"/>
    <tag k="socket:type2_combo:output" v="50kW"/>
    <tag k="name" v="GDM-00027 - Parque Nascente"/>
    <tag k="access" v="yes"/>
    <tag k="addr:country" v="PT"/>
    <tag k="authentication:membership_card" v="yes"/>
    <tag k="authentication:none" v="no"/>
    <tag k="capacity" v="2"/>
    <tag k="email" v="mobilidade-eletrica@edp.pt"/>
    <tag k="fee" v="yes"/>
    <tag k="level" v="-1"/>
    <tag k="maxstay" v="unlimited"/>
    <tag k="motorcar" v="yes"/>
    <tag k="network" v="Mobi.E"/>
    <tag k="opening_hours" v="09:00-24:00"/>
    <tag k="operator" v="EDP"/>
    <tag k="parking:fee" v="no"/>
    <tag k="payment:app" v="yes"/>
    <tag k="payment:cards" v="no"/>
    <tag k="payment:cash" v="no"/>
    <tag k="payment:membership_card" v="yes"/>
    <tag k="phone" v="+351 800 222 222"/>
    <tag k="ref" v="GDM-00027"/>
    <tag k="socket:chademo" v="1"/>
    <tag k="socket:chademo:current" v="120"/>
    <tag k="socket:chademo:output" v="50kW"/>
    <tag k="socket:chademo:voltage" v="500"/>
    <tag k="socket:type2_cable" v="1"/>
    <tag k="socket:type2_cable:current" v="32"/>
    <tag k="socket:type2_cable:output" v="22kW"/>
    <tag k="socket:type2_cable:voltage" v="400"/>
    <tag k="socket:type2_combo" v="1"/>
    <tag k="socket:type2_combo:current" v="125"/>
  </node>
</action>
<action type="create">
  <node id="10788852178" lat="41.1743397" lon="-8.5662809" version="6" timestamp="2024-09-25T21:12:26Z" changeset="157102031" uid="347293" user="Alexmol">
    <tag k="amenity" v="charging_station"/>
    <tag k="capacity" v="4"/>
    <tag k="website" v="https://www.mobie.pt/"/>
    <tag k="socket:type2:voltage" v="400"/>
    <tag k="socket:type2:output" v="22kW"/>
    <tag k="name" v="GDM-00025/26"/>
    <tag k="ref" v="GDM-00025;GDM-00026"/>
    <tag k="socket:type2" v="4"/>
    <tag k="access" v="yes"/>
    <tag k="addr:country" v="PT"/>
    <tag k="authentication:membership_card" v="yes"/>
    <tag k="authentication:none" v="no"/>
    <tag k="email" v="mobilidade-eletrica@edp.pt"/>
    <tag k="fee" v="yes"/>
    <tag k="level" v="-1"/>
    <tag k="maxstay" v="unlimited"/>
    <tag k="motorcar" v="yes"/>
    <tag k="network" v="Mobi.E"/>
    <tag k="opening_hours" v="09:00-24:00"/>
    <tag k="operator" v="EDP"/>
    <tag k="parking:fee" v="no"/>
    <tag k="payment:app" v="yes"/>
    <tag k="payment:cards" v="no"/>
    <tag k="payment:cash" v="no"/>
    <tag k="payment:membership_card" v="yes"/>
    <tag k="phone" v="+351 800 222 222"/>
    <tag k="socket:type2:current" v="32"/>
  </node>
</action>
<action type="create">
  <node id="10788852179" lat="41.1742844" lon="-8.5663444" version="7" timestamp="2024-09-25T21:12:26Z" changeset="157102031" uid="347293" user="Alexmol">
    <tag k="amenity" v="charging_station"/>
    <tag k="capacity" v="8"/>
    <tag k="website" v="https://www.mobie.pt/"/>
    <tag k="socket:type2:voltage" v="230"/>
    <tag k="socket:type2:output" v="7.4kW"/>
    <tag k="name" v="GDM-00021/22/23/24"/>
    <tag k="ref" v="GDM-00021;GDM-00022;GDM-00023;GDM-00024"/>
    <tag k="socket:type2" v="8"/>
    <tag k="access" v="yes"/>
    <tag k="addr:country" v="PT"/>
    <tag k="authentication:membership_card" v="yes"/>
    <tag k="authentication:none" v="no"/>
    <tag k="email" v="mobilidade-eletrica@edp.pt"/>
    <tag k="fee" v="yes"/>
    <tag k="level" v="-1"/>
    <tag k="maxstay" v="unlimited"/>
    <tag k="motorcar" v="yes"/>
    <tag k="network" v="Mobi.E"/>
    <tag k="opening_hours" v="09:00-24:00"/>
    <tag k="operator" v="EDP"/>
    <tag k="parking:fee" v="no"/>
    <tag k="payment:app" v="yes"/>
    <tag k="payment:cards" v="no"/>
    <tag k="payment:cash" v="no"/>
    <tag k="payment:membership_card" v="yes"/>
    <tag k="phone" v="+351 800 222 222"/>
    <tag k="socket:type2:current" v="32"/>
  </node>
</action>
<action type="create">
  <node id="10831642482" lat="40.1495129" lon="-8.8499968" version="7" timestamp="2024-01-04T14:25:00Z" changeset="145883615" uid="347293" user="Alexmol">
    <tag k="amenity" v="charging_station"/>
    <tag k="website" v="https://www.mobie.pt/"/>
    <tag k="name" v="FIG-00024 - Pingo Doce"/>
    <tag k="access" v="yes"/>
    <tag k="authentication:membership_card" v="yes"/>
    <tag k="authentication:none" v="no"/>
    <tag k="capacity" v="2"/>
    <tag k="email" v="support.portugal@atlante.energy"/>
    <tag k="fee" v="yes"/>
    <tag k="maxstay" v="unlimited"/>
    <tag k="motorcar" v="yes"/>
    <tag k="network" v="Mobi.E"/>
    <tag k="old_ref" v="FIG-00020"/>
    <tag k="opening_hours" v="09:00-21:00"/>
    <tag k="operator" v="Atlante"/>
    <tag k="parking:fee" v="no"/>
    <tag k="payment:app" v="yes"/>
    <tag k="payment:cards" v="no"/>
    <tag k="payment:cash" v="no"/>
    <tag k="payment:membership_card" v="yes"/>
    <tag k="phone" v="+351 800 296 929"/>
    <tag k="ref" v="FIG-00024"/>
    <tag k="socket:chademo" v="1"/>
    <tag k="socket:chademo:current" v="125"/>
    <tag k="socket:chademo:output" v="50kW"/>
    <tag k="socket:chademo:voltage" v="500"/>
    <tag k="socket:type2_cable" v="1"/>
    <tag k="socket:type2_cable:current" v="32"/>
    <tag k="socket:type2_cable:output" v="22kW"/>
    <tag k="socket:type2_cable:voltage" v="400"/>
    <tag k="socket:type2_combo" v="1"/>
    <tag k="socket:type2_combo:current" v="150"/>
    <tag k="socket:type2_combo:output" v="60kW"/>
    <tag k="socket:type2_combo:voltage" v="1000"/>
  </node>
</action>
<action type="create">
  <node id="10992882423" lat="41.1990073" lon="-8.6270559" version="6" timestamp="2024-05-17T09:57:25Z" changeset="151445486" uid="347293" user="Alexmol">
    <tag k="amenity" v="charging_station"/>
    <tag k="capacity" v="8"/>
    <tag k="website" v="https://www.mobie.pt"/>
    <tag k="name" v="MTS-00115"/>
    <tag k="socket:type2_combo:voltage" v="500"/>
    <tag k="socket:type2_combo" v="7"/>
    <tag k="socket:type2_combo:current" v="375"/>
    <tag k="socket:type2_combo:output" v="150kW"/>
    <tag k="access" v="yes"/>
    <tag k="addr:country" v="PT"/>
    <tag k="authentication:membership_card" v="yes"/>
    <tag k="authentication:none" v="no"/>
    <tag k="email" v="ajuda@powerdot.pt"/>
    <tag k="fee" v="yes"/>
    <tag k="maxstay" v="unlimited"/>
    <tag k="motorcar" v="yes"/>
    <tag k="network" v="Mobi.E"/>
    <tag k="opening_hours" v="24/7"/>
    <tag k="operator" v="Powerdot"/>
    <tag k="parking:fee" v="no"/>
    <tag k="payment:app" v="yes"/>
    <tag k="payment:cards" v="no"/>
    <tag k="payment:cash" v="no"/>
    <tag k="payment:membership_card" v="yes"/>
    <tag k="phone" v="+351 800 180 292"/>
    <tag k="ref" v="MTS-00115"/>
    <tag k="socket:chademo" v="1"/>
    <tag k="socket:chademo:current" v="125"/>
    <tag k="socket:chademo:output" v="50kW"/>
    <tag k="socket:chademo:voltage" v="500"/>
  </node>
</action>
<action type="delete">
<old>
  <node id="11275817601" lat="40.1565379" lon="-7.4972366" version="10" timestamp="2025-03-03T17:35:39Z" changeset="163171332" uid="347293" user="Alexmol">
    <tag k="access" v="yes"/>
    <tag k="amenity" v="charging_station"/>
    <tag k="authentication:membership_card" v="yes"/>
    <tag k="authentication:none" v="no"/>
    <tag k="capacity" v="2"/>
    <tag k="fee" v="yes"/>
    <tag k="maxstay" v="unlimited"/>
    <tag k="motorcar" v="yes"/>
    <tag k="name" v="FND-00022"/>
    <tag k="network" v="Mobi.E"/>
    <tag k="old_operator" v="KLC Serviços"/>
    <tag k="old_ref" v="FND-00015"/>
    <tag k="opening_hours" v="24/7"/>
    <tag k="operator" v="EDP"/>
    <tag k="parking:fee" v="no"/>
    <tag k="payment:app" v="yes"/>
    <tag k="payment:cards" v="no"/>
    <tag k="payment:cash" v="no"/>
    <tag k="payment:membership_card" v="yes"/>
    <tag k="ref" v="FND-00022"/>
    <tag k="socket:chademo" v="1"/>
    <tag k="socket:chademo:current" v="125"/>
    <tag k="socket:chademo:output" v="50kW"/>
    <tag k="socket:chademo:voltage" v="500"/>
    <tag k="socket:type2_cable" v="1"/>
    <tag k="socket:type2_cable:current" v="32"/>
    <tag k="socket:type2_cable:output" v="22kW"/>
    <tag k="socket:type2_cable:voltage" v="400"/>
    <tag k="socket:type2_combo" v="1"/>
    <tag k="socket:type2_combo:current" v="150"/>
    <tag k="socket:type2_combo:output" v="60kW"/>
    <tag k="socket:type2_combo:voltage" v="1000"/>
    <tag k="website" v="https://www.mobie.pt/"/>
  </node>
</old>
<new>
  <node id="11275817601" visible="true" version="9" timestamp="2025-02-25T23:15:38Z" changeset="162952613" uid="347293" user="Alexmol"/>
</new>
</action>
<action type="modify">
<old>
  <node id="11607745532" version="7" timestamp="2025-03-03T22:37:04Z" changeset="163180222" uid="347293" user="Alexmol"/>
</old>
<new>
  <node id="11607745532" lat="41.5779038" lon="-6.9461792" version="6" timestamp="2025-02-10T22:03:28Z" changeset="162369636" uid="347293" user="Alexmol">
    <tag k="amenity" v="charging_station"/>
    <tag k="capacity" v="8"/>
    <tag k="description" v="2 tomadas CCS de 150kW (375A@500V) + 3 tomadas CCS de 80kW (200A@500V)"/>
    <tag k="socket:type2_combo:voltage" v="500"/>
    <tag k="name" v="MCD-00005"/>
    <tag k="socket:type2_combo:output" v="150kW"/>
    <tag k="socket:chademo" v="1"/>
    <tag k="socket:chademo:current" v="125"/>
    <tag k="socket:chademo:output" v="50kW"/>
    <tag k="socket:chademo:voltage" v="500"/>
    <tag k="socket:type2" v="2"/>
    <tag k="socket:type2:current" v="32"/>
    <tag k="socket:type2:output" v="22kW"/>
    <tag k="socket:type2:voltage" v="400"/>
    <tag k="socket:type2_combo" v="5"/>
    <tag k="website" v="https://www.mobie.pt"/>
    <tag k="access" v="yes"/>
    <tag k="addr:country" v="PT"/>
    <tag k="authentication:membership_card" v="yes"/>
    <tag k="authentication:none" v="no"/>
    <tag k="fee" v="yes"/>
    <tag k="maxstay" v="unlimited"/>
    <tag k="motorcar" v="yes"/>
    <tag k="network" v="Mobi.E"/>
    <tag k="opening_hours" v="24/7"/>
    <tag k="operator" v="Powerdot"/>
    <tag k="parking:fee" v="no"/>
    <tag k="payment:app" v="yes"/>
    <tag k="payment:cards" v="yes"/>
    <tag k="payment:cash" v="no"/>
    <tag k="payment:membership_card" v="yes"/>
    <tag k="ref" v="MCD-00005"/>
    <tag k="socket:type2_combo:current" v="375"/>
  </node>
</new>
</action>
<action type="modify">
<old>
  <node id="12101523363" version="3" timestamp="2025-03-03T22:37:04Z" changeset="163180222" uid="347293" user="Alexmol"/>
</old>
<new>
  <node id="12101523363" lat="41.5780081" lon="-6.9461730" version="2" timestamp="2025-02-10T22:02:48Z" changeset="162369621" uid="347293" user="Alexmol">
    <tag k="amenity" v="charging_station"/>
    <tag k="website" v="https://www.mobie.pt/"/>
    <tag k="name" v="MCD-00006"/>
    <tag k="access" v="yes"/>
    <tag k="addr:country" v="PT"/>
    <tag k="authentication:membership_card" v="yes"/>
    <tag k="authentication:none" v="no"/>
    <tag k="capacity" v="2"/>
    <tag k="fee" v="yes"/>
    <tag k="maxstay" v="unlimited"/>
    <tag k="motorcar" v="yes"/>
    <tag k="network" v="Mobi.E"/>
    <tag k="opening_hours" v="24/7"/>
    <tag k="operator" v="Powerdot"/>
    <tag k="parking:fee" v="no"/>
    <tag k="payment:app" v="yes"/>
    <tag k="payment:cards" v="no"/>
    <tag k="payment:cash" v="no"/>
    <tag k="payment:membership_card" v="yes"/>
    <tag k="ref" v="MCD-00006"/>
    <tag k="socket:type2" v="2"/>
    <tag k="socket:type2:current" v="32"/>
    <tag k="socket:type2:output" v="22kW"/>
    <tag k="socket:type2:voltage" v="400"/>
  </node>
</new>
</action>
<action type="delete">
<old>
  <node id="12519236943" lat="39.0257753" lon="-9.3657237" version="2" timestamp="2025-03-03T17:43:31Z" changeset="163171592" uid="347293" user="Alexmol">
    <tag k="access" v="yes"/>
    <tag k="addr:country" v="PT"/>
    <tag k="amenity" v="charging_station"/>
    <tag k="authentication:membership_card" v="yes"/>
    <tag k="authentication:none" v="no"/>
    <tag k="capacity" v="2"/>
    <tag k="fee" v="yes"/>
    <tag k="maxstay" v="unlimited"/>
    <tag k="motorcar" v="yes"/>
    <tag k="name" v="MFR-00042"/>
    <tag k="network" v="Mobi.E"/>
    <tag k="opening_hours" v="24/7"/>
    <tag k="operator" v="EDP"/>
    <tag k="parking:fee" v="no"/>
    <tag k="payment:app" v="yes"/>
    <tag k="payment:cards" v="no"/>
    <tag k="payment:cash" v="no"/>
    <tag k="payment:membership_card" v="yes"/>
    <tag k="ref" v="MFR-00042"/>
    <tag k="ref:EU:EVSE" v="PT*EDP*E*MFR*00042*01;PT*EDP*E*MFR*00042*02"/>
    <tag k="socket:type2_combo" v="2"/>
    <tag k="socket:type2_combo:current" v="200"/>
    <tag k="socket:type2_combo:output" v="60kW"/>
    <tag k="socket:type2_combo:voltage" v="1000"/>
    <tag k="website" v="https://www.mobie.pt/"/>
  </node>
</old>
<new>
  <node id="12519236943" visible="true" version="1" timestamp="2025-01-20T22:04:40Z" changeset="161579904" uid="347293" user="Alexmol"/>
</new>
</action>
<action type="delete">
<old>
  <node id="12607266194" lat="40.7477840" lon="-8.6476145" version="3" timestamp="2025-03-03T17:39:28Z" changeset="163171435" uid="347293" user="Alexmol">
    <tag k="access" v="yes"/>
    <tag k="addr:country" v="PT"/>
    <tag k="amenity" v="charging_station"/>
    <tag k="authentication:membership_card" v="yes"/>
    <tag k="authentication:none" v="no"/>
    <tag k="brand" v="edp Charge"/>
    <tag k="capacity" v="2"/>
    <tag k="fee" v="yes"/>
    <tag k="maxstay" v="unlimited"/>
    <tag k="motorcar" v="yes"/>
    <tag k="name" v="MRS-00004"/>
    <tag k="network" v="Mobi.E"/>
    <tag k="opening_hours" v="24/7"/>
    <tag k="operator" v="EDP"/>
    <tag k="parking:fee" v="no"/>
    <tag k="payment:app" v="yes"/>
    <tag k="payment:cards" v="no"/>
    <tag k="payment:cash" v="no"/>
    <tag k="payment:membership_card" v="yes"/>
    <tag k="ref" v="MRS-00004"/>
    <tag k="socket:type2_combo" v="2"/>
    <tag k="socket:type2_combo:current" v="300"/>
    <tag k="socket:type2_combo:output" v="120kW"/>
    <tag k="socket:type2_combo:voltage" v="1000"/>
    <tag k="website" v="https://www.mobie.pt/"/>
  </node>
</old>
<new>
  <node id="12607266194" visible="true" version="2" timestamp="2025-03-02T09:36:56Z" changeset="163113991" uid="347293" user="Alexmol"/>
</new>
</action>
<action type="create">
  <node id="12615567328" lat="40.9051122" lon="-8.6123855" version="1" timestamp="2025-02-24T11:11:37Z" changeset="162887273" uid="14617702" user="Đuro Jiří">
    <tag k="operator:wikidata" v="Q152057"/>
    <tag k="operator" v="BP"/>
    <tag k="amenity" v="charging_station"/>
  </node>
</action>
<action type="create">
  <node id="12615579950" lat="40.9051050" lon="-8.6123425" version="1" timestamp="2025-02-24T11:11:37Z" changeset="162887273" uid="14617702" user="Đuro Jiří">
    <tag k="operator:wikidata" v="Q152057"/>
    <tag k="operator" v="BP"/>
    <tag k="amenity" v="charging_station"/>
  </node>
</action>
<action type="create">
  <node id="12615581945" lat="40.9051037" lon="-8.6122954" version="1" timestamp="2025-02-24T11:11:36Z" changeset="162887273" uid="14617702" user="Đuro Jiří">
    <tag k="operator:wikidata" v="Q152057"/>
    <tag k="operator" v="BP"/>
    <tag k="amenity" v="charging_station"/>
  </node>
</action>
<action type="create">
  <node id="12615588825" lat="40.9051143" lon="-8.6124191" version="1" timestamp="2025-02-24T11:11:36Z" changeset="162887273" uid="14617702" user="Đuro Jiří">
    <tag k="operator:wikidata" v="Q152057"/>
    <tag k="operator" v="BP"/>
    <tag k="amenity" v="charging_station"/>
  </node>
</action>
<action type="delete">
<old>
  <node id="12629913778" lat="38.9140727" lon="-9.0241555" version="2" timestamp="2025-03-03T17:48:17Z" changeset="163171793" uid="347293" user="Alexmol">
    <tag k="access" v="yes"/>
    <tag k="addr:country" v="PT"/>
    <tag k="amenity" v="charging_station"/>
    <tag k="authentication:membership_card" v="yes"/>
    <tag k="authentication:none" v="no"/>
    <tag k="brand" v="Renewing"/>
    <tag k="capacity" v="2"/>
    <tag k="fee" v="yes"/>
    <tag k="maxstay" v="unlimited"/>
    <tag k="motorcar" v="yes"/>
    <tag k="name" v="VFX-00082"/>
    <tag k="network" v="Mobi.E"/>
    <tag k="opening_hours" v="24/7"/>
    <tag k="operator" v="Mota Engil II"/>
    <tag k="parking:fee" v="no"/>
    <tag k="payment:app" v="yes"/>
    <tag k="payment:cards" v="no"/>
    <tag k="payment:cash" v="no"/>
    <tag k="payment:membership_card" v="yes"/>
    <tag k="ref" v="VFX-00082"/>
    <tag k="ref:EU:EVSE" v="PT*MOT*E*VFX*00082*01;PT*MOT*E*VFX*00082*02"/>
    <tag k="socket:type2" v="2"/>
    <tag k="socket:type2:current" v="32"/>
    <tag k="socket:type2:output" v="22kW"/>
    <tag k="socket:type2:voltage" v="400"/>
    <tag k="website" v="https://www.mobie.pt/"/>
  </node>
</old>
<new>
  <node id="12629913778" visible="true" version="1" timestamp="2025-03-02T09:42:10Z" changeset="163114133" uid="347293" user="Alexmol"/>
</new>
</action>

</osm>
