<?xml version="1.0" encoding="UTF-8"?>
<osm version="0.6" generator="Overpass API 0.7.62.7 375dc00a">
<note>The data included in this document is from www.openstreetmap.org. The data is made available under ODbL.</note>
<meta osm_base="2025-07-02T02:02:30Z" areas="2025-06-25T21:32:45Z"/>

<action type="create">
  <node id="8127217936" lat="38.8305810" lon="-9.1690135" version="9" timestamp="2024-09-25T21:12:26Z" changeset="157102031" uid="347293" user="Alexmol">
    <tag k="amenity" v="charging_station"/>
    <tag k="website" v="https://www.mobie.pt"/>
    <tag k="name" v="LRS-00009"/>
    <tag k="access" v="yes"/>
    <tag k="addr:country" v="PT"/>
    <tag k="authentication:membership_card" v="yes"/>
    <tag k="authentication:none" v="no"/>
    <tag k="capacity" v="2"/>
    <tag k="email" v="mobilidade-eletrica@edp.pt"/>
    <tag k="fee" v="yes"/>
    <tag k="maxstay" v="unlimited"/>
    <tag k="motorcar" v="yes"/>
    <tag k="network" v="Mobi.E"/>
    <tag k="opening_hours" v="24/7"/>
    <tag k="operator" v="EDP"/>
    <tag k="parking:fee" v="no"/>
    <tag k="payment:app" v="yes"/>
    <tag k="payment:cards" v="no"/>
    <tag k="payment:cash" v="no"/>
    <tag k="payment:membership_card" v="yes"/>
    <tag k="phone" v="+351 800 222 222"/>
    <tag k="ref" v="LRS-90009"/>
    <tag k="socket:type2" v="2"/>
    <tag k="socket:type2:current" v="32"/>
    <tag k="socket:type2:output" v="7.4kW"/>
    <tag k="socket:type2:voltage" v="230"/>
  </node>
</action>
<action type="create">
  <node id="10901519591" lat="37.0233083" lon="-8.9260791" version="2" timestamp="2024-01-22T13:12:06Z" changeset="146552889" uid="20033850" user="Tag Upgrade Bot">
    <tag k="access" v="customers"/>
    <tag k="addr:country" v="PT"/>
    <tag k="addr:postcode" v="8650-908"/>
    <tag k="amenity" v="charging_station"/>
    <tag k="brand" v="Tesla, Inc."/>
    <tag k="brand:wikidata" v="Q478214"/>
    <tag k="capacity" v="4"/>
    <tag k="fee" v="no"/>
    <tag k="motorcar" v="yes"/>
    <tag k="name" v="Martinhal Sagres Beach Familty Resort Tesla Destination Charger"/>
    <tag k="network" v="Tesla"/>
    <tag k="website" v="https://www.tesla.com/pt_PT/findus/list/chargers/Portugal"/>
    <tag k="source" v="microsoft/BuildingFootprints"/>
    <tag k="operator" v="Tesla"/>
    <tag k="phone" v="+351 282 240 200"/>
    <tag k="ref" v="dc71608"/>
    <tag k="socket:type2_cable:output" v="22kW"/>
    <tag k="short_name" v="Tesla"/>
    <tag k="socket:tesla_destination" v="2"/>
    <tag k="socket:tesla_destination:output" v="22kW"/>
    <tag k="socket:type2_cable" v="2"/>
  </node>
</action>
<action type="create">
  <node id="11043038721" lat="37.1131211" lon="-8.6624354" version="3" timestamp="2024-01-20T10:10:48Z" changeset="146472222" uid="20033850" user="Tag Upgrade Bot">
    <tag k="access" v="customers"/>
    <tag k="addr:country" v="PT"/>
    <tag k="amenity" v="charging_station"/>
    <tag k="authentication:membership_card" v="yes"/>
    <tag k="authentication:none" v="no"/>
    <tag k="capacity" v="4"/>
    <tag k="email" v="mobilidade-eletrica@edp.pt"/>
    <tag k="fee" v="yes"/>
    <tag k="maxstay" v="unlimited"/>
    <tag k="motorcar" v="yes"/>
    <tag k="name" v="LGS-00024/25"/>
    <tag k="network" v="Mobi.E"/>
    <tag k="opening_hours" v="24/7"/>
    <tag k="operator" v="EDP"/>
    <tag k="operator:wikidata" v="Q1341222"/>
    <tag k="parking:fee" v="no"/>
    <tag k="payment:app" v="yes"/>
    <tag k="payment:cards" v="no"/>
    <tag k="payment:cash" v="no"/>
    <tag k="payment:membership_card" v="yes"/>
    <tag k="phone" v="+351 800 222 222"/>
    <tag k="ref" v="LGS-00024;LGS-00025"/>
    <tag k="socket:type2" v="2"/>
    <tag k="socket:type2:current" v="16"/>
    <tag k="socket:type2:output" v="11kW"/>
    <tag k="socket:type2:voltage" v="400"/>
    <tag k="website" v="https://www.mobie.pt/"/>
  </node>
</action>
<action type="modify">
<old>
  <node id="11305975102" version="7" timestamp="2025-07-01T13:07:23Z" changeset="168353280" uid="347293" user="Alexmol"/>
</old>
<new>
  <node id="11305975102" lat="40.2188902" lon="-8.0574567" version="6" timestamp="2024-09-25T21:12:26Z" changeset="157102031" uid="347293" user="Alexmol">
    <tag k="amenity" v="charging_station"/>
    <tag k="website" v="https://www.mobie.pt/"/>
    <tag k="name" v="AGN-00003 - Intermarché"/>
    <tag k="access" v="yes"/>
    <tag k="addr:country" v="PT"/>
    <tag k="authentication:membership_card" v="yes"/>
    <tag k="authentication:none" v="no"/>
    <tag k="capacity" v="2"/>
    <tag k="fee" v="yes"/>
    <tag k="maxstay" v="unlimited"/>
    <tag k="motorcar" v="yes"/>
    <tag k="network" v="Mobi.E"/>
    <tag k="opening_hours" v="24/7"/>
    <tag k="operator" v="EDP"/>
    <tag k="parking:fee" v="no"/>
    <tag k="payment:app" v="yes"/>
    <tag k="payment:cards" v="no"/>
    <tag k="payment:cash" v="no"/>
    <tag k="payment:membership_card" v="yes"/>
    <tag k="ref" v="AGN-00003"/>
    <tag k="socket:type2" v="2"/>
    <tag k="socket:type2:current" v="32"/>
    <tag k="socket:type2:output" v="22kW"/>
    <tag k="socket:type2:voltage" v="400"/>
  </node>
</new>
</action>
<action type="delete">
<old>
  <node id="12176582183" lat="38.8266263" lon="-9.1648502" version="5" timestamp="2025-07-01T13:03:35Z" changeset="168353108" uid="347293" user="Alexmol">
    <tag k="access" v="yes"/>
    <tag k="addr:country" v="PT"/>
    <tag k="amenity" v="charging_station"/>
    <tag k="authentication:membership_card" v="yes"/>
    <tag k="authentication:none" v="no"/>
    <tag k="capacity" v="2"/>
    <tag k="fee" v="yes"/>
    <tag k="maxstay" v="unlimited"/>
    <tag k="motorcar" v="yes"/>
    <tag k="name" v="LRS-00121"/>
    <tag k="network" v="Mobi.E"/>
    <tag k="opening_hours" v="24/7"/>
    <tag k="operator" v="KLC Serviços"/>
    <tag k="parking:fee" v="no"/>
    <tag k="payment:app" v="yes"/>
    <tag k="payment:cards" v="no"/>
    <tag k="payment:cash" v="no"/>
    <tag k="payment:membership_card" v="yes"/>
    <tag k="ref" v="LRS-00121"/>
    <tag k="socket:chademo" v="1"/>
    <tag k="socket:chademo:current" v="120"/>
    <tag k="socket:chademo:output" v="49kW"/>
    <tag k="socket:chademo:voltage" v="500"/>
    <tag k="socket:type2_cable" v="1"/>
    <tag k="socket:type2_cable:current" v="32"/>
    <tag k="socket:type2_cable:output" v="22kW"/>
    <tag k="socket:type2_cable:voltage" v="400"/>
    <tag k="socket:type2_combo" v="1"/>
    <tag k="socket:type2_combo:current" v="125"/>
    <tag k="socket:type2_combo:output" v="49kW"/>
    <tag k="socket:type2_combo:voltage" v="500"/>
    <tag k="website" v="https://www.mobie.pt/"/>
  </node>
</old>
<new>
  <node id="12176582183" visible="true" version="4" timestamp="2025-03-10T16:09:52Z" changeset="163449555" uid="347293" user="Alexmol"/>
</new>
</action>
<action type="delete">
<old>
  <node id="12955171912" lat="38.7310987" lon="-9.4192898" version="2" timestamp="2025-07-01T12:06:54Z" changeset="168350865" uid="347293" user="Alexmol">
    <tag k="access" v="yes"/>
    <tag k="addr:country" v="PT"/>
    <tag k="amenity" v="charging_station"/>
    <tag k="authentication:membership_card" v="yes"/>
    <tag k="authentication:none" v="no"/>
    <tag k="capacity" v="2"/>
    <tag k="fee" v="yes"/>
    <tag k="maxstay" v="unlimited"/>
    <tag k="motorcar" v="yes"/>
    <tag k="name" v="CSC-00338"/>
    <tag k="network" v="Mobi.E"/>
    <tag k="opening_hours" v="24/7"/>
    <tag k="operator" v="Powerdot"/>
    <tag k="parking:fee" v="no"/>
    <tag k="payment:app" v="yes"/>
    <tag k="payment:cards" v="no"/>
    <tag k="payment:cash" v="no"/>
    <tag k="payment:membership_card" v="yes"/>
    <tag k="ref" v="CSC-00338"/>
    <tag k="ref:EU:EVSE" v="PT*HRZ*E*CSC*00338*01;PT*HRZ*E*CSC*00338*02"/>
    <tag k="socket:type2" v="2"/>
    <tag k="socket:type2:current" v="32"/>
    <tag k="socket:type2:output" v="22kW"/>
    <tag k="socket:type2:voltage" v="400"/>
    <tag k="website" v="https://www.mobie.pt/"/>
  </node>
</old>
<new>
  <node id="12955171912" visible="true" version="1" timestamp="2025-06-26T22:25:44Z" changeset="168159705" uid="347293" user="Alexmol"/>
</new>
</action>
<action type="delete">
<old>
  <node id="12955171913" lat="38.7311398" lon="-9.4192910" version="2" timestamp="2025-07-01T12:48:54Z" changeset="168352467" uid="347293" user="Alexmol">
    <tag k="access" v="yes"/>
    <tag k="addr:country" v="PT"/>
    <tag k="amenity" v="charging_station"/>
    <tag k="authentication:membership_card" v="yes"/>
    <tag k="authentication:none" v="no"/>
    <tag k="capacity" v="2"/>
    <tag k="fee" v="yes"/>
    <tag k="maxstay" v="unlimited"/>
    <tag k="motorcar" v="yes"/>
    <tag k="name" v="CSC-00337"/>
    <tag k="network" v="Mobi.E"/>
    <tag k="opening_hours" v="24/7"/>
    <tag k="operator" v="Powerdot"/>
    <tag k="parking:fee" v="no"/>
    <tag k="payment:app" v="yes"/>
    <tag k="payment:cards" v="no"/>
    <tag k="payment:cash" v="no"/>
    <tag k="payment:membership_card" v="yes"/>
    <tag k="ref" v="CSC-00337"/>
    <tag k="ref:EU:EVSE" v="PT*HRZ*E*CSC*00337*01;PT*HRZ*E*CSC*00337*02"/>
    <tag k="socket:type2" v="2"/>
    <tag k="socket:type2:current" v="32"/>
    <tag k="socket:type2:output" v="22kW"/>
    <tag k="socket:type2:voltage" v="400"/>
    <tag k="website" v="https://www.mobie.pt/"/>
  </node>
</old>
<new>
  <node id="12955171913" visible="true" version="1" timestamp="2025-06-26T22:25:44Z" changeset="168159705" uid="347293" user="Alexmol"/>
</new>
</action>
<action type="delete">
<old>
  <node id="12966700294" lat="37.1133147" lon="-8.6618084" version="1" timestamp="2025-07-01T15:55:52Z" changeset="168360663" uid="347293" user="Alexmol">
    <tag k="access" v="customers"/>
    <tag k="addr:country" v="PT"/>
    <tag k="amenity" v="charging_station"/>
    <tag k="authentication:membership_card" v="yes"/>
    <tag k="authentication:none" v="no"/>
    <tag k="capacity" v="2"/>
    <tag k="email" v="mobilidade-eletrica@edp.pt"/>
    <tag k="fee" v="yes"/>
    <tag k="maxstay" v="unlimited"/>
    <tag k="motorcar" v="yes"/>
    <tag k="network" v="Mobi.E"/>
    <tag k="opening_hours" v="24/7"/>
    <tag k="operator" v="EDP"/>
    <tag k="operator:wikidata" v="Q1341222"/>
    <tag k="parking:fee" v="no"/>
    <tag k="payment:app" v="yes"/>
    <tag k="payment:cards" v="no"/>
    <tag k="payment:cash" v="no"/>
    <tag k="payment:membership_card" v="yes"/>
    <tag k="phone" v="+351 800 222 222"/>
    <tag k="ref" v="LGS-00025"/>
    <tag k="ref:EU:EVSE" v="LGS-00007"/>
    <tag k="socket:type2" v="2"/>
    <tag k="socket:type2:current" v="16"/>
    <tag k="socket:type2:output" v="11kW"/>
    <tag k="socket:type2:voltage" v="400"/>
    <tag k="website" v="https://www.mobie.pt/"/>
  </node>
</old>
<new>
  <node id="12966700294" visible="false" version="0" timestamp="0000-00-00T00:00:00Z" changeset="0" uid="0" user=""/>
</new>
</action>
<action type="delete">
<old>
  <node id="12966821376" lat="37.8208066" lon="-7.9776567" version="1" timestamp="2025-07-01T16:27:02Z" changeset="168362071" uid="347293" user="Alexmol">
    <tag k="access" v="customers"/>
    <tag k="addr:country" v="PT"/>
    <tag k="amenity" v="charging_station"/>
    <tag k="authentication:membership_card" v="yes"/>
    <tag k="authentication:none" v="no"/>
    <tag k="capacity" v="2"/>
    <tag k="fee" v="yes"/>
    <tag k="maxstay" v="unlimited"/>
    <tag k="motorcar" v="yes"/>
    <tag k="network" v="Mobi.E"/>
    <tag k="opening_hours" v="24/7"/>
    <tag k="operator" v="Luzigás"/>
    <tag k="parking:fee" v="no"/>
    <tag k="payment:app" v="yes"/>
    <tag k="payment:cards" v="no"/>
    <tag k="payment:cash" v="no"/>
    <tag k="payment:membership_card" v="yes"/>
    <tag k="ref" v="BJA-00015"/>
    <tag k="socket:type2_cable" v="2"/>
    <tag k="socket:type2_cable:current" v="32"/>
    <tag k="socket:type2_cable:output" v="22kW"/>
    <tag k="socket:type2_cable:voltage" v="400"/>
    <tag k="website" v="https://www.mobie.pt/"/>
  </node>
</old>
<new>
  <node id="12966821376" visible="false" version="0" timestamp="0000-00-00T00:00:00Z" changeset="0" uid="0" user=""/>
</new>
</action>

</osm>
